{"type":"FeatureCollection","features":[{"type":"Feature","id":30086690,"properties":{"osmId":30086690,"category":"academic","building":"yes","building:levels":"4","building:material":"metal","name":"Broad Center","official_name":"Edythe and Eli Broad Center for the Biological Sciences","source":"usgs_imagery;survey;image","source_ref":"AM909_DSCV2835","wikidata":"Q62641364","_wikiTried":true},"geometry":{"type":"Polygon","coordinates":[[[-118.1276014,34.1399346],[-118.1276492,34.1399349],[-118.1276524,34.1395964],[-118.1271126,34.1395929],[-118.1271094,34.1399329],[-118.1271599,34.1399333],[-118.1271597,34.1399541],[-118.1276012,34.139957],[-118.1276014,34.1399346]]]}},{"type":"Feature","id":30086723,"properties":{"osmId":30086723,"category":"academic","building":"yes","building:levels":"3","name":"Noyes Laboratory","official_name":"Arthur Amos Noyes Laboratory of Chemical Physics","wikidata":"Q62641331","_wikiTried":true},"geometry":{"type":"Polygon","coordinates":[[[-118.1270342,34.1387199],[-118.1267918,34.1387199],[-118.1267918,34.1387029],[-118.1265327,34.138703],[-118.1265326,34.1383861],[-118.1267967,34.138386],[-118.1267966,34.1381092],[-118.1270342,34.1381091],[-118.1270355,34.1383193],[-118.1270342,34.1387199]]]}},{"type":"Feature","id":30086726,"properties":{"osmId":30086726,"category":"academic","building":"yes","building:levels":"3","building:material":"concrete","name":"Beckman Laboratories","official_name":"The Mabel and Arnold Beckman Laboratories of Behavioral Biology","wikidata":"Q62641341","_wikiTried":true},"geometry":{"type":"Polygon","coordinates":[[[-118.1260624,34.138836],[-118.1257224,34.1388356],[-118.1257235,34.1380165],[-118.1260636,34.1380168],[-118.1260624,34.138836]]]}},{"type":"Feature","id":30086730,"properties":{"osmId":30086730,"category":"academic","building":"yes","building:levels":"3","building:levels:underground":"1","building:material":"concrete","name":"Baxter Lecture Hall & Ramo Auditorium","wikidata":"Q62641339","_wikiTried":true},"geometry":{"type":"Polygon","coordinates":[[[-118.1253292,34.1388347],[-118.1250105,34.1388346],[-118.1250109,34.1380208],[-118.1253348,34.1380231],[-118.1253292,34.1388347]]]}},{"type":"Feature","id":30086742,"properties":{"osmId":30086742,"category":"academic","building":"yes","building:levels":"2","name":"Beckman Auditorium","roof:shape":"cone","wikidata":"Q62640825","_wikiTried":true},"geometry":{"type":"Polygon","coordinates":[[[-118.1255359,34.1394003],[-118.1255871,34.1393968],[-118.1256365,34.1393848],[-118.1256819,34.1393649],[-118.1257215,34.1393378],[-118.1257537,34.1393046],[-118.1257771,34.1392667],[-118.1257908,34.1392257],[-118.1257942,34.1391832],[-118.1257872,34.1391411],[-118.1257701,34.139101],[-118.1257435,34.1390645],[-118.1257086,34.1390333],[-118.1256668,34.1390085],[-118.1256198,34.1389912],[-118.1255696,34.1389822],[-118.1255151,34.1389819],[-118.1254617,34.1389913],[-118.1254121,34.13901],[-118.1253684,34.139037],[-118.1253327,34.1390711],[-118.1253066,34.1391108],[-118.1252914,34.1391541],[-118.1252878,34.1391992],[-118.1252959,34.1392438],[-118.1253153,34.139286],[-118.1253452,34.1393238],[-118.1253842,34.1393553],[-118.1254304,34.1393793],[-118.1254818,34.1393945],[-118.1255359,34.1394003]]]}},{"type":"Feature","id":30086749,"properties":{"osmId":30086749,"category":"academic","building":"yes","building:levels":"3","building:levels:underground":"2","building:material":"plaster","name":"Moore Laboratory","official_name":"The Gordon and Betty Moore Laboratory of Engineering","wikidata":"Q62641357","_wikiTried":true},"geometry":{"type":"Polygon","coordinates":[[[-118.1250635,34.139905],[-118.124835,34.1399046],[-118.1248354,34.1397623],[-118.1246909,34.1397621],[-118.1245558,34.1397619],[-118.1245555,34.1399066],[-118.1243279,34.1399062],[-118.1243284,34.1396677],[-118.1245352,34.139668],[-118.1245353,34.139625],[-118.1248586,34.1396254],[-118.1248585,34.1396703],[-118.1250641,34.1396706],[-118.1250635,34.139905]]]}},{"type":"Feature","id":30086758,"properties":{"osmId":30086758,"category":"academic","building":"yes","building:levels":"2","name":"Keck Laboratories","official_name":"W. M. Keck Engineering Laboratories","wikidata":"Q62641318","_wikiTried":true},"geometry":{"type":"Polygon","coordinates":[[[-118.124844,34.1386775],[-118.1246589,34.1386753],[-118.1246629,34.1380037],[-118.124848,34.1380015],[-118.1248467,34.1382302],[-118.124844,34.1386775]]]}},{"type":"Feature","id":30086767,"properties":{"osmId":30086767,"category":"academic","building":"yes","name":"Steele Laboratories","_wikiTried":true},"geometry":{"type":"Polygon","coordinates":[[[-118.1242874,34.1388396],[-118.1240956,34.1388407],[-118.1240956,34.1388218],[-118.1239602,34.1388218],[-118.1239562,34.1386997],[-118.1241064,34.1387019],[-118.1241064,34.1384144],[-118.1242928,34.1384155],[-118.1242874,34.1388396]]]}},{"type":"Feature","id":30086769,"properties":{"osmId":30086769,"category":"academic","building":"yes","created_by":"Potlatch 0.10f","name":"Powell-Booth Laboratory for Computational Science","wikidata":"Q62641360","_wikiTried":true},"geometry":{"type":"Polygon","coordinates":[[[-118.1242861,34.1380015],[-118.1242807,34.1383501],[-118.1240889,34.1383501],[-118.124093,34.1380037],[-118.1242861,34.1380015]]]}},{"type":"Feature","id":30086775,"properties":{"osmId":30086775,"category":"academic","building":"yes","created_by":"Potlatch 0.10f","name":"Jorgensen Laboratory","wikidata":"Q62641340","_wikiTried":true},"geometry":{"type":"Polygon","coordinates":[[[-118.1240474,34.1383811],[-118.1236879,34.1383845],[-118.1236879,34.1380859],[-118.1240487,34.1380848],[-118.1240474,34.1383811]]]}},{"type":"Feature","id":30794559,"properties":{"osmId":30794559,"category":"other","amenity":"parking","building":"parking","fee":"yes","name":"Student Parking Lot No.5","operator":"Pasadena City College","parking":"multi-storey","_wikiTried":true},"geometry":{"type":"Polygon","coordinates":[[[-118.116765,34.1429348],[-118.1167666,34.1429087],[-118.116752,34.1428961],[-118.1167518,34.1428769],[-118.1167516,34.1428568],[-118.1166078,34.1428578],[-118.1165782,34.142858],[-118.1165617,34.1428581],[-118.1162085,34.1428604],[-118.115868,34.1428627],[-118.115878,34.1439006],[-118.115929,34.1439004],[-118.1159289,34.1439344],[-118.116223,34.1439348],[-118.116577,34.1439304],[-118.1165849,34.1439303],[-118.1166219,34.1439298],[-118.1167629,34.1439288],[-118.1167626,34.1439106],[-118.1167621,34.1438873],[-118.1167747,34.1438791],[-118.1167747,34.1438518],[-118.116809,34.1438512],[-118.1168216,34.1438402],[-118.1168531,34.1438397],[-118.1168755,34.1438402],[-118.1168668,34.1429476],[-118.1168409,34.1429479],[-118.1168149,34.1429481],[-118.1167981,34.1429347],[-118.116765,34.1429348]]]}},{"type":"Feature","id":30794560,"properties":{"osmId":30794560,"category":"academic","access":"permit","amenity":"parking","building":"yes","building:levels":"4","fee":"yes","name":"Parking Structure 2","operator":"Caltech","operator:type":"university","parking":"multi-storey","ref":"2","_wikiTried":true},"geometry":{"type":"Polygon","coordinates":[[[-118.1285923,34.1382132],[-118.1281747,34.138215],[-118.128175,34.138313],[-118.128177,34.1389729],[-118.1285932,34.138972],[-118.1285923,34.1382132]]]}},{"type":"Feature","id":30794564,"properties":{"osmId":30794564,"category":"academic","access":"yes","amenity":"parking","building":"yes","fee":"yes","name":"Parking Structure 1","operator":"Caltech","operator:type":"university","parking":"multi-storey","ref":"1","_wikiTried":true},"geometry":{"type":"Polygon","coordinates":[[[-118.1286266,34.139512],[-118.128606,34.1395122],[-118.1281745,34.1395157],[-118.128179,34.1399006],[-118.12818,34.1399934],[-118.1281836,34.1402641],[-118.1286355,34.1402604],[-118.1286266,34.139512]]]}},{"type":"Feature","id":32735305,"properties":{"osmId":32735305,"category":"residential","building":"dormitory","name":"Venerable House","wikidata":"Q62639877","_wikiTried":true},"geometry":{"type":"Polygon","coordinates":[[[-118.1223151,34.1371404],[-118.1224844,34.1371405],[-118.1224842,34.1372806],[-118.1226959,34.1372808],[-118.1226956,34.1374587],[-118.122851,34.1374588],[-118.1228513,34.1374797],[-118.1228504,34.1376124],[-118.1228118,34.1376123],[-118.122522,34.1376123],[-118.1225223,34.1374212],[-118.1223147,34.137421],[-118.1223151,34.1371404]]]}},{"type":"Feature","id":32735342,"properties":{"osmId":32735342,"category":"residential","building":"dormitory","name":"Lloyd House","wikidata":"Q62639873","_wikiTried":true},"geometry":{"type":"Polygon","coordinates":[[[-118.1225495,34.1369382],[-118.1225492,34.1370847],[-118.1227943,34.137085],[-118.1227939,34.1373073],[-118.1228528,34.1373074],[-118.122851,34.1374588],[-118.1228513,34.1374797],[-118.1230252,34.1374805],[-118.1230256,34.1372643],[-118.1229679,34.1372643],[-118.1229685,34.1369387],[-118.1225495,34.1369382]]]}},{"type":"Feature","id":32735362,"properties":{"osmId":32735362,"category":"residential","building":"apartments","building:levels":"2","name":"Page House","wikidata":"Q62639862","_wikiTried":true},"geometry":{"type":"Polygon","coordinates":[[[-118.1231718,34.1369438],[-118.1231714,34.1374812],[-118.1231711,34.1375246],[-118.1233423,34.1375253],[-118.1233428,34.1373097],[-118.1234159,34.1373098],[-118.1234157,34.1373721],[-118.1235904,34.1373724],[-118.123591,34.1371716],[-118.1233422,34.1371711],[-118.1233428,34.1369441],[-118.1231718,34.1369438]]]}},{"type":"Feature","id":32735459,"properties":{"osmId":32735459,"category":"residential","building":"dormitory","name":"Dabney House","wikidata":"Q62639850","_wikiTried":true},"geometry":{"type":"Polygon","coordinates":[[[-118.1232144,34.1362487],[-118.1233933,34.1362494],[-118.1233925,34.1363934],[-118.1235044,34.1363939],[-118.123506,34.1361265],[-118.1233936,34.1361261],[-118.1233828,34.1361339],[-118.1231904,34.1361331],[-118.1231905,34.1361163],[-118.1230859,34.1361159],[-118.1230854,34.1361966],[-118.1230216,34.1361964],[-118.123021,34.1362916],[-118.1230893,34.1362919],[-118.1230887,34.1363919],[-118.1232135,34.1363924],[-118.1232144,34.1362487]]]}},{"type":"Feature","id":32735471,"properties":{"osmId":32735471,"category":"residential","building":"dormitory","name":"Blacker House","wikidata":"Q62639841","_wikiTried":true},"geometry":{"type":"Polygon","coordinates":[[[-118.1226913,34.1363836],[-118.1228077,34.1363844],[-118.1228086,34.1362925],[-118.123021,34.1362916],[-118.1230216,34.1361964],[-118.1228062,34.136193],[-118.1228071,34.1360968],[-118.122687,34.136096],[-118.1226867,34.1361245],[-118.122342,34.1361221],[-118.1223404,34.136285],[-118.1224659,34.1362859],[-118.1224663,34.1362422],[-118.122672,34.1362436],[-118.1226716,34.1362839],[-118.1226923,34.1362841],[-118.1226913,34.1363836]]]}},{"type":"Feature","id":44634949,"properties":{"osmId":44634949,"category":"academic","building":"yes","leisure":"sports_hall","name":"Brown Gym","official_name":"Scott Brown Gymnasium","wikidata":"Q62641309","_wikiTried":true},"geometry":{"type":"Polygon","coordinates":[[[-118.1265425,34.1339587],[-118.1260034,34.1339598],[-118.1260047,34.133921],[-118.1257271,34.1339182],[-118.1257271,34.1336324],[-118.1261817,34.1336335],[-118.1261817,34.1336868],[-118.1265438,34.1336868],[-118.1265425,34.1339587]]]}},{"type":"Feature","id":44634950,"properties":{"osmId":44634950,"category":"athletic","building":"yes","leisure":"sports_centre","name":"Braun Athletic Center","wikidata":"Q62641355","_wikiTried":true},"geometry":{"type":"Polygon","coordinates":[[[-118.1277669,34.1341508],[-118.1273579,34.1341552],[-118.1273565,34.134123],[-118.1272385,34.1339665],[-118.1271715,34.1339621],[-118.1271755,34.1336823],[-118.1273337,34.1336834],[-118.1273834,34.1336313],[-118.1278031,34.1336279],[-118.1278031,34.1338944],[-118.1277669,34.1338977],[-118.1277669,34.1341508]]]}},{"type":"Feature","id":44634962,"properties":{"osmId":44634962,"category":"academic","building":"yes","name":"Marks House","wikidata":"Q62644978","_wikiTried":true},"geometry":{"type":"Polygon","coordinates":[[[-118.1221181,34.1381333],[-118.1217033,34.1381324],[-118.1217036,34.138052],[-118.1217423,34.138052],[-118.1217424,34.1380291],[-118.1218561,34.1380293],[-118.1218562,34.1379953],[-118.1220164,34.1379956],[-118.1220163,34.1380315],[-118.1221184,34.1380317],[-118.1221181,34.1381333]]]}},{"type":"Feature","id":44634965,"properties":{"osmId":44634965,"category":"academic","addr:housenumber":"1239","addr:street":"Arden Road","amenity":"doctors","building":"yes","healthcare":"doctor","name":"Young Student Health Center","_wikiTried":true},"geometry":{"type":"Polygon","coordinates":[[[-118.1250726,34.1355006],[-118.1249385,34.135515],[-118.1248983,34.1352664],[-118.1248084,34.135293],[-118.1247709,34.1352087],[-118.1251249,34.1351076],[-118.1251585,34.1351898],[-118.1250297,34.1352253],[-118.1250726,34.1355006]]]}},{"type":"Feature","id":44634969,"properties":{"osmId":44634969,"category":"academic","building":"yes","building:levels":"3","name":"Keith Spalding","official_name":"Keith Spalding Building of Business Services","wikidata":"Q62641336","_wikiTried":true},"geometry":{"type":"Polygon","coordinates":[[[-118.1276099,34.1357471],[-118.1270148,34.1357441],[-118.1270152,34.1355113],[-118.1276085,34.1355121],[-118.1276099,34.1357471]]]}},{"type":"Feature","id":44634973,"properties":{"osmId":44634973,"category":"academic","building":"yes","building:levels":"3","name":"Cahill Center","official_name":"Cahill Center for Astronomy and Astrophysics","source":"survey;image","source_ref":"AM909_DSCV2792","wikidata":"Q62641366","_wikiTried":true},"geometry":{"type":"Polygon","coordinates":[[[-118.1266532,34.1357172],[-118.1265238,34.1357101],[-118.1262114,34.1357041],[-118.125875,34.1357306],[-118.1259034,34.1355361],[-118.1259097,34.1353975],[-118.1264066,34.135415],[-118.1266592,34.1354025],[-118.1266532,34.1357172]]]}},{"type":"Feature","id":44634983,"properties":{"osmId":44634983,"category":"academic","addr:housenumber":"367","addr:street":"South Holliston Avenue","building":"yes","name":"Central Engineering","source":"usgs_imagery;survey;image","source_ref":"AM909_DSCV2808","wikidata":"Q62641328","_wikiTried":true},"geometry":{"type":"Polygon","coordinates":[[[-118.1237635,34.1395281],[-118.1236463,34.1395279],[-118.1236464,34.1394922],[-118.1230887,34.1394909],[-118.1230891,34.1393774],[-118.123057,34.1393774],[-118.1230575,34.139218],[-118.1233225,34.1392186],[-118.123323,34.1390704],[-118.1234167,34.1390706],[-118.1234168,34.1390447],[-118.1236433,34.1390452],[-118.123643,34.1391152],[-118.1236968,34.1391154],[-118.1236966,34.1391811],[-118.1237647,34.1391812],[-118.1237635,34.1395281]]]}},{"type":"Feature","id":44634987,"properties":{"osmId":44634987,"category":"academic","addr:city":"Pasadena","addr:housenumber":"399","addr:postcode":"91106","addr:state":"CA","addr:street":"Holliston Ave","addr:street_direction_prefix":"S","building":"yes","name":"HR","source":"usgs_imagery;survey;image","source_ref":"AM909_DSCV2805","_wikiTried":true},"geometry":{"type":"Polygon","coordinates":[[[-118.1234585,34.138842],[-118.1230126,34.1388418],[-118.1230127,34.1386582],[-118.1230756,34.1386583],[-118.1230757,34.1383971],[-118.1230129,34.1383971],[-118.1230131,34.1382184],[-118.1233318,34.1382185],[-118.1233319,34.1381083],[-118.1231274,34.1381082],[-118.1231275,34.1379625],[-118.123642,34.1379627],[-118.1236419,34.138107],[-118.1234961,34.1381069],[-118.123496,34.1382864],[-118.123459,34.1382864],[-118.1234585,34.138842]]]}},{"type":"Feature","id":44634991,"properties":{"osmId":44634991,"category":"academic","addr:housenumber":"414","addr:street":"South Holliston Avenue","building":"yes","name":"Center for Student Services","wikidata":"Q62641320","_wikiTried":true},"geometry":{"type":"Polygon","coordinates":[[[-118.1225582,34.1388792],[-118.1224194,34.1388796],[-118.1224181,34.1385733],[-118.1223283,34.1385736],[-118.122328,34.138498],[-118.1224191,34.1384977],[-118.1224177,34.1381808],[-118.1225385,34.1381804],[-118.1225385,34.13817],[-118.122589,34.1381699],[-118.1225904,34.1384962],[-118.1226232,34.1384961],[-118.1226235,34.1385753],[-118.1225569,34.1385755],[-118.1225582,34.1388792]]]}},{"type":"Feature","id":44634995,"properties":{"osmId":44634995,"category":"academic","building":"yes","name":"Braun House","wikidata":"Q62644975","_wikiTried":true},"geometry":{"type":"Polygon","coordinates":[[[-118.1225456,34.138116],[-118.1221873,34.1381169],[-118.1221868,34.1379982],[-118.1224311,34.1379975],[-118.1224312,34.1380177],[-118.12258,34.1380173],[-118.1225802,34.1380887],[-118.1225455,34.1380888],[-118.1225456,34.138116]]]}},{"type":"Feature","id":44634999,"properties":{"osmId":44634999,"category":"academic","building":"yes","name":"Gates Annex","_wikiTried":true},"geometry":{"type":"Polygon","coordinates":[[[-118.1262669,34.1372919],[-118.1261983,34.137292],[-118.1261984,34.1373199],[-118.1261086,34.1373201],[-118.1260628,34.1373202],[-118.1260627,34.1372914],[-118.1259971,34.1372916],[-118.1259958,34.1371888],[-118.1262665,34.1371876],[-118.1262669,34.1372919]]]}},{"type":"Feature","id":44635003,"properties":{"osmId":44635003,"category":"academic","building":"yes","building:levels":"2","name":"Braun Labs","wikidata":"Q62641347","_wikiTried":true},"geometry":{"type":"Polygon","coordinates":[[[-118.1275989,34.1383923],[-118.1272462,34.1383918],[-118.1272473,34.1377816],[-118.1276,34.1377821],[-118.1275998,34.1378834],[-118.1275997,34.1379272],[-118.1276602,34.1379273],[-118.1276595,34.1382485],[-118.1275992,34.1382484],[-118.1275989,34.1383923]]]}},{"type":"Feature","id":44635008,"properties":{"osmId":44635008,"category":"academic","building":"yes","name":"Schlinger","official_name":"Warren and Katharine Schlinger Laboratory for Chemistry and Chemical Engineering","wikidata":"Q62641368","_wikiTried":true},"geometry":{"type":"Polygon","coordinates":[[[-118.1265274,34.1383532],[-118.126168,34.1383588],[-118.1261666,34.1383111],[-118.1261988,34.13831],[-118.1261975,34.1382089],[-118.1261707,34.1382078],[-118.126168,34.1381246],[-118.1261412,34.1381235],[-118.1261371,34.1381013],[-118.1261693,34.1380258],[-118.1262136,34.1379758],[-118.1266441,34.1379281],[-118.1266508,34.1379681],[-118.1266172,34.1379747],[-118.1266427,34.1381235],[-118.1266012,34.1381268],[-118.1266012,34.1381501],[-118.1265797,34.1381512],[-118.126569,34.1382034],[-118.1265556,34.1382045],[-118.1265515,34.1383166],[-118.1265287,34.1383177],[-118.1265274,34.1383532]]]}},{"type":"Feature","id":44635014,"properties":{"osmId":44635014,"category":"academic","building":"yes","building:levels":"3","building:material":"glass","name":"Annenberg Center for Information Science and Technology","wikidata":"Q62641367","_wikiTried":true},"geometry":{"type":"Polygon","coordinates":[[[-118.1241464,34.1399017],[-118.1235264,34.1398999],[-118.1235267,34.1398298],[-118.1235572,34.1398299],[-118.1235581,34.1396448],[-118.1237599,34.1396454],[-118.1241475,34.1396466],[-118.1241464,34.1399017]]]}},{"type":"Feature","id":44635015,"properties":{"osmId":44635015,"category":"academic","building":"yes","name":"Kerckhoff","official_name":"William G. Kerckhoff Laboratories of the Biological Sciences","wikidata":"Q62641299","_wikiTried":true},"geometry":{"type":"Polygon","coordinates":[[[-118.127599,34.137196],[-118.1272884,34.1371934],[-118.1271214,34.1371921],[-118.1268405,34.1371898],[-118.1268396,34.1372667],[-118.1266988,34.1372655],[-118.1266997,34.1371925],[-118.1264602,34.1371905],[-118.1264347,34.1371903],[-118.1264366,34.1370331],[-118.1276008,34.1370427],[-118.127599,34.137196]]]}},{"type":"Feature","id":44635017,"properties":{"osmId":44635017,"category":"academic","building":"yes","name":"Church","official_name":"Norman W. Church Laboratory for Chemical Biology","wikidata":"Q62641311","_wikiTried":true},"geometry":{"type":"Polygon","coordinates":[[[-118.1275999,34.1375897],[-118.1265914,34.1375886],[-118.1265895,34.1375225],[-118.1265894,34.1374495],[-118.1271189,34.1374477],[-118.1272859,34.1374488],[-118.1276001,34.1374486],[-118.1275999,34.1375897]]]}},{"type":"Feature","id":44635022,"properties":{"osmId":44635022,"category":"academic","building":"yes","name":"Alles","official_name":"Gordon A. Alles Laboratory for Molecular Biology","wikidata":"Q62641316","_wikiTried":true},"geometry":{"type":"Polygon","coordinates":[[[-118.1271189,34.1374477],[-118.1271214,34.1371921],[-118.1272884,34.1371934],[-118.1272859,34.1374488],[-118.1271189,34.1374477]]]}},{"type":"Feature","id":44635025,"properties":{"osmId":44635025,"category":"academic","building":"yes","name":"Crellin","_wikiTried":true},"geometry":{"type":"Polygon","coordinates":[[[-118.1264581,34.1375449],[-118.126266,34.1375449],[-118.1262669,34.1372919],[-118.1262665,34.1371876],[-118.1264347,34.1371903],[-118.1264602,34.1371905],[-118.1264603,34.1374495],[-118.1265222,34.1374495],[-118.1265894,34.1374495],[-118.1265895,34.1375225],[-118.1265217,34.1375225],[-118.1264581,34.1375226],[-118.1264581,34.1375449]]]}},{"type":"Feature","id":44635027,"properties":{"osmId":44635027,"category":"academic","building":"yes","building:levels":"2","building:material":"plaster","name":"Parsons-Gates","_wikiTried":true},"geometry":{"type":"Polygon","coordinates":[[[-118.1260002,34.137541],[-118.1258074,34.1375427],[-118.1258031,34.1371904],[-118.1259958,34.1371888],[-118.1259971,34.1372916],[-118.1260002,34.137541]]]}},{"type":"Feature","id":44635032,"properties":{"osmId":44635032,"category":"academic","building":"yes","building:levels":"3","layer":"1","name":"South Mudd","official_name":"Seeley G. Mudd Building of Geophysics and Planetary Science","wikidata":"Q62641343","_wikiTried":true},"geometry":{"type":"Polygon","coordinates":[[[-118.1276434,34.136492],[-118.1276006,34.1364922],[-118.1276007,34.1365521],[-118.1274686,34.1365524],[-118.1274675,34.1362285],[-118.1271422,34.1362293],[-118.1271416,34.1360458],[-118.1277054,34.1360445],[-118.127706,34.1362345],[-118.1276426,34.1362347],[-118.1276434,34.136492]]]}},{"type":"Feature","id":44635046,"properties":{"osmId":44635046,"category":"academic","building":"yes","name":"Arms Laboratory of the Geological Sciences","official_name":"Charles Arms Laboratory of the Geological Sciences","wikidata":"Q62641305","_wikiTried":true},"geometry":{"type":"Polygon","coordinates":[[[-118.1268455,34.1367055],[-118.1264335,34.1367059],[-118.1264333,34.1365522],[-118.1264623,34.1365521],[-118.1266117,34.136552],[-118.1266116,34.1364431],[-118.1267605,34.136443],[-118.1267606,34.1365539],[-118.1268453,34.1365538],[-118.1268455,34.1367055]]]}},{"type":"Feature","id":44635050,"properties":{"osmId":44635050,"category":"academic","building":"yes","name":"Linde Laboratory for Global Environmental Science","old_name":"Robinson Laboratory of Astrophysics","start":"1932","wikidata":"Q62641303","_wikiTried":true},"geometry":{"type":"Polygon","coordinates":[[[-118.1270876,34.1365564],[-118.1270602,34.1365565],[-118.1269934,34.1365566],[-118.1268989,34.1365568],[-118.1268976,34.1362048],[-118.1270863,34.1362044],[-118.1270876,34.1365564]]]}},{"type":"Feature","id":44635051,"properties":{"osmId":44635051,"category":"academic","building":"yes","name":"North Mudd","official_name":"Seeley W. Mudd Laboratory of the Geological Sciences","wikidata":"Q62641306","_wikiTried":true},"geometry":{"type":"Polygon","coordinates":[[[-118.1276023,34.1367155],[-118.1270616,34.1367187],[-118.1270602,34.1365565],[-118.1270876,34.1365564],[-118.1274686,34.1365524],[-118.1276007,34.1365521],[-118.1276023,34.1367155]]]}},{"type":"Feature","id":44635054,"properties":{"osmId":44635054,"category":"academic","building":"yes","name":"Synchrotron Building","wikidata":"Q62796132","_wikiTried":true},"geometry":{"type":"Polygon","coordinates":[[[-118.1240443,34.136602],[-118.1237754,34.1366014],[-118.1237721,34.1361064],[-118.1240411,34.1361052],[-118.1240422,34.1362358],[-118.1240443,34.136602]]]}},{"type":"Feature","id":44635056,"properties":{"osmId":44635056,"category":"academic","building":"yes","building:levels":"3","building:material":"plaster","name":"Firestone Flight Sciences Laboratory","wikidata":"Q62641323","_wikiTried":true},"geometry":{"type":"Polygon","coordinates":[[[-118.1240821,34.1366738],[-118.1240819,34.1367136],[-118.1236828,34.1367126],[-118.1236832,34.1366011],[-118.1237754,34.1366014],[-118.1240443,34.136602],[-118.1242,34.1366024],[-118.1241996,34.1366741],[-118.1240821,34.1366738]]]}},{"type":"Feature","id":44635057,"properties":{"osmId":44635057,"category":"academic","alt_name":"High Volts","building":"yes","building:levels":"3","name":"Linde Hall of Mathematics and Physics","old_name:-1960":"High Voltage Research Laboratory","old_name:1960-2017":"Sloan Laboratory for Mathematics and Physics","start":"1923","wikidata":"Q62641297","_wikiTried":true},"geometry":{"type":"Polygon","coordinates":[[[-118.1254867,34.136551],[-118.1253441,34.1365496],[-118.1252664,34.1365488],[-118.1252687,34.1363997],[-118.1252717,34.136201],[-118.125492,34.1362032],[-118.1254867,34.136551]]]}},{"type":"Feature","id":44635058,"properties":{"osmId":44635058,"category":"academic","building":"yes","name":"Kellogg Radiation Laboratory","wikidata":"Q62641301","_wikiTried":true},"geometry":{"type":"Polygon","coordinates":[[[-118.1252664,34.1365488],[-118.1250206,34.1365468],[-118.1250198,34.1364006],[-118.1252687,34.1363997],[-118.1252664,34.1365488]]]}},{"type":"Feature","id":44635060,"properties":{"osmId":44635060,"category":"academic","building":"yes","building:levels":"3","building:material":"plaster","name":"Dabney Hall","wikidata":"Q62641298","_wikiTried":true},"geometry":{"type":"Polygon","coordinates":[[[-118.1254868,34.1375482],[-118.125404,34.1375479],[-118.125324,34.1375476],[-118.1253238,34.1372839],[-118.1251889,34.137284],[-118.1250161,34.1372841],[-118.1250181,34.1371912],[-118.1254887,34.137193],[-118.1254868,34.1375482]]]}},{"type":"Feature","id":44635061,"properties":{"osmId":44635061,"category":"academic","building":"yes","building:levels":"3","building:material":"plaster","name":"Guggenheim Aeronautical Laboratory","wikidata":"Q31680","wikipedia":"en:Guggenheim Aeronautical Laboratory","_wikiTried":true},"geometry":{"type":"Polygon","coordinates":[[[-118.124896,34.1367104],[-118.1241994,34.1367079],[-118.1241996,34.1366741],[-118.1242,34.1366024],[-118.1242002,34.1365718],[-118.1242326,34.1365719],[-118.1242332,34.1364692],[-118.1244542,34.1364701],[-118.1244544,34.1364259],[-118.1245184,34.1364261],[-118.1245177,34.1365455],[-118.124718,34.1365462],[-118.1247179,34.1365708],[-118.1247856,34.136571],[-118.1248968,34.1365714],[-118.124896,34.1367104]]]}},{"type":"Feature","id":44635062,"properties":{"osmId":44635062,"category":"academic","building":"yes","name":"Kármán Laboratory of Fluid Mechanics and Jet Propulsion","wikidata":"Q62641321","_wikiTried":true},"geometry":{"type":"Polygon","coordinates":[[[-118.1248968,34.1365714],[-118.1247856,34.136571],[-118.1247883,34.1364813],[-118.1247682,34.1364813],[-118.1247669,34.1364625],[-118.1246086,34.1364636],[-118.1246086,34.136377],[-118.1248916,34.1363759],[-118.1248968,34.1365714]]]}},{"type":"Feature","id":44635063,"properties":{"osmId":44635063,"category":"academic","building":"yes","name":"Downs Laboratory of Physics","wikidata":"Q62641335","_wikiTried":true},"geometry":{"type":"Polygon","coordinates":[[[-118.1248381,34.136235],[-118.1247511,34.1362352],[-118.1247513,34.1362742],[-118.1245273,34.1362747],[-118.1245268,34.1360927],[-118.1245176,34.1360759],[-118.1247596,34.1360755],[-118.1247597,34.1360965],[-118.1248377,34.1360963],[-118.1248381,34.136235]]]}},{"type":"Feature","id":44635065,"properties":{"osmId":44635065,"category":"academic","building":"yes","name":"Lauritsen Laboratory of High Energy Physics","wikidata":"Q62641335","_wikiTried":true},"geometry":{"type":"Polygon","coordinates":[[[-118.1242174,34.1362757],[-118.1242171,34.1362348],[-118.1240422,34.1362358],[-118.1240411,34.1361052],[-118.124046,34.13609],[-118.1241339,34.1360895],[-118.1241337,34.1360728],[-118.1244565,34.136071],[-118.1244566,34.1360931],[-118.1245268,34.1360927],[-118.1245273,34.1362747],[-118.1242174,34.1362757]]]}},{"type":"Feature","id":44635068,"properties":{"osmId":44635068,"category":"academic","building":"yes","building:levels":"9","name":"Caltech Hall","wikidata":"Q62641330","_wikiTried":true},"geometry":{"type":"Polygon","coordinates":[[[-118.1262663,34.1369737],[-118.1260107,34.1369728],[-118.12601,34.136955],[-118.1260107,34.1369421],[-118.1260107,34.1369061],[-118.1259825,34.1369063],[-118.1259825,34.1368878],[-118.1259562,34.1368878],[-118.1259561,34.1369018],[-118.1259107,34.1369383],[-118.1258465,34.1369376],[-118.1258009,34.1368996],[-118.1258009,34.1368458],[-118.125845,34.1368083],[-118.125911,34.1368079],[-118.1259574,34.1368464],[-118.1259578,34.1368552],[-118.1259781,34.1368552],[-118.1259782,34.1368364],[-118.1260107,34.1368365],[-118.126011,34.1368044],[-118.1260107,34.1367742],[-118.1262663,34.1367729],[-118.1262661,34.1368417],[-118.1262758,34.1368418],[-118.1262758,34.1368337],[-118.1263143,34.1368335],[-118.1263103,34.1368538],[-118.1263095,34.1368749],[-118.1263112,34.1368951],[-118.1263152,34.1369153],[-118.1262752,34.136915],[-118.1262751,34.1369056],[-118.1262657,34.1369055],[-118.1262657,34.1369553],[-118.1262663,34.1369737]]]}},{"type":"Feature","id":44635071,"properties":{"osmId":44635071,"category":"academic","building":"yes","building:levels":"3","building:material":"plaster","name":"Thomas","official_name":"Gates–Thomas Laboratory of Engineering","wikidata":"Q62641307","_wikiTried":true},"geometry":{"type":"Polygon","coordinates":[[[-118.1248852,34.1371562],[-118.1247166,34.1371545],[-118.1241942,34.1371495],[-118.1241961,34.1370101],[-118.1248871,34.1370166],[-118.1248852,34.1371562]]]}},{"type":"Feature","id":44635077,"properties":{"osmId":44635077,"category":"academic","building":"yes","building:levels":"3","name":"Spalding","official_name":"Eudora Hull Spalding Laboratory of Engineering","wikidata":"Q62641312","_wikiTried":true},"geometry":{"type":"Polygon","coordinates":[[[-118.1248845,34.1376854],[-118.1241945,34.1376855],[-118.1241944,34.1375283],[-118.1247155,34.1375282],[-118.1247155,34.1375442],[-118.1248851,34.1375445],[-118.1248845,34.1376854]]]}},{"type":"Feature","id":44635080,"properties":{"osmId":44635080,"category":"library","amenity":"library","building":"yes","building:levels":"3","name":"Fairchild Library","official_name":"Sherman Fairchild Library of Engineering and Applied Science","wikidata":"Q62641358","_wikiTried":true},"geometry":{"type":"Polygon","coordinates":[[[-118.1247155,34.1375282],[-118.1247166,34.1371545],[-118.1248852,34.1371562],[-118.1248846,34.1373103],[-118.1248537,34.1373103],[-118.1248535,34.1373876],[-118.1248855,34.1373877],[-118.1248851,34.1375445],[-118.1247155,34.1375442],[-118.1247155,34.1375282]]]}},{"type":"Feature","id":44635196,"properties":{"osmId":44635196,"category":"academic","addr:housenumber":"370","addr:street":"South Holliston Avenue","amenity":"parking","building":"yes","parking":"multi-storey"},"geometry":{"type":"Polygon","coordinates":[[[-118.1226101,34.1398664],[-118.1224318,34.139867],[-118.1222034,34.1398679],[-118.122199,34.1390623],[-118.1226056,34.1390608],[-118.1226079,34.1394691],[-118.1226101,34.1398664]]]}},{"type":"Feature","id":45094662,"properties":{"osmId":45094662,"category":"dining","amenity":"restaurant","building":"yes","name":"Browne Café","_wikiTried":true},"geometry":{"type":"Polygon","coordinates":[[[-118.1235936,34.1374746],[-118.12343,34.1374738],[-118.1234296,34.1375257],[-118.1233423,34.1375253],[-118.1231711,34.1375246],[-118.1231714,34.1374812],[-118.1230252,34.1374805],[-118.1228513,34.1374797],[-118.1228504,34.1376124],[-118.1228118,34.1376123],[-118.1228115,34.1376513],[-118.1229517,34.1376519],[-118.1229516,34.1376686],[-118.123093,34.1376692],[-118.1230929,34.1376837],[-118.1231849,34.1376841],[-118.1231843,34.1377734],[-118.1234943,34.1377746],[-118.1234945,34.137746],[-118.1235566,34.1377463],[-118.1235569,34.1376999],[-118.1235921,34.1377001],[-118.1235934,34.1374988],[-118.1235936,34.1374746]]]}},{"type":"Feature","id":45095034,"properties":{"osmId":45095034,"category":"academic","building":"yes"},"geometry":{"type":"Polygon","coordinates":[[[-118.1238974,34.1387963],[-118.1236562,34.138799],[-118.1236534,34.1386289],[-118.1238947,34.1386263],[-118.1238974,34.1387963]]]}},{"type":"Feature","id":45095035,"properties":{"osmId":45095035,"category":"dining","amenity":"restaurant","building":"yes","building:levels":"1","building:material":"metal","name":"Broad Cafe","_wikiTried":true},"geometry":{"type":"Polygon","coordinates":[[[-118.1270005,34.1395941],[-118.1268335,34.1395933],[-118.1268332,34.1396075],[-118.1267564,34.1396065],[-118.1267561,34.1396963],[-118.1268124,34.1396914],[-118.1268123,34.13971],[-118.126757,34.1397101],[-118.1267561,34.1397174],[-118.1267533,34.1397241],[-118.126749,34.1397303],[-118.1267433,34.1397351],[-118.1267367,34.1397397],[-118.1267305,34.1397428],[-118.1267225,34.1397448],[-118.1267146,34.1397455],[-118.1267135,34.1398245],[-118.1267258,34.1398236],[-118.1267381,34.1398222],[-118.1267513,34.1398197],[-118.126763,34.1398166],[-118.1267756,34.1398117],[-118.1267798,34.1398094],[-118.1267932,34.1398252],[-118.126781,34.1398342],[-118.1267697,34.1398414],[-118.1267573,34.1398482],[-118.1267434,34.1398545],[-118.1267285,34.1398597],[-118.126713,34.1398636],[-118.1267121,34.1399265],[-118.1267352,34.1399159],[-118.126755,34.1399042],[-118.1267718,34.1398933],[-118.1267899,34.1398785],[-118.1268075,34.1398623],[-118.1268238,34.1398433],[-118.126837,34.1398258],[-118.1268489,34.1398061],[-118.1268595,34.1397865],[-118.1268688,34.1397623],[-118.1268719,34.139737],[-118.1268727,34.1397109],[-118.1268343,34.1397108],[-118.126835,34.1396895],[-118.1269575,34.1396791],[-118.1269568,34.139719],[-118.1269992,34.1397189],[-118.1270005,34.1395941]]]}},{"type":"Feature","id":45420596,"properties":{"osmId":45420596,"category":"academic","addr:housenumber":"772","addr:street":"South Wilson Avenue","building":"yes","name":"Morrisroe","official_name":"David W. Morrisroe Astroscience Laboratory","wikidata":"Q62641350","_wikiTried":true},"geometry":{"type":"Polygon","coordinates":[[[-118.127802,34.1335482],[-118.1275249,34.1335526],[-118.12752,34.1333578],[-118.1275111,34.1329243],[-118.1278019,34.1329214],[-118.127802,34.1335482]]]}},{"type":"Feature","id":60863345,"properties":{"osmId":60863345,"category":"library","amenity":"library","building":"yes","designation":"LL","name":"Shatford Library","_wikiTried":true},"geometry":{"type":"Polygon","coordinates":[[[-118.117095,34.145447],[-118.1169222,34.145448],[-118.116925,34.1454821],[-118.1168773,34.1455011],[-118.1168264,34.1455103],[-118.116767,34.1455118],[-118.1167071,34.1455038],[-118.1166522,34.1454848],[-118.1166498,34.1454484],[-118.1164536,34.1454506],[-118.1164552,34.1453477],[-118.1163596,34.1453493],[-118.1163608,34.1452135],[-118.116489,34.1452099],[-118.1164885,34.145183],[-118.1164512,34.145184],[-118.1164504,34.1450966],[-118.1171267,34.1450907],[-118.1171258,34.1452022],[-118.1173345,34.145201],[-118.1173425,34.1453447],[-118.1170924,34.1453443],[-118.117095,34.145447]]]}},{"type":"Feature","id":70859867,"properties":{"osmId":70859867,"category":"academic","building":"yes"},"geometry":{"type":"Polygon","coordinates":[[[-118.1276594,34.1354137],[-118.1275384,34.1354181],[-118.1275225,34.1349794],[-118.1277857,34.1349778],[-118.1277856,34.1353429],[-118.1276632,34.1353422],[-118.1276594,34.1354137]]]}},{"type":"Feature","id":70859869,"properties":{"osmId":70859869,"category":"academic","building":"yes"},"geometry":{"type":"Polygon","coordinates":[[[-118.127618,34.1348401],[-118.1275041,34.1348379],[-118.1275027,34.1346747],[-118.12761,34.1346736],[-118.1276113,34.1345382],[-118.1277843,34.1345382],[-118.1277857,34.1348057],[-118.1276167,34.1348068],[-118.127618,34.1348401]]]}},{"type":"Feature","id":70859870,"properties":{"osmId":70859870,"category":"academic","addr:housenumber":"271","addr:postcode":"91106","addr:street":"South Chester Avenue","building":"yes","name":"Financial Services","source":"usgs_imagery;survey;image","source_ref":"AM909_DSCV2818","wikidata":"Q62641363","_wikiTried":true},"geometry":{"type":"Polygon","coordinates":[[[-118.1251894,34.1412198],[-118.1246595,34.1412371],[-118.1246529,34.1410987],[-118.1251828,34.1410814],[-118.1251894,34.1412198]]]}},{"type":"Feature","id":70859874,"properties":{"osmId":70859874,"category":"academic","building":"yes","name":"IMSS","_wikiTried":true},"geometry":{"type":"Polygon","coordinates":[[[-118.1250166,34.1416456],[-118.1250101,34.1413265],[-118.1246562,34.1413315],[-118.1246628,34.1416506],[-118.1250166,34.1416456]]]}},{"type":"Feature","id":70872431,"properties":{"osmId":70872431,"category":"residential","addr:city":"Pasadena","addr:housenumber":"1040","addr:postcode":"91106","addr:state":"CA","addr:street":"South Catalina Avenue","building":"apartments","building:levels":"3"},"geometry":{"type":"Polygon","coordinates":[[[-118.1290057,34.1398616],[-118.1290063,34.1399605],[-118.1287318,34.1399617],[-118.1287312,34.1398628],[-118.1290057,34.1398616]]]}},{"type":"Feature","id":70872433,"properties":{"osmId":70872433,"category":"academic","addr:city":"Pasadena","addr:housenumber":"345","addr:postcode":"91106","addr:state":"CA","addr:street":"Michigan Ave","addr:street_direction_prefix":"S","building":"yes","building:levels":"1","name":"Tolman-Bacher House","roof:shape":"gabled","source":"usgs_imagery;survey;image","source_ref":"AM909_DSCV2824","_wikiTried":true},"geometry":{"type":"Polygon","coordinates":[[[-118.1263057,34.1398862],[-118.126253,34.1398865],[-118.1262531,34.1398943],[-118.1261605,34.1398949],[-118.1261593,34.139762],[-118.1261536,34.139762],[-118.1261531,34.1397026],[-118.1262094,34.1397022],[-118.1262092,34.1396727],[-118.126188,34.1396729],[-118.1261875,34.1396089],[-118.1262167,34.1396088],[-118.1262163,34.1395655],[-118.1262893,34.139565],[-118.12629,34.1396494],[-118.1262703,34.1396495],[-118.1262708,34.1397003],[-118.1262886,34.1397002],[-118.1262891,34.1397636],[-118.1262819,34.1397636],[-118.1262826,34.1398323],[-118.1263052,34.1398322],[-118.1263057,34.1398862]]]}},{"type":"Feature","id":70872436,"properties":{"osmId":70872436,"category":"residential","addr:city":"Pasadena","addr:housenumber":"1036","addr:postcode":"91106","addr:state":"CA","addr:street":"South Catalina Avenue","building":"apartments","building:levels":"3"},"geometry":{"type":"Polygon","coordinates":[[[-118.129232,34.1402761],[-118.129112,34.1402773],[-118.129108,34.1400095],[-118.129228,34.1400083],[-118.129232,34.1402761]]]}},{"type":"Feature","id":70872437,"properties":{"osmId":70872437,"category":"residential","building":"apartments","building:levels":"3"},"geometry":{"type":"Polygon","coordinates":[[[-118.1288711,34.1404224],[-118.1287818,34.1404229],[-118.1287521,34.1404231],[-118.12875,34.1401734],[-118.128869,34.1401728],[-118.1288711,34.1404224]]]}},{"type":"Feature","id":70872442,"properties":{"osmId":70872442,"category":"residential","addr:city":"Pasadena","addr:housenumber":"1032","addr:postcode":"91106","addr:state":"CA","addr:street":"East Del Mar Boulevard","building":"apartments","building:levels":"3"},"geometry":{"type":"Polygon","coordinates":[[[-118.129005,34.1405588],[-118.1289224,34.1404875],[-118.129156,34.1403021],[-118.1292385,34.1403733],[-118.129005,34.1405588]]]}},{"type":"Feature","id":70872447,"properties":{"osmId":70872447,"category":"residential","building":"apartments","building:levels":"3"},"geometry":{"type":"Polygon","coordinates":[[[-118.1289028,34.1406317],[-118.1287832,34.1406323],[-118.1287818,34.1404229],[-118.1288711,34.1404224],[-118.1289012,34.1404222],[-118.1289028,34.1406317]]]}},{"type":"Feature","id":70872453,"properties":{"osmId":70872453,"category":"residential","addr:city":"Pasadena","addr:housenumber":"450","addr:postcode":"91106","addr:state":"CA","addr:street":"South Catalina Avenue","building":"apartments","building:levels":"3"},"geometry":{"type":"Polygon","coordinates":[[[-118.1286939,34.1384593],[-118.1286911,34.1383605],[-118.1290141,34.1383544],[-118.1290169,34.1384532],[-118.1286939,34.1384593]]]}},{"type":"Feature","id":70872457,"properties":{"osmId":70872457,"category":"residential","addr:city":"Pasadena","addr:housenumber":"442","addr:postcode":"91106","addr:state":"CA","addr:street":"South Catalina Avenue","building":"apartments","building:levels":"3"},"geometry":{"type":"Polygon","coordinates":[[[-118.128963,34.1389038],[-118.1288785,34.1388339],[-118.129107,34.1386445],[-118.1291915,34.1387144],[-118.128963,34.1389038]]]}},{"type":"Feature","id":70872463,"properties":{"osmId":70872463,"category":"residential","building":"apartments","building:levels":"3"},"geometry":{"type":"Polygon","coordinates":[[[-118.1291988,34.1395458],[-118.129139,34.1396316],[-118.1289012,34.1395181],[-118.128961,34.1394323],[-118.1291988,34.1395458]]]}},{"type":"Feature","id":70872464,"properties":{"osmId":70872464,"category":"residential","building":"apartments","building:levels":"3"},"geometry":{"type":"Polygon","coordinates":[[[-118.129199,34.1394381],[-118.129079,34.1394385],[-118.129078,34.1392109],[-118.129198,34.1392105],[-118.129199,34.1394381]]]}},{"type":"Feature","id":70872471,"properties":{"osmId":70872471,"category":"residential","addr:city":"Pasadena","addr:housenumber":"1024","addr:postcode":"91106","addr:state":"CA","addr:street":"East Del Mar Boulevard","building":"apartments","building:levels":"3"},"geometry":{"type":"Polygon","coordinates":[[[-118.1290261,34.1406743],[-118.1290268,34.1407732],[-118.1287518,34.1407745],[-118.1287511,34.1406757],[-118.1290261,34.1406743]]]}},{"type":"Feature","id":70872473,"properties":{"osmId":70872473,"category":"residential","addr:city":"Pasadena","addr:housenumber":"446","addr:postcode":"91106","addr:state":"CA","addr:street":"South Catalina Avenue","building":"apartments","building:levels":"3"},"geometry":{"type":"Polygon","coordinates":[[[-118.1291898,34.1386218],[-118.1290703,34.1386229],[-118.1290667,34.1383551],[-118.1291862,34.138354],[-118.1291898,34.1386218]]]}},{"type":"Feature","id":70872474,"properties":{"osmId":70872474,"category":"residential","building":"apartments"},"geometry":{"type":"Polygon","coordinates":[[[-118.1290142,34.1391768],[-118.1290149,34.1392756],[-118.1287399,34.139277],[-118.1287392,34.1391781],[-118.1290142,34.1391768]]]}},{"type":"Feature","id":70872475,"properties":{"osmId":70872475,"category":"residential","building":"apartments","building:levels":"3"},"geometry":{"type":"Polygon","coordinates":[[[-118.1288173,34.1396467],[-118.1286978,34.1396476],[-118.1286942,34.1393163],[-118.1288138,34.1393154],[-118.1288173,34.1396467]]]}},{"type":"Feature","id":70872480,"properties":{"osmId":70872480,"category":"residential","addr:city":"Pasadena","addr:housenumber":"1020","addr:postcode":"91106","addr:state":"CA","addr:street":"East Del Mar Boulevard","building":"apartments","building:levels":"3"},"geometry":{"type":"Polygon","coordinates":[[[-118.1292309,34.140777],[-118.1291109,34.1407782],[-118.129107,34.1405103],[-118.129227,34.1405091],[-118.1292309,34.140777]]]}},{"type":"Feature","id":70872481,"properties":{"osmId":70872481,"category":"residential","addr:city":"Pasadena","addr:housenumber":"348","addr:postcode":"91106","addr:state":"CA","addr:street":"South Catalina Avenue","building":"apartments","building:levels":"3"},"geometry":{"type":"Polygon","coordinates":[[[-118.129204,34.139921],[-118.129085,34.1399221],[-118.129082,34.1396945],[-118.129201,34.1396934],[-118.129204,34.139921]]]}},{"type":"Feature","id":70872482,"properties":{"osmId":70872482,"category":"residential","addr:city":"Pasadena","addr:housenumber":"430","addr:postcode":"91106","addr:state":"CA","addr:street":"South Catalina Avenue","building":"apartments","building:levels":"3"},"geometry":{"type":"Polygon","coordinates":[[[-118.129197,34.1391186],[-118.129078,34.1391197],[-118.129074,34.1388519],[-118.129193,34.1388508],[-118.129197,34.1391186]]]}},{"type":"Feature","id":70872483,"properties":{"osmId":70872483,"category":"residential","addr:city":"Pasadena","addr:housenumber":"1040","addr:postcode":"91106","addr:state":"CA","addr:street":"South Catalina Avenue","building":"apartments","building:levels":"3"},"geometry":{"type":"Polygon","coordinates":[[[-118.128736,34.1401191],[-118.128735,34.1400203],[-118.129058,34.140018],[-118.129059,34.1401169],[-118.128736,34.1401191]]]}},{"type":"Feature","id":70872484,"properties":{"osmId":70872484,"category":"residential","addr:city":"Pasadena","addr:housenumber":"438","addr:postcode":"91106","addr:state":"CA","addr:street":"South Catalina Avenue","building":"apartments","building:levels":"3"},"geometry":{"type":"Polygon","coordinates":[[[-118.1288377,34.1389672],[-118.1287182,34.1389682],[-118.1287128,34.1385112],[-118.1288322,34.1385102],[-118.1288377,34.1389672]]]}},{"type":"Feature","id":70872486,"properties":{"osmId":70872486,"category":"residential","addr:city":"Pasadena","addr:housenumber":"434","addr:postcode":"91106","addr:state":"CA","addr:street":"South Catalina Avenue","building":"apartments","building:levels":"3"},"geometry":{"type":"Polygon","coordinates":[[[-118.1290299,34.1390268],[-118.1290312,34.1391256],[-118.1287777,34.139128],[-118.1287764,34.1390291],[-118.1290299,34.1390268]]]}},{"type":"Feature","id":96413712,"properties":{"osmId":96413712,"category":"religious","addr:city":"Pasadena","addr:housenumber":"500","addr:state":"CA","addr:street":"East Colorado Boulevard","amenity":"place_of_worship","building":"yes","denomination":"methodist","fax":"+1-626-568-1615","name":"First United Methodist Church of Pasadena","phone":"+1-626-796-0157","religion":"christian","website":"https://fumcpasadena.org/","_wikiTried":true},"geometry":{"type":"Polygon","coordinates":[[[-118.1402546,34.1457085],[-118.1403778,34.1457077],[-118.1403744,34.145363],[-118.1403071,34.1453634],[-118.1403056,34.1452132],[-118.1402777,34.1452134],[-118.1402774,34.1451831],[-118.1403583,34.1451826],[-118.1403551,34.1448616],[-118.1403819,34.1448614],[-118.1403811,34.1447888],[-118.140232,34.1447898],[-118.1402318,34.144771],[-118.1403698,34.14477],[-118.140369,34.1446903],[-118.1398705,34.1446937],[-118.1398721,34.1448519],[-118.1398664,34.1448519],[-118.1398697,34.1451803],[-118.1399558,34.1451797],[-118.1399561,34.145215],[-118.1399397,34.1452151],[-118.1399415,34.14539],[-118.1399261,34.1453901],[-118.1398519,34.1453906],[-118.1398542,34.1456217],[-118.1399919,34.1456208],[-118.13999,34.1454287],[-118.1399896,34.1453902],[-118.1399893,34.1453593],[-118.14004,34.145359],[-118.1400404,34.1453916],[-118.1400411,34.1454676],[-118.1402092,34.1454664],[-118.1402087,34.1454138],[-118.1402201,34.1454137],[-118.1402516,34.1454135],[-118.1402546,34.1457085]]]}},{"type":"Feature","id":101206888,"properties":{"osmId":101206888,"category":"athletic","building":"yes","leisure":"sports_centre","name":"Hutto-Patterson Gymnasium","_wikiTried":true},"geometry":{"type":"Polygon","coordinates":[[[-118.1175567,34.1434187],[-118.118586,34.1434114],[-118.1187623,34.1434102],[-118.1187563,34.1430999],[-118.1175491,34.1431076],[-118.1175567,34.1434187]]]}},{"type":"Feature","id":123323785,"properties":{"osmId":123323785,"category":"academic","building":"yes","building:levels":"3","name":"Bridge Laboratory of Physics East","wikidata":"Q62641295","_wikiTried":true},"geometry":{"type":"Polygon","coordinates":[[[-118.1260101,34.1365518],[-118.1258995,34.1365521],[-118.1258141,34.1365525],[-118.1258131,34.1364168],[-118.1257928,34.1364169],[-118.1257923,34.136351],[-118.125815,34.1363509],[-118.1258138,34.1361968],[-118.1260078,34.1361958],[-118.1260103,34.1364089],[-118.1260101,34.1365518]]]}},{"type":"Feature","id":123323786,"properties":{"osmId":123323786,"category":"academic","building":"yes","building:levels":"3","name":"Bridge Laboratory of Physics West","wikidata":"Q62641295","_wikiTried":true},"geometry":{"type":"Polygon","coordinates":[[[-118.1262709,34.1365511],[-118.1264042,34.1365515],[-118.1264333,34.1365522],[-118.1264623,34.1365521],[-118.1264635,34.1362015],[-118.1262721,34.136201],[-118.1262714,34.1364061],[-118.1262709,34.1365511]]]}},{"type":"Feature","id":123323788,"properties":{"osmId":123323788,"category":"academic","building":"yes","building:levels":"3","name":"Bridge Laboratory of Physics Annex","wikidata":"Q62641295","_wikiTried":true},"geometry":{"type":"Polygon","coordinates":[[[-118.1262709,34.1365511],[-118.1260101,34.1365518],[-118.1260103,34.1364089],[-118.1260567,34.1364089],[-118.1260568,34.1363214],[-118.1262085,34.1363215],[-118.1262084,34.136406],[-118.1262714,34.1364061],[-118.1262709,34.1365511]]]}},{"type":"Feature","id":160068426,"properties":{"osmId":160068426,"category":"academic","building":"yes","name":"South Kitchens","_wikiTried":true},"geometry":{"type":"Polygon","coordinates":[[[-118.122808,34.1364856],[-118.1228079,34.1363948],[-118.1230872,34.1363921],[-118.1230876,34.1364829],[-118.122808,34.1364856]]]}},{"type":"Feature","id":160068428,"properties":{"osmId":160068428,"category":"academic","building":"yes","name":"Munth","_wikiTried":true},"geometry":{"type":"Polygon","coordinates":[[[-118.1217806,34.141595],[-118.1216718,34.1415983],[-118.1216718,34.1415651],[-118.1216128,34.1415662],[-118.1216141,34.1414385],[-118.1218153,34.1414385],[-118.121818,34.1415184],[-118.1217791,34.1415184],[-118.1217806,34.141595]]]}},{"type":"Feature","id":178860008,"properties":{"osmId":178860008,"category":"academic","building":"yes","name":"Avery House","wikidata":"Q62639883","_wikiTried":true},"geometry":{"type":"Polygon","coordinates":[[[-118.1231727,34.1397856],[-118.1231716,34.1396354],[-118.1231446,34.1396355],[-118.1231443,34.1395917],[-118.1231643,34.1395916],[-118.1231641,34.139557],[-118.1232427,34.1395566],[-118.1232432,34.1396262],[-118.1233308,34.1396258],[-118.123332,34.1397848],[-118.1231727,34.1397856]]]}},{"type":"Feature","id":192368807,"properties":{"osmId":192368807,"category":"academic","amenity":"bank","building":"yes","name":"Caltech Employees Federal Credit Union","opening_hours":"Mo-Fr 08:30-16:00","_wikiTried":true},"geometry":{"type":"Polygon","coordinates":[[[-118.1282386,34.1370743],[-118.1282378,34.1370265],[-118.1282769,34.137026],[-118.1282759,34.1369623],[-118.128361,34.1369614],[-118.128362,34.1370224],[-118.12838,34.1370223],[-118.1283809,34.1370728],[-118.1282386,34.1370743]]]}},{"type":"Feature","id":192368808,"properties":{"osmId":192368808,"category":"academic","addr:housename":"Tyson House (Caltech Y)","building":"yes","building:levels":"2","name":"Caltech Y (Tyson House)","_wikiTried":true},"geometry":{"type":"Polygon","coordinates":[[[-118.1286531,34.1372852],[-118.1285151,34.1372857],[-118.1285151,34.1371467],[-118.1286521,34.1371462],[-118.1286531,34.1372852]]]}},{"type":"Feature","id":192368812,"properties":{"osmId":192368812,"category":"academic","building":"yes"},"geometry":{"type":"Polygon","coordinates":[[[-118.1290435,34.1362144],[-118.1290445,34.136346],[-118.1288795,34.1363466],[-118.1288785,34.136215],[-118.1290435,34.1362144]]]}},{"type":"Feature","id":192368813,"properties":{"osmId":192368813,"category":"academic","building":"yes"},"geometry":{"type":"Polygon","coordinates":[[[-118.1287355,34.1372851],[-118.1286675,34.1372851],[-118.1286675,34.1372256],[-118.1287355,34.1372256],[-118.1287355,34.1372851]]]}},{"type":"Feature","id":192368814,"properties":{"osmId":192368814,"category":"academic","addr:housenumber":"563","addr:street":"South Wilson Avenue","building":"yes","name":"Audit Services and Institute Compliance Office","_wikiTried":true},"geometry":{"type":"Polygon","coordinates":[[[-118.1282112,34.1361814],[-118.1282095,34.1360389],[-118.1284116,34.1360373],[-118.1284132,34.1361798],[-118.1282112,34.1361814]]]}},{"type":"Feature","id":192368815,"properties":{"osmId":192368815,"category":"academic","addr:housenumber":"566","addr:street":"South Catalina Avenue","building":"yes"},"geometry":{"type":"Polygon","coordinates":[[[-118.1290333,34.1361394],[-118.1288683,34.1361409],[-118.1288671,34.1360509],[-118.1290322,34.1360494],[-118.1290333,34.1361394]]]}},{"type":"Feature","id":192368816,"properties":{"osmId":192368816,"category":"academic","building":"yes","name":"Treasurer's Office","_wikiTried":true},"geometry":{"type":"Polygon","coordinates":[[[-118.1284242,34.1364405],[-118.1282125,34.1364408],[-118.1282122,34.136283],[-118.128424,34.1362828],[-118.1284242,34.1364405]]]}},{"type":"Feature","id":192368817,"properties":{"osmId":192368817,"category":"academic","building":"yes","name":"US Geological Survey","_wikiTried":true},"geometry":{"type":"Polygon","coordinates":[[[-118.1284789,34.1368423],[-118.1282239,34.136847],[-118.1282205,34.1367189],[-118.1284754,34.1367142],[-118.1284789,34.1368423]]]}},{"type":"Feature","id":192368818,"properties":{"osmId":192368818,"category":"academic","building":"yes"},"geometry":{"type":"Polygon","coordinates":[[[-118.1290905,34.1365573],[-118.1290885,34.1366993],[-118.1289105,34.136698],[-118.1289115,34.136556],[-118.1290905,34.1365573]]]}},{"type":"Feature","id":192368819,"properties":{"osmId":192368819,"category":"academic","building":"yes"},"geometry":{"type":"Polygon","coordinates":[[[-118.1287535,34.137112],[-118.1286705,34.1371133],[-118.1286685,34.1370233],[-118.1287515,34.137022],[-118.1287535,34.137112]]]}},{"type":"Feature","id":192368820,"properties":{"osmId":192368820,"category":"academic","building":"yes"},"geometry":{"type":"Polygon","coordinates":[[[-118.1290075,34.1372665],[-118.1288515,34.137265],[-118.1288535,34.137138],[-118.1290095,34.1371395],[-118.1290075,34.1372665]]]}},{"type":"Feature","id":192368821,"properties":{"osmId":192368821,"category":"academic","building":"yes"},"geometry":{"type":"Polygon","coordinates":[[[-118.1290068,34.1370291],[-118.1287718,34.1370243],[-118.1287738,34.13697],[-118.1288258,34.1369711],[-118.1288288,34.1368831],[-118.1290108,34.1368868],[-118.1290068,34.1370291]]]}},{"type":"Feature","id":192368822,"properties":{"osmId":192368822,"category":"academic","building":"yes","name":"Fitzhugh House","_wikiTried":true},"geometry":{"type":"Polygon","coordinates":[[[-118.1284731,34.1366366],[-118.1282178,34.1366369],[-118.1282175,34.1365007],[-118.1283392,34.1365005],[-118.1283394,34.136571],[-118.128473,34.1365709],[-118.1284731,34.1366366]]]}},{"type":"Feature","id":192368823,"properties":{"osmId":192368823,"category":"academic","building":"yes"},"geometry":{"type":"Polygon","coordinates":[[[-118.1290545,34.1363995],[-118.1290555,34.1365276],[-118.1288335,34.1365297],[-118.1288325,34.1364768],[-118.1289135,34.136476],[-118.1289125,34.1364009],[-118.1290545,34.1363995]]]}},{"type":"Feature","id":192526724,"properties":{"osmId":192526724,"category":"academic","building":"yes","name":"Parking and Security Office","_wikiTried":true},"geometry":{"type":"Polygon","coordinates":[[[-118.1284674,34.1370731],[-118.1283809,34.1370728],[-118.12838,34.1370223],[-118.1284683,34.1370233],[-118.1284674,34.1370731]]]}},{"type":"Feature","id":200864943,"properties":{"osmId":200864943,"category":"academic","addr:housenumber":"275","addr:postcode":"91106","addr:street":"South Hill Avenue","building":"yes"},"geometry":{"type":"Polygon","coordinates":[[[-118.1216066,34.1413139],[-118.1216066,34.1411361],[-118.1216527,34.1411361],[-118.1216527,34.1411719],[-118.1217565,34.1411718],[-118.1217565,34.1412273],[-118.1218088,34.1412273],[-118.1218088,34.1413139],[-118.1216066,34.1413139]]]}},{"type":"Feature","id":200864944,"properties":{"osmId":200864944,"category":"academic","addr:housenumber":"287","addr:postcode":"91106","addr:street":"South Hill Avenue","building":"yes"},"geometry":{"type":"Polygon","coordinates":[[[-118.1217579,34.1408712],[-118.1217579,34.1409647],[-118.1217761,34.1409647],[-118.1217761,34.1410328],[-118.1216087,34.1410328],[-118.1216087,34.1409745],[-118.1216317,34.1409745],[-118.1216317,34.1408712],[-118.1217579,34.1408712]]]}},{"type":"Feature","id":200864945,"properties":{"osmId":200864945,"category":"academic","addr:housenumber":"295","addr:postcode":"91106","addr:street":"South Hill Avenue","building":"yes"},"geometry":{"type":"Polygon","coordinates":[[[-118.1219351,34.1406592],[-118.1219351,34.140722],[-118.1217497,34.140722],[-118.1217497,34.1407783],[-118.1216284,34.1407783],[-118.1216284,34.1407098],[-118.1216018,34.1407098],[-118.1216018,34.1406592],[-118.1219351,34.1406592]]]}},{"type":"Feature","id":200864946,"properties":{"osmId":200864946,"category":"academic","addr:housenumber":"305","addr:postcode":"91106","addr:street":"South Hill Avenue","building":"yes"},"geometry":{"type":"Polygon","coordinates":[[[-118.1216008,34.1406306],[-118.1216008,34.1405066],[-118.12166,34.1405066],[-118.12166,34.1405262],[-118.1217753,34.1405262],[-118.1217754,34.1406306],[-118.1216008,34.1406306]]]}},{"type":"Feature","id":200864947,"properties":{"osmId":200864947,"category":"academic","addr:housenumber":"315","addr:postcode":"91106","addr:street":"South Hill Avenue","building":"yes"},"geometry":{"type":"Polygon","coordinates":[[[-118.1215929,34.140456],[-118.121593,34.1403303],[-118.1217931,34.1403303],[-118.1217931,34.140456],[-118.1215929,34.140456]]]}},{"type":"Feature","id":200864948,"properties":{"osmId":200864948,"category":"academic","addr:housenumber":"345","addr:postcode":"91106","addr:street":"South Hill Avenue","building":"yes"},"geometry":{"type":"Polygon","coordinates":[[[-118.1215729,34.1397888],[-118.1217937,34.1397888],[-118.1217937,34.1398443],[-118.1217218,34.1398443],[-118.1217218,34.1399961],[-118.121633,34.1399961],[-118.121633,34.1399438],[-118.1215729,34.1399438],[-118.1215729,34.1397888]]]}},{"type":"Feature","id":200864949,"properties":{"osmId":200864949,"category":"academic","addr:housenumber":"383","addr:postcode":"91106","addr:street":"South Hill Avenue","building":"yes"},"geometry":{"type":"Polygon","coordinates":[[[-118.1218361,34.1393898],[-118.1216932,34.1393898],[-118.1216932,34.1394281],[-118.1216261,34.1394281],[-118.1216261,34.1393898],[-118.1216044,34.1393898],[-118.1216044,34.1391817],[-118.1216892,34.1391817],[-118.1216892,34.13922],[-118.1218361,34.13922],[-118.1218361,34.1393898]]]}},{"type":"Feature","id":200864950,"properties":{"osmId":200864950,"category":"academic","addr:housenumber":"415","addr:postcode":"91106","addr:street":"South Hill Avenue","building":"yes"},"geometry":{"type":"Polygon","coordinates":[[[-118.1216904,34.1386609],[-118.1219414,34.1386609],[-118.1219414,34.1387509],[-118.1218801,34.1387509],[-118.1218801,34.1388005],[-118.1219414,34.1388005],[-118.1219414,34.1388663],[-118.1219066,34.1388663],[-118.1219066,34.1388848],[-118.1216904,34.1388848],[-118.1216904,34.1386609]]]}},{"type":"Feature","id":200864951,"properties":{"osmId":200864951,"category":"academic","building":"yes"},"geometry":{"type":"Polygon","coordinates":[[[-118.1218588,34.1397456],[-118.1218588,34.139655],[-118.1219278,34.139655],[-118.1219278,34.1397456],[-118.1218588,34.1397456]]]}},{"type":"Feature","id":200864952,"properties":{"osmId":200864952,"category":"academic","building":"yes"},"geometry":{"type":"Polygon","coordinates":[[[-118.1218661,34.1412418],[-118.121866,34.1410925],[-118.122011,34.1410925],[-118.122011,34.1412418],[-118.1218661,34.1412418]]]}},{"type":"Feature","id":200864953,"properties":{"osmId":200864953,"category":"academic","building":"yes"},"geometry":{"type":"Polygon","coordinates":[[[-118.1219535,34.1396901],[-118.1219535,34.1395301],[-118.1220343,34.1395301],[-118.1220343,34.1396901],[-118.1219535,34.1396901]]]}},{"type":"Feature","id":200864954,"properties":{"osmId":200864954,"category":"academic","building":"yes"},"geometry":{"type":"Polygon","coordinates":[[[-118.1219873,34.1404291],[-118.1218868,34.1404291],[-118.1218868,34.1403711],[-118.1219873,34.1403711],[-118.1219873,34.1404291]]]}},{"type":"Feature","id":200864955,"properties":{"osmId":200864955,"category":"academic","building":"yes"},"geometry":{"type":"Polygon","coordinates":[[[-118.1219903,34.1413797],[-118.1219903,34.1412761],[-118.1220879,34.1412761],[-118.1220879,34.1413797],[-118.1219903,34.1413797]]]}},{"type":"Feature","id":200864956,"properties":{"osmId":200864956,"category":"academic","building":"yes"},"geometry":{"type":"Polygon","coordinates":[[[-118.1220718,34.1395269],[-118.1219633,34.1395269],[-118.1219633,34.1393963],[-118.1220718,34.1393963],[-118.1220718,34.1395269]]]}},{"type":"Feature","id":200864957,"properties":{"osmId":200864957,"category":"academic","building":"yes"},"geometry":{"type":"Polygon","coordinates":[[[-118.1219599,34.1389901],[-118.1219599,34.1389272],[-118.1220565,34.1389272],[-118.1220565,34.1389901],[-118.1219599,34.1389901]]]}},{"type":"Feature","id":200864959,"properties":{"osmId":200864959,"category":"academic","building":"yes"},"geometry":{"type":"Polygon","coordinates":[[[-118.1219732,34.1399194],[-118.1219732,34.1399961],[-118.1218943,34.1399961],[-118.1218943,34.1399194],[-118.1219732,34.1399194]]]}},{"type":"Feature","id":200864960,"properties":{"osmId":200864960,"category":"academic","building":"yes"},"geometry":{"type":"Polygon","coordinates":[[[-118.1219411,34.1385421],[-118.1219411,34.1384866],[-118.1220378,34.1384866],[-118.1220378,34.1385421],[-118.1219411,34.1385421]]]}},{"type":"Feature","id":200864961,"properties":{"osmId":200864961,"category":"academic","addr:housenumber":"363","addr:street":"South Hill Avenue","building":"yes"},"geometry":{"type":"Polygon","coordinates":[[[-118.1215768,34.1395864],[-118.1217297,34.1395864],[-118.1217297,34.1397235],[-118.1215768,34.1397235],[-118.1215768,34.1395864]]]}},{"type":"Feature","id":204876071,"properties":{"osmId":204876071,"category":"academic","addr:housenumber":"1052","addr:postcode":"91106","addr:street":"South Hill Avenue","building":"yes"},"geometry":{"type":"Polygon","coordinates":[[[-118.1285901,34.1407989],[-118.128588,34.1405112],[-118.128733,34.1405104],[-118.1287351,34.1407982],[-118.1285901,34.1407989]]]}},{"type":"Feature","id":204876072,"properties":{"osmId":204876072,"category":"academic","addr:housenumber":"1060","addr:postcode":"91106","addr:street":"South Hill Avenue","building":"yes"},"geometry":{"type":"Polygon","coordinates":[[[-118.1285325,34.1407983],[-118.1284465,34.1407989],[-118.1284452,34.1406666],[-118.1285312,34.140666],[-118.1285325,34.1407983]]]}},{"type":"Feature","id":204876073,"properties":{"osmId":204876073,"category":"academic","addr:housenumber":"1066","addr:postcode":"91106","addr:street":"South Hill Avenue","building":"yes"},"geometry":{"type":"Polygon","coordinates":[[[-118.12829,34.1407367],[-118.1283706,34.1407362],[-118.1283713,34.140804],[-118.1282907,34.1408046],[-118.12829,34.1407367]]]}},{"type":"Feature","id":204876087,"properties":{"osmId":204876087,"category":"academic","building":"yes"},"geometry":{"type":"Polygon","coordinates":[[[-118.128479,34.1405689],[-118.1284779,34.1404547],[-118.1285483,34.1404542],[-118.1285494,34.1405684],[-118.128479,34.1405689]]]}},{"type":"Feature","id":204876091,"properties":{"osmId":204876091,"category":"academic","building":"yes"},"geometry":{"type":"Polygon","coordinates":[[[-118.1219354,34.1414634],[-118.1219341,34.1413865],[-118.1220355,34.1413853],[-118.1220368,34.1414622],[-118.1219354,34.1414634]]]}},{"type":"Feature","id":204876094,"properties":{"osmId":204876094,"category":"academic","building":"yes"},"geometry":{"type":"Polygon","coordinates":[[[-118.1286189,34.1402956],[-118.1286855,34.1402948],[-118.1286865,34.1403479],[-118.1286199,34.1403487],[-118.1286189,34.1402956]]]}},{"type":"Feature","id":204876095,"properties":{"osmId":204876095,"category":"academic","building":"yes"},"geometry":{"type":"Polygon","coordinates":[[[-118.1281609,34.1408068],[-118.1281601,34.1407337],[-118.1282471,34.1407331],[-118.1282478,34.1408062],[-118.1281609,34.1408068]]]}},{"type":"Feature","id":204876109,"properties":{"osmId":204876109,"category":"academic","addr:housenumber":"291","addr:street":"South Wilson Avenue","building":"yes"},"geometry":{"type":"Polygon","coordinates":[[[-118.1281594,34.1406373],[-118.1282477,34.1406367],[-118.1282484,34.1407057],[-118.1281601,34.1407064],[-118.1281594,34.1406373]]]}},{"type":"Feature","id":204876118,"properties":{"osmId":204876118,"category":"academic","building":"yes"},"geometry":{"type":"Polygon","coordinates":[[[-118.1285563,34.1403557],[-118.1286813,34.1403549],[-118.1286823,34.1404202],[-118.1285573,34.1404211],[-118.1285563,34.1403557]]]}},{"type":"Feature","id":204876129,"properties":{"osmId":204876129,"category":"academic","building":"yes"},"geometry":{"type":"Polygon","coordinates":[[[-118.1283035,34.1406223],[-118.1283934,34.1406217],[-118.128394,34.1406777],[-118.128304,34.1406783],[-118.1283035,34.1406223]]]}},{"type":"Feature","id":204876133,"properties":{"osmId":204876133,"category":"academic","addr:housenumber":"317","addr:street":"South Wilson Avenue","building":"yes"},"geometry":{"type":"Polygon","coordinates":[[[-118.128239,34.1403202],[-118.12842,34.140319],[-118.128421,34.1404211],[-118.128267,34.1404222],[-118.128267,34.1403786],[-118.128239,34.1403788],[-118.128239,34.1403202]]]}},{"type":"Feature","id":204876137,"properties":{"osmId":204876137,"category":"academic","addr:housenumber":"307","addr:street":"South Wilson Avenue","building":"yes"},"geometry":{"type":"Polygon","coordinates":[[[-118.1281515,34.1404529],[-118.1282405,34.1404523],[-118.1282412,34.1405189],[-118.1282963,34.1405185],[-118.1282956,34.1404519],[-118.1284019,34.1404512],[-118.1284034,34.1406041],[-118.1281531,34.1406058],[-118.1281515,34.1404529]]]}},{"type":"Feature","id":205868699,"properties":{"osmId":205868699,"category":"religious","addr:housenumber":"225","addr:street":"South Hill Avenue","amenity":"place_of_worship","building":"yes","denomination":"presbyterian","ele":"238","gnis:feature_id":"1732881","name":"Knox Presbyterian Church","religion":"christian","_wikiTried":true},"geometry":{"type":"Polygon","coordinates":[[[-118.1214911,34.1422647],[-118.1214926,34.1420663],[-118.1214689,34.1420662],[-118.1214699,34.1419407],[-118.1215035,34.1419408],[-118.1215037,34.1419066],[-118.1216074,34.1419072],[-118.1216071,34.1419273],[-118.1218163,34.1419284],[-118.1218153,34.1420831],[-118.1216264,34.1420821],[-118.121625,34.1422654],[-118.1214911,34.1422647]]]}},{"type":"Feature","id":214485280,"properties":{"osmId":214485280,"category":"academic","building":"school"},"geometry":{"type":"Polygon","coordinates":[[[-118.1182757,34.1452123],[-118.1181473,34.1452123],[-118.1181433,34.1452085],[-118.1181424,34.1451435],[-118.1181481,34.1451388],[-118.118275,34.1451384],[-118.1182835,34.1451437],[-118.1182847,34.1452054],[-118.1182757,34.1452123]]]}},{"type":"Feature","id":215988636,"properties":{"osmId":215988636,"category":"library","addr:housenumber":"55","addr:state":"CA","addr:street":"South Hill Avenue","amenity":"library","building":"yes","ele":"240","gnis:feature_id":"1732329","name":"Hill Avenue Branch Pasadena Public Library","source":"USGS Geonames","wikidata":"Q66362770","_wikiTried":true},"geometry":{"type":"Polygon","coordinates":[[[-118.1216645,34.1451707],[-118.1216617,34.144921],[-118.1218669,34.1449195],[-118.1218678,34.1449983],[-118.121969,34.1449975],[-118.1219702,34.1450996],[-118.1218711,34.1451004],[-118.1218714,34.1451274],[-118.1218228,34.1451278],[-118.1218231,34.1451494],[-118.1217604,34.1451498],[-118.1217607,34.1451699],[-118.1216645,34.1451707]]]}},{"type":"Feature","id":215988637,"properties":{"osmId":215988637,"category":"religious","addr:housenumber":"151","addr:street":"South Hill Avenue","amenity":"place_of_worship","building":"church","check_date":"2024-04-01","denomination":"roman_catholic","ele":"240","gnis:feature_id":"1732890","name":"Saint Philip the Apostle","phone":"+1 626-793-0693","religion":"christian","website":"https://www.stphiliptheapostle.org/","_wikiTried":true},"geometry":{"type":"Polygon","coordinates":[[[-118.1221666,34.1435748],[-118.1221674,34.1436885],[-118.1222002,34.143715],[-118.1222095,34.1437524],[-118.1221916,34.1437873],[-118.1221627,34.1438074],[-118.1221604,34.14383],[-118.1221135,34.1438584],[-118.1220909,34.1438584],[-118.1220862,34.1438791],[-118.1220651,34.1438784],[-118.1218879,34.1438778],[-118.1218879,34.1438306],[-118.1216959,34.1438306],[-118.1216959,34.1438468],[-118.1216443,34.1438468],[-118.1216443,34.1438694],[-118.1216014,34.1438694],[-118.1216014,34.14383],[-118.1215819,34.14383],[-118.1215819,34.1436885],[-118.1215983,34.1436885],[-118.1215983,34.1436381],[-118.1216974,34.1436381],[-118.1216974,34.1436775],[-118.1217575,34.1436775],[-118.1217575,34.1436381],[-118.1218231,34.1436381],[-118.1218231,34.1436775],[-118.1219191,34.1436775],[-118.1219191,34.1436142],[-118.1219824,34.1436142],[-118.1219824,34.1435748],[-118.1221666,34.1435748]]]}},{"type":"Feature","id":215991314,"properties":{"osmId":215991314,"category":"academic","building":"college","name":"Industrial Technologies Building","ref":"IT","_wikiTried":true},"geometry":{"type":"Polygon","coordinates":[[[-118.1207227,34.1445062],[-118.1205354,34.1445055],[-118.120535,34.1444491],[-118.1205193,34.1444493],[-118.1205155,34.1443897],[-118.1205317,34.1443886],[-118.1205307,34.1440593],[-118.1205132,34.1440578],[-118.1205099,34.1440115],[-118.1205221,34.1440112],[-118.1205224,34.1439325],[-118.1205137,34.143932],[-118.1205127,34.1438867],[-118.1205308,34.143886],[-118.1205249,34.1436298],[-118.1205093,34.1436295],[-118.1205079,34.1435646],[-118.1205266,34.143564],[-118.120525,34.1435156],[-118.1206437,34.1435148],[-118.1206436,34.143508],[-118.1207123,34.1435072],[-118.1207141,34.1436118],[-118.1206924,34.1436106],[-118.1206948,34.143886],[-118.1207131,34.1438853],[-118.1207144,34.1439342],[-118.1206955,34.1439347],[-118.1206967,34.1440117],[-118.1207159,34.1440112],[-118.1207167,34.1440566],[-118.1206955,34.1440567],[-118.1207035,34.1444219],[-118.1207214,34.1444216],[-118.1207227,34.1445062]]]}},{"type":"Feature","id":226940689,"properties":{"osmId":226940689,"category":"religious","amenity":"place_of_worship","building":"yes","denomination":"baptist","ele":"237","gnis:feature_id":"1877984","name":"Calvary Baptist Church of Pasadena","religion":"christian","_wikiTried":true},"geometry":{"type":"Polygon","coordinates":[[[-118.1183244,34.1465816],[-118.1179229,34.1465846],[-118.1179214,34.1464405],[-118.1180633,34.1464395],[-118.1180619,34.1463125],[-118.1180464,34.1463126],[-118.1180457,34.1462441],[-118.1180942,34.1462438],[-118.1180939,34.1462224],[-118.1182425,34.1462213],[-118.1182427,34.1462422],[-118.118292,34.1462419],[-118.1182927,34.1463087],[-118.1182758,34.1463088],[-118.1182773,34.1464476],[-118.118323,34.1464472],[-118.1183244,34.1465816]]]}},{"type":"Feature","id":235050797,"properties":{"osmId":235050797,"category":"religious","building":"church"},"geometry":{"type":"Polygon","coordinates":[[[-118.1265888,34.1434624],[-118.1265888,34.1431194],[-118.1268158,34.1431146],[-118.1268158,34.1432617],[-118.1266898,34.1432617],[-118.1266898,34.1434624],[-118.1265888,34.1434624]]]}},{"type":"Feature","id":264249478,"properties":{"osmId":264249478,"category":"athletic","building":"yes","leisure":"sports_centre","name":"Scott Gym","_wikiTried":true},"geometry":{"type":"Polygon","coordinates":[[[-118.1284584,34.1340535],[-118.1280999,34.1340546],[-118.1281006,34.1337089],[-118.128458,34.1337082],[-118.1284584,34.1340535]]]}},{"type":"Feature","id":264249479,"properties":{"osmId":264249479,"category":"athletic","building":"yes","leisure":"sports_centre","name":"Gamble Gym","_wikiTried":true},"geometry":{"type":"Polygon","coordinates":[[[-118.128458,34.1337082],[-118.1281006,34.1337089],[-118.1281011,34.1332371],[-118.128348,34.1332373],[-118.1283482,34.1333052],[-118.1284555,34.1333051],[-118.128458,34.1337082]]]}},{"type":"Feature","id":326476342,"properties":{"osmId":326476342,"category":"residential","building":"house","name":"Watchtower","_wikiTried":true},"geometry":{"type":"Polygon","coordinates":[[[-118.1282315,34.1395014],[-118.1282302,34.1394124],[-118.1282974,34.1394117],[-118.1282962,34.1393345],[-118.1284588,34.1393329],[-118.1284612,34.1394991],[-118.1282315,34.1395014]]]}},{"type":"Feature","id":366446709,"properties":{"osmId":366446709,"category":"academic","building":"yes","building:levels":"1","name":"Keck Center","wikidata":"Q62641369","_wikiTried":true},"geometry":{"type":"Polygon","coordinates":[[[-118.1266418,34.1399525],[-118.1264587,34.1399534],[-118.1264588,34.1399635],[-118.1264085,34.1399637],[-118.1264065,34.139684],[-118.1265011,34.1396835],[-118.1265015,34.1397508],[-118.1266404,34.1397501],[-118.1266418,34.1399525]]]}},{"type":"Feature","id":366446713,"properties":{"osmId":366446713,"category":"academic","building":"yes","name":"Caltech Children's Center","_wikiTried":true},"geometry":{"type":"Polygon","coordinates":[[[-118.1253409,34.1343328],[-118.1252269,34.1343339],[-118.1252255,34.1344882],[-118.1251477,34.134486],[-118.1251491,34.1340853],[-118.1252684,34.134082],[-118.1252698,34.1341019],[-118.1253435,34.1341053],[-118.1253409,34.1343328]]]}},{"type":"Feature","id":366446714,"properties":{"osmId":366446714,"category":"academic","building":"yes"},"geometry":{"type":"Polygon","coordinates":[[[-118.1251182,34.1343461],[-118.1248205,34.1344749],[-118.1247575,34.1343739],[-118.1250498,34.1342529],[-118.1251182,34.1343461]]]}},{"type":"Feature","id":366446715,"properties":{"osmId":366446715,"category":"academic","addr:housenumber":"1200 E","addr:street":"California Boulevard","building":"yes"},"geometry":{"type":"Polygon","coordinates":[[[-118.1251947,34.1347369],[-118.1248688,34.1348224],[-118.1248192,34.1347258],[-118.1248567,34.1347102],[-118.1248862,34.1347169],[-118.1251504,34.1346392],[-118.1251947,34.1347369]]]}},{"type":"Feature","id":366446719,"properties":{"osmId":366446719,"category":"academic","building":"yes"},"geometry":{"type":"Polygon","coordinates":[[[-118.122128,34.1393294],[-118.1219543,34.1393315],[-118.1219508,34.1391339],[-118.1221245,34.1391318],[-118.122128,34.1393294]]]}},{"type":"Feature","id":397433167,"properties":{"osmId":397433167,"category":"religious","addr:housenumber":"810","addr:street":"Walnut Street","amenity":"place_of_worship","building":"yes","denomination":"orthodox","lacounty:ain":"5723011010","lacounty:bld_id":"PAS55667","name":"American Orthodox Catholic Church","religion":"christian","source":"Bing","_wikiTried":true},"geometry":{"type":"Polygon","coordinates":[[[-118.133818,34.1493116],[-118.1338195,34.1494812],[-118.1336084,34.1494824],[-118.133607,34.1493128],[-118.1336874,34.1493123],[-118.1336876,34.1493322],[-118.1337542,34.1493318],[-118.1337541,34.1493119],[-118.133818,34.1493116]]]}},{"type":"Feature","id":397512549,"properties":{"osmId":397512549,"category":"academic","building":"yes","source":"Bing"},"geometry":{"type":"Polygon","coordinates":[[[-118.1222034,34.1398679],[-118.1224318,34.139867],[-118.1224338,34.1402301],[-118.1222054,34.140231],[-118.1222034,34.1398679]]]}},{"type":"Feature","id":397512555,"properties":{"osmId":397512555,"category":"academic","building":"yes","source":"Bing"},"geometry":{"type":"Polygon","coordinates":[[[-118.1225475,34.1400806],[-118.122477,34.1400809],[-118.1224767,34.1400198],[-118.1225471,34.1400195],[-118.1225475,34.1400806]]]}},{"type":"Feature","id":397512577,"properties":{"osmId":397512577,"category":"medical","addr:housenumber":"1713","addr:street":"Walnut Street","building":"hospital","source":"Bing"},"geometry":{"type":"Polygon","coordinates":[[[-118.1151411,34.1496798],[-118.1151394,34.1498326],[-118.1148763,34.1498306],[-118.1148782,34.149666],[-118.1151412,34.149668],[-118.1151411,34.1496798]]]}},{"type":"Feature","id":407749291,"properties":{"osmId":407749291,"category":"academic","building":"school","name":"Art Gallery G","_wikiTried":true},"geometry":{"type":"Polygon","coordinates":[[[-118.1196917,34.1446645],[-118.1194968,34.1446645],[-118.1194979,34.1445785],[-118.1196917,34.1445776],[-118.1196917,34.1446645]]]}},{"type":"Feature","id":439090617,"properties":{"osmId":439090617,"category":"religious","addr:city":"Pasadena","addr:housenumber":"80","addr:postcode":"91101","addr:street":"South Oakland Avenue","amenity":"place_of_worship","building":"church","denomination":"christ_scientist","name":"First Church of Christ, Scientist","phone":"+1 626 793 5151","religion":"christian","source":"Bing","website":"https://www.christiansciencepasadena.com/","_wikiTried":true},"geometry":{"type":"Polygon","coordinates":[[[-118.1395149,34.1444634],[-118.1394453,34.1444643],[-118.1394458,34.1444878],[-118.1392097,34.1444912],[-118.139209,34.1444601],[-118.1391463,34.144461],[-118.1391453,34.1444148],[-118.1391245,34.1444151],[-118.1391204,34.1442189],[-118.1391426,34.1442186],[-118.1391415,34.144167],[-118.1392161,34.144166],[-118.1392158,34.1441521],[-118.1394439,34.1441489],[-118.1394443,34.1441683],[-118.139504,34.1441675],[-118.1395051,34.1442185],[-118.1395312,34.1442181],[-118.1395314,34.144228],[-118.1395648,34.1442275],[-118.1395684,34.1444002],[-118.1395302,34.1444007],[-118.1395304,34.1444102],[-118.1395138,34.1444104],[-118.1395149,34.1444634]]]}},{"type":"Feature","id":463571835,"properties":{"osmId":463571835,"category":"religious","amenity":"place_of_worship","building":"yes","religion":"christian","wheelchair":"limited"},"geometry":{"type":"Polygon","coordinates":[[[-118.141184,34.1406008],[-118.1409009,34.1406021],[-118.1409008,34.1405837],[-118.1408415,34.140584],[-118.140841,34.1405095],[-118.1406218,34.1405105],[-118.1406225,34.1406188],[-118.1407176,34.1406184],[-118.1407188,34.1407941],[-118.1408366,34.1407935],[-118.1408364,34.1407614],[-118.1411851,34.1407598],[-118.141184,34.1406008]]]}},{"type":"Feature","id":464458812,"properties":{"osmId":464458812,"category":"religious","addr:housenumber":"464","addr:state":"CA","addr:street":"East Walnut Street","amenity":"place_of_worship","building":"church","denomination":"congregational","name":"First Congregational Church","religion":"christian","_wikiTried":true},"geometry":{"type":"Polygon","coordinates":[[[-118.1412878,34.1494047],[-118.1411122,34.1494066],[-118.1411119,34.1493881],[-118.1408156,34.1493913],[-118.1408151,34.1493593],[-118.1407427,34.1493601],[-118.1407411,34.1492608],[-118.140816,34.14926],[-118.1408144,34.1491586],[-118.1410752,34.1491558],[-118.1410723,34.1489741],[-118.1412809,34.1489718],[-118.1412878,34.1494047]]]}},{"type":"Feature","id":466822833,"properties":{"osmId":466822833,"category":"religious","addr:housenumber":"1305","addr:state":"CA","addr:street":"East Colorado Boulevard","amenity":"place_of_worship","building":"yes","denomination":"methodist","ele":"243","gnis:feature_id":"1878014","name":"Holliston United Methodist Church","religion":"christian","_wikiTried":true},"geometry":{"type":"Polygon","coordinates":[[[-118.1235259,34.1468533],[-118.1231007,34.1468557],[-118.1230995,34.1467079],[-118.1231775,34.1467075],[-118.1231765,34.1465928],[-118.123096,34.1465932],[-118.1230954,34.1465184],[-118.1230674,34.1465115],[-118.1230559,34.1464837],[-118.1230613,34.1464617],[-118.1230736,34.14645],[-118.1230922,34.1464434],[-118.1230922,34.1464119],[-118.1231232,34.1463841],[-118.1231548,34.1463839],[-118.123154,34.1462927],[-118.1231023,34.146293],[-118.1231016,34.1462242],[-118.1231332,34.1462243],[-118.1231328,34.1462049],[-118.1231466,34.1461971],[-118.1231754,34.1461894],[-118.1232069,34.1461932],[-118.1232295,34.1462059],[-118.1232296,34.146224],[-118.1233442,34.1462249],[-118.1233433,34.1462071],[-118.1235127,34.1462082],[-118.1235162,34.1465754],[-118.1233393,34.1465765],[-118.123339,34.1465438],[-118.1232135,34.1465445],[-118.1232149,34.1467051],[-118.1235247,34.1467033],[-118.1235259,34.1468533]]]}},{"type":"Feature","id":467070540,"properties":{"osmId":467070540,"category":"academic","building":"school"},"geometry":{"type":"Polygon","coordinates":[[[-118.1363615,34.1402426],[-118.136242,34.1402437],[-118.1362413,34.1401902],[-118.1357349,34.1401949],[-118.1357329,34.1400476],[-118.1363588,34.1400418],[-118.1363615,34.1402426]]]}},{"type":"Feature","id":467070541,"properties":{"osmId":467070541,"category":"academic","building":"school"},"geometry":{"type":"Polygon","coordinates":[[[-118.1358109,34.1402908],[-118.1353812,34.1402948],[-118.1353804,34.1402343],[-118.1353938,34.140226],[-118.1353919,34.14004],[-118.135348,34.1400403],[-118.1353418,34.1394308],[-118.1354264,34.1394302],[-118.1354259,34.1393805],[-118.135355,34.139381],[-118.1353516,34.1390255],[-118.1353179,34.1390257],[-118.1353171,34.1389259],[-118.1355611,34.1389245],[-118.135563,34.1391478],[-118.1359951,34.1391454],[-118.1359966,34.1393316],[-118.1354804,34.1393345],[-118.1354812,34.139436],[-118.1357346,34.1394346],[-118.1357357,34.1395641],[-118.1357829,34.1395638],[-118.1357835,34.1396284],[-118.1355878,34.1396296],[-118.1355875,34.1395979],[-118.1355675,34.1395981],[-118.1355713,34.1399442],[-118.1356411,34.1399436],[-118.1356419,34.1400163],[-118.1356793,34.140016],[-118.1356816,34.1401962],[-118.1355641,34.1401972],[-118.1355645,34.1402223],[-118.1358099,34.1402201],[-118.1358109,34.1402908]]]}},{"type":"Feature","id":467070542,"properties":{"osmId":467070542,"category":"academic","building":"school"},"geometry":{"type":"Polygon","coordinates":[[[-118.1365464,34.1402355],[-118.1364311,34.1402355],[-118.1364311,34.1400676],[-118.1365464,34.1400676],[-118.1365464,34.1402355]]]}},{"type":"Feature","id":467070543,"properties":{"osmId":467070543,"category":"academic","building":"school"},"geometry":{"type":"Polygon","coordinates":[[[-118.1361805,34.1390401],[-118.1357338,34.1390439],[-118.1357321,34.1389148],[-118.1360138,34.1389124],[-118.13601,34.1386106],[-118.1361751,34.1386092],[-118.1361805,34.1390401]]]}},{"type":"Feature","id":467070544,"properties":{"osmId":467070544,"category":"academic","building":"school"},"geometry":{"type":"Polygon","coordinates":[[[-118.1367157,34.1389961],[-118.1365466,34.1389981],[-118.1365482,34.1390935],[-118.1363195,34.1390961],[-118.1363124,34.1386785],[-118.1364621,34.1386768],[-118.1364627,34.138713],[-118.1367108,34.1387101],[-118.1367157,34.1389961]]]}},{"type":"Feature","id":467070545,"properties":{"osmId":467070545,"category":"academic","building":"school"},"geometry":{"type":"Polygon","coordinates":[[[-118.1350035,34.1402506],[-118.1347732,34.1402526],[-118.1347693,34.1399513],[-118.1342089,34.1399562],[-118.1342081,34.1398964],[-118.1340114,34.1398982],[-118.1340052,34.1394149],[-118.1342198,34.139413],[-118.1342254,34.1398454],[-118.1343205,34.1398445],[-118.1343195,34.139772],[-118.1347825,34.1397679],[-118.1347814,34.1396845],[-118.1347483,34.1396848],[-118.1347472,34.1395936],[-118.1349454,34.1395919],[-118.1349465,34.1396854],[-118.1349216,34.1396856],[-118.1349225,34.1397573],[-118.1349501,34.1397571],[-118.1349511,34.1398422],[-118.1349244,34.1398425],[-118.1349267,34.1400329],[-118.1350298,34.1400321],[-118.1350311,34.1401362],[-118.1350021,34.1401364],[-118.1350035,34.1402506]]]}},{"type":"Feature","id":467070546,"properties":{"osmId":467070546,"category":"academic","building":"school"},"geometry":{"type":"Polygon","coordinates":[[[-118.1346052,34.1396994],[-118.1344473,34.1396997],[-118.1344466,34.1394295],[-118.1346046,34.1394292],[-118.1346052,34.1396994]]]}},{"type":"Feature","id":467070547,"properties":{"osmId":467070547,"category":"academic","building":"school"},"geometry":{"type":"Polygon","coordinates":[[[-118.1344327,34.1396985],[-118.1342739,34.1396982],[-118.1342745,34.1394305],[-118.1344334,34.1394307],[-118.1344327,34.1396985]]]}},{"type":"Feature","id":467070548,"properties":{"osmId":467070548,"category":"academic","building":"school"},"geometry":{"type":"Polygon","coordinates":[[[-118.1350118,34.1395529],[-118.1346507,34.1395585],[-118.1346478,34.1394286],[-118.1350089,34.139423],[-118.1350118,34.1395529]]]}},{"type":"Feature","id":468936297,"properties":{"osmId":468936297,"category":"religious","amenity":"place_of_worship","building":"yes","religion":"christian"},"geometry":{"type":"Polygon","coordinates":[[[-118.1219608,34.1474845],[-118.1218681,34.1474854],[-118.1218722,34.1474732],[-118.1216458,34.1474757],[-118.1216464,34.1475094],[-118.121589,34.14751],[-118.1215885,34.1474761],[-118.1215015,34.147477],[-118.1214996,34.147356],[-118.1215763,34.1473551],[-118.121575,34.1472707],[-118.1216492,34.1472699],[-118.12165,34.1473169],[-118.1218152,34.1473151],[-118.1218154,34.1473316],[-118.1218627,34.1473311],[-118.1218625,34.1473153],[-118.1219582,34.1473143],[-118.1219608,34.1474845]]]}},{"type":"Feature","id":468936298,"properties":{"osmId":468936298,"category":"religious","addr:housenumber":"61","addr:state":"CA","addr:street":"North Hill Avenue","amenity":"place_of_worship","building":"church","name":"The Chapel at Pasadena","phone":"+1-626-793-0248","religion":"christian","website":"https://www.chapelpasadena.com","_wikiTried":true},"geometry":{"type":"Polygon","coordinates":[[[-118.1219121,34.1472464],[-118.1218638,34.1472466],[-118.1218639,34.1472586],[-118.1217186,34.1472593],[-118.1217185,34.1472409],[-118.1216684,34.1472411],[-118.1216683,34.1472327],[-118.1216376,34.1472329],[-118.1216372,34.1471736],[-118.1216665,34.1471734],[-118.1216653,34.1470152],[-118.1217773,34.1470147],[-118.1217782,34.1471414],[-118.1217601,34.1471415],[-118.1217603,34.1471701],[-118.1219116,34.1471693],[-118.1219121,34.1472464]]]}},{"type":"Feature","id":471466573,"properties":{"osmId":471466573,"category":"academic","building":"school","ele":"210.4","height":"2.9","lacounty:ain":"8728015900","lacounty:bld_id":"2014082892360000"},"geometry":{"type":"Polygon","coordinates":[[[-118.1160711,34.1307467],[-118.1161334,34.1307425],[-118.1161446,34.1308575],[-118.1161414,34.1308577],[-118.1161432,34.1308778],[-118.1160885,34.1308797],[-118.1160865,34.1308585],[-118.1160821,34.1308588],[-118.1160711,34.1307467]]]}},{"type":"Feature","id":474948543,"properties":{"osmId":474948543,"category":"academic","addr:housenumber":"1221","addr:street":"Arden Road","building":"yes"},"geometry":{"type":"Polygon","coordinates":[[[-118.1245134,34.1345314],[-118.1243529,34.1345744],[-118.1243321,34.134521],[-118.1243058,34.134528],[-118.1242719,34.134441],[-118.124296,34.1344346],[-118.1242783,34.1343891],[-118.1243736,34.1343636],[-118.1243906,34.134407],[-118.1244078,34.1344112],[-118.1244216,34.1344466],[-118.1244747,34.1344324],[-118.1245134,34.1345314]]]}},{"type":"Feature","id":474948545,"properties":{"osmId":474948545,"category":"academic","building":"yes"},"geometry":{"type":"Polygon","coordinates":[[[-118.1250581,34.1350221],[-118.1249869,34.1350452],[-118.1249815,34.1350338],[-118.1248986,34.1350606],[-118.1248237,34.1349019],[-118.1249661,34.1348559],[-118.1249746,34.1348739],[-118.125037,34.1348537],[-118.1250636,34.1349101],[-118.124987,34.1349348],[-118.1250163,34.1349971],[-118.1250424,34.1349887],[-118.1250581,34.1350221]]]}},{"type":"Feature","id":474948546,"properties":{"osmId":474948546,"category":"academic","building":"yes"},"geometry":{"type":"Polygon","coordinates":[[[-118.1251611,34.1348766],[-118.1251334,34.1348193],[-118.125067,34.1348413],[-118.1250947,34.1348986],[-118.1251611,34.1348766]]]}},{"type":"Feature","id":474948547,"properties":{"osmId":474948547,"category":"academic","addr:housenumber":"1245","addr:street":"Arden Road","building":"yes"},"geometry":{"type":"Polygon","coordinates":[[[-118.1248666,34.1356941],[-118.1249517,34.1356922],[-118.12495,34.1356423],[-118.1249157,34.1356431],[-118.1249141,34.1355936],[-118.1249457,34.1355929],[-118.1249454,34.1355834],[-118.1250308,34.1355815],[-118.1250312,34.135593],[-118.1250771,34.1355919],[-118.1250787,34.1356425],[-118.1250254,34.1356437],[-118.1250267,34.1356842],[-118.1251352,34.1356818],[-118.1251373,34.1357457],[-118.1250297,34.1357481],[-118.1250303,34.1357666],[-118.1249587,34.1357682],[-118.1249581,34.1357485],[-118.1248684,34.1357505],[-118.1248666,34.1356941]]]}},{"type":"Feature","id":721424940,"properties":{"osmId":721424940,"category":"academic","building":"school","designation":"CA","name":"Annex Building","_wikiTried":true},"geometry":{"type":"Polygon","coordinates":[[[-118.1172039,34.1432633],[-118.1172029,34.1432872],[-118.1172037,34.1433405],[-118.1172069,34.143425],[-118.1173969,34.1434229],[-118.1174479,34.1434229],[-118.1174415,34.1432953],[-118.1173668,34.1432936],[-118.1173663,34.1431572],[-118.1172074,34.1431565],[-118.1172049,34.1431857],[-118.1172032,34.1432178],[-118.1172039,34.1432633]]]}},{"type":"Feature","id":726013375,"properties":{"osmId":726013375,"category":"academic","building":"yes","building:levels":"3","layer":"1","name":"Hameetman Center","wikidata":"Q62641372","_wikiTried":true},"geometry":{"type":"Polygon","coordinates":[[[-118.1240666,34.1374916],[-118.1240666,34.1374447],[-118.1240476,34.1374447],[-118.1240476,34.1372982],[-118.1240699,34.1372982],[-118.1240699,34.137236],[-118.1240699,34.1372196],[-118.1240512,34.1372196],[-118.1240512,34.1370893],[-118.1237444,34.1370893],[-118.1236847,34.1370893],[-118.1236847,34.1372265],[-118.1238525,34.1372266],[-118.1238525,34.1372447],[-118.1238524,34.1374723],[-118.1239724,34.1374723],[-118.1239724,34.1374916],[-118.1240666,34.1374916]]]}},{"type":"Feature","id":732744511,"properties":{"osmId":732744511,"category":"academic","building":"school","building:levels":"2","name":"Munger","_wikiTried":true},"geometry":{"type":"Polygon","coordinates":[[[-118.1282363,34.1350268],[-118.1282348,34.1346216],[-118.1284068,34.1346212],[-118.1284068,34.1346301],[-118.1284073,34.1347802],[-118.1284073,34.1347891],[-118.1284903,34.1347889],[-118.1284903,34.134811],[-118.1285977,34.1348108],[-118.1285984,34.1349891],[-118.1285168,34.1349892],[-118.1285169,34.1349991],[-118.1283957,34.1349994],[-118.1283957,34.1350164],[-118.1283957,34.1350265],[-118.1283803,34.1350265],[-118.1282363,34.1350268]]]}},{"type":"Feature","id":732744512,"properties":{"osmId":732744512,"category":"academic","building":"school","building:levels":"2","name":"Booth","_wikiTried":true},"geometry":{"type":"Polygon","coordinates":[[[-118.1282372,34.1351395],[-118.1283818,34.1351392],[-118.1283973,34.1351392],[-118.1283974,34.135146],[-118.128625,34.1351456],[-118.1286254,34.1353061],[-118.1283978,34.1353065],[-118.1283979,34.1353494],[-118.128398,34.1353598],[-118.1283983,34.135473],[-118.1283983,34.1354921],[-118.1283985,34.1355775],[-118.1283815,34.1355775],[-118.1282384,34.1355777],[-118.1282372,34.1351395]]]}},{"type":"Feature","id":742214256,"properties":{"osmId":742214256,"category":"academic","building":"yes"},"geometry":{"type":"Polygon","coordinates":[[[-118.1289562,34.1383001],[-118.1288349,34.1382998],[-118.1288352,34.1382187],[-118.1289565,34.138219],[-118.1289562,34.1383001]]]}},{"type":"Feature","id":742214257,"properties":{"osmId":742214257,"category":"academic","building":"yes"},"geometry":{"type":"Polygon","coordinates":[[[-118.1288346,34.1382083],[-118.1287508,34.1382083],[-118.1287508,34.1380846],[-118.1288346,34.1380846],[-118.1288346,34.1382083]]]}},{"type":"Feature","id":742214258,"properties":{"osmId":742214258,"category":"academic","building":"yes"},"geometry":{"type":"Polygon","coordinates":[[[-118.1290398,34.1382044],[-118.128956,34.1382044],[-118.128956,34.1380807],[-118.1290398,34.1380807],[-118.1290398,34.1382044]]]}},{"type":"Feature","id":742214259,"properties":{"osmId":742214259,"category":"academic","building":"yes"},"geometry":{"type":"Polygon","coordinates":[[[-118.1291538,34.1382055],[-118.12907,34.1382055],[-118.12907,34.1380818],[-118.1291538,34.1380818],[-118.1291538,34.1382055]]]}},{"type":"Feature","id":742214260,"properties":{"osmId":742214260,"category":"academic","building":"yes"},"geometry":{"type":"Polygon","coordinates":[[[-118.1291543,34.1380622],[-118.1290732,34.1380625],[-118.1290728,34.1379993],[-118.129154,34.137999],[-118.1291543,34.1380622]]]}},{"type":"Feature","id":742214261,"properties":{"osmId":742214261,"category":"academic","building":"yes"},"geometry":{"type":"Polygon","coordinates":[[[-118.1290386,34.138062],[-118.1289575,34.1380622],[-118.1289572,34.137999],[-118.1290383,34.1379987],[-118.1290386,34.138062]]]}},{"type":"Feature","id":742214262,"properties":{"osmId":742214262,"category":"academic","building":"yes"},"geometry":{"type":"Polygon","coordinates":[[[-118.1288294,34.1380653],[-118.1287483,34.1380656],[-118.128748,34.1380023],[-118.1288291,34.138002],[-118.1288294,34.1380653]]]}},{"type":"Feature","id":857648974,"properties":{"osmId":857648974,"category":"academic","addr:city":"Pasadena","addr:housenumber":"350","addr:postcode":"91106","addr:state":"CA","addr:street":"South Catalina Avenue","building":"yes","building:levels":"1","name":"Central Catalina Common Room","_wikiTried":true},"geometry":{"type":"Polygon","coordinates":[[[-118.129024,34.1397675],[-118.1290247,34.1396487],[-118.1288847,34.1396482],[-118.1288841,34.1397669],[-118.129024,34.1397675]]]}},{"type":"Feature","id":1047787606,"properties":{"osmId":1047787606,"category":"academic","building":"yes","building:levels":"4","name":"Chen Neuroscience Research Building","roof:shape":"flat","wikidata":"Q65974731","_wikiTried":true},"geometry":{"type":"Polygon","coordinates":[[[-118.1276101,34.1407969],[-118.1276107,34.1402049],[-118.1267843,34.1402044],[-118.126784,34.1404429],[-118.1273252,34.1404434],[-118.1273248,34.1407967],[-118.1276101,34.1407969]]]}},{"type":"Feature","id":1053224839,"properties":{"osmId":1053224839,"category":"academic","addr:city":"Pasadena","addr:housenumber":"1048","addr:postcode":"91106","addr:state":"CA","addr:street":"East Del Mar Boulevard","building":"yes","name":"North Catalina Recreation Room","_wikiTried":true},"geometry":{"type":"Polygon","coordinates":[[[-118.129056,34.1403037],[-118.1290544,34.140195],[-118.1289326,34.1401963],[-118.1289342,34.1403049],[-118.129056,34.1403037]]]}},{"type":"Feature","id":1053224840,"properties":{"osmId":1053224840,"category":"academic","addr:city":"Pasadena","addr:housenumber":"454","addr:postcode":"91106","addr:state":"CA","addr:street":"South Catalina Avenue","building":"yes","name":"South Catalina Common Room","_wikiTried":true},"geometry":{"type":"Polygon","coordinates":[[[-118.1290396,34.1385284],[-118.1290399,34.1386441],[-118.1288942,34.1386443],[-118.128894,34.1385286],[-118.1290396,34.1385284]]]}},{"type":"Feature","id":1058026917,"properties":{"osmId":1058026917,"category":"academic","building":"yes","name":"AWS Center for Quantum Computing","_wikiTried":true},"geometry":{"type":"Polygon","coordinates":[[[-118.1227572,34.140418],[-118.1221409,34.1404245],[-118.1221485,34.1409207],[-118.1227649,34.1409141],[-118.1227572,34.140418]]]}},{"type":"Feature","id":1107071837,"properties":{"osmId":1107071837,"category":"athletic","building":"grandstand"},"geometry":{"type":"Polygon","coordinates":[[[-118.1291601,34.1338723],[-118.1291588,34.1336403],[-118.1292171,34.1336401],[-118.1292185,34.1338721],[-118.1291601,34.1338723]]]}},{"type":"Feature","id":1224939262,"properties":{"osmId":1224939262,"category":"academic","access":"private","building":"yes","leisure":"fitness_centre","name":"The Barn","_wikiTried":true},"geometry":{"type":"Polygon","coordinates":[[[-118.125353,34.1335435],[-118.1253543,34.1334494],[-118.1255543,34.1334513],[-118.125553,34.1335454],[-118.125353,34.1335435]]]}},{"type":"Feature","id":1314090281,"properties":{"osmId":1314090281,"category":"academic","building":"yes","source":"microsoft/BuildingFootprints"},"geometry":{"type":"Polygon","coordinates":[[[-118.1236481,34.1384503],[-118.1236498,34.1385635],[-118.1237839,34.1385622],[-118.1237822,34.138449],[-118.1236481,34.1384503]]]}},{"type":"Feature","id":1314090282,"properties":{"osmId":1314090282,"category":"academic","building":"yes","source":"microsoft/BuildingFootprints"},"geometry":{"type":"Polygon","coordinates":[[[-118.1262625,34.1360388],[-118.1262629,34.1360566],[-118.1261959,34.1360577],[-118.1261986,34.1361686],[-118.1263836,34.1361656],[-118.1263805,34.1360369],[-118.1262625,34.1360388]]]}},{"type":"Feature","id":1314090283,"properties":{"osmId":1314090283,"category":"academic","building":"yes","source":"microsoft/BuildingFootprints"},"geometry":{"type":"Polygon","coordinates":[[[-118.1278286,34.1342014],[-118.1275808,34.1342034],[-118.1275844,34.1345009],[-118.1278321,34.1344989],[-118.1278286,34.1342014]]]}},{"type":"Feature","id":1314090284,"properties":{"osmId":1314090284,"category":"academic","building":"yes","source":"microsoft/BuildingFootprints"},"geometry":{"type":"Polygon","coordinates":[[[-118.1286645,34.1368145],[-118.1285879,34.1368133],[-118.1285864,34.1368799],[-118.128663,34.1368811],[-118.1286645,34.1368145]]]}},{"type":"Feature","id":1478497309,"properties":{"osmId":1478497309,"category":"academic","building":"yes","layer":"1","name":"Resnick Sustainability Center","_wikiTried":true},"geometry":{"type":"Polygon","coordinates":[[[-118.1270349,34.1387487],[-118.1270834,34.138749],[-118.1273407,34.1387504],[-118.1274103,34.1387202],[-118.1274776,34.1387361],[-118.127522,34.1387173],[-118.127577,34.1387358],[-118.1276044,34.138736],[-118.1276158,34.1387161],[-118.1276224,34.1386624],[-118.1276404,34.13858],[-118.1276256,34.1384546],[-118.1276259,34.138398],[-118.1275021,34.1383981],[-118.1275024,34.1384514],[-118.1273974,34.1384522],[-118.1273656,34.1384002],[-118.1272346,34.1383986],[-118.1271938,34.1383891],[-118.1271766,34.138335],[-118.1271635,34.1383186],[-118.1271416,34.1383088],[-118.1271189,34.1383093],[-118.1270963,34.1383156],[-118.1270538,34.1383014],[-118.1270355,34.1383193],[-118.1270349,34.1387487]]]}}]}