{"type":"FeatureCollection","features":[{"type":"Feature","id":25312465,"properties":{"osmId":25312465,"category":"athletic","addr:city":"Cleveland","addr:housenumber":"1","addr:postcode":"44115","addr:state":"OH","addr:street":"Center Court","building":"yes","leisure":"stadium","loc_name":"The Q","name":"Rocket Arena","old_name":"Rocket Mortgage Fieldhouse","sport":"basketball;ice_hockey","wheelchair":"yes","wikidata":"Q387157","wikipedia":"en:Rocket Mortgage FieldHouse"},"geometry":{"type":"Polygon","coordinates":[[[-81.6881688,41.4975143],[-81.6881033,41.4975482],[-81.6878689,41.4972913],[-81.6879151,41.4972608],[-81.6877711,41.497112],[-81.6875831,41.4969004],[-81.6875241,41.4968642],[-81.6874141,41.4967678],[-81.6873739,41.4967095],[-81.6873443,41.4966492],[-81.6873336,41.496603],[-81.6872537,41.4965215],[-81.6873061,41.4964789],[-81.6873295,41.4963981],[-81.6873615,41.4963141],[-81.6874286,41.4962169],[-81.6875175,41.496123],[-81.6876428,41.4960423],[-81.6878119,41.4958207],[-81.6884306,41.4960869],[-81.6884867,41.4960936],[-81.6885318,41.4961056],[-81.6885785,41.4961241],[-81.6886382,41.4961536],[-81.6886732,41.4961744],[-81.6887065,41.4962057],[-81.6893323,41.4964783],[-81.6893531,41.4964519],[-81.6894046,41.4964777],[-81.6895298,41.4965275],[-81.6898336,41.4966629],[-81.689517,41.4968258],[-81.6892243,41.4969753],[-81.6890016,41.4970885],[-81.6887834,41.4971989],[-81.6881688,41.4975143]]]}},{"type":"Feature","id":53639449,"properties":{"osmId":53639449,"category":"medical","building":"hospital"},"geometry":{"type":"Polygon","coordinates":[[[-81.673958,41.4963004],[-81.6739439,41.4963305],[-81.6738629,41.4965555],[-81.6734989,41.4964815],[-81.6734879,41.4965135],[-81.6734689,41.4965095],[-81.6734389,41.4965935],[-81.6733759,41.4965805],[-81.6733909,41.4965375],[-81.6732709,41.4965135],[-81.6732659,41.4965275],[-81.6732019,41.4965145],[-81.6731129,41.4967615],[-81.6731339,41.4967665],[-81.6731309,41.4967855],[-81.6731362,41.4968332],[-81.6731346,41.496918],[-81.6731695,41.4969199],[-81.6731889,41.4969185],[-81.6732329,41.4969175],[-81.6732907,41.4969159],[-81.6732953,41.4969279],[-81.673347,41.4969365],[-81.6733477,41.496932],[-81.6734639,41.4969395],[-81.6734639,41.4969505],[-81.6735369,41.4969525],[-81.6735369,41.4969825],[-81.6735569,41.4969985],[-81.6735549,41.4970185],[-81.6735339,41.4970325],[-81.6735319,41.4970585],[-81.6734529,41.4970555],[-81.6734529,41.4970695],[-81.6730667,41.497046],[-81.6730499,41.497065],[-81.6729969,41.4970665],[-81.6729386,41.4970575],[-81.6729219,41.4970409],[-81.6728859,41.4970455],[-81.6726559,41.4970315],[-81.6726699,41.4969935],[-81.6726928,41.4969536],[-81.6727016,41.4968815],[-81.6727126,41.4968458],[-81.6727093,41.4967928],[-81.6727307,41.4967901],[-81.6727329,41.4967315],[-81.6727569,41.4967335],[-81.6727599,41.4966955],[-81.672538,41.4966855],[-81.6725794,41.4962982],[-81.6727132,41.496301],[-81.6727194,41.4962537],[-81.6726093,41.496248],[-81.6726133,41.4962103],[-81.67258,41.4962073],[-81.6725907,41.4960715],[-81.6721118,41.4960455],[-81.6721286,41.4958074],[-81.671969,41.4957984],[-81.6720091,41.4954213],[-81.6725111,41.4954408],[-81.6725028,41.4955317],[-81.6725125,41.4955322],[-81.6726134,41.4955362],[-81.6726249,41.4954965],[-81.6726929,41.4955105],[-81.6727019,41.4954825],[-81.6728369,41.4955105],[-81.6728169,41.4955665],[-81.6728289,41.4955825],[-81.6728416,41.4955997],[-81.6728708,41.4955906],[-81.672926,41.4955826],[-81.6729696,41.4956601],[-81.673007,41.4956517],[-81.6730566,41.4956462],[-81.673064,41.4956673],[-81.673113,41.4956427],[-81.6731297,41.4956276],[-81.6731371,41.4956136],[-81.6731572,41.4955588],[-81.673357,41.4955734],[-81.6733503,41.4957401],[-81.6735072,41.4957502],[-81.673526,41.4958697],[-81.6733986,41.4958838],[-81.6734496,41.4960656],[-81.6733973,41.4960786],[-81.6734579,41.4961825],[-81.6734479,41.4961855],[-81.6734599,41.4962135],[-81.6735399,41.4962305],[-81.6735529,41.4961965],[-81.6736389,41.4962135],[-81.6736319,41.4962345],[-81.673958,41.4963004]]]}},{"type":"Feature","id":53639569,"properties":{"osmId":53639569,"category":"other","amenity":"parking","building":"parking","fee":"yes","name":"South Garage","operator":"Cleveland State University","parking":"multi-storey","payment:credit_cards":"yes","payment:debit_cards":"yes"},"geometry":{"type":"Polygon","coordinates":[[[-81.6743013,41.4997112],[-81.6742195,41.4992253],[-81.6744809,41.499195],[-81.6752386,41.4991156],[-81.6752413,41.4991608],[-81.6753053,41.4991517],[-81.6753972,41.4995931],[-81.6743013,41.4997112]]]}},{"type":"Feature","id":53639570,"properties":{"osmId":53639570,"category":"athletic","addr:city":"Cleveland","addr:state":"OH","building":"stadium","ele":"204","gnis:feature_id":"1700950","layer":"1","leisure":"stadium","name":"Cleveland State University Wolstein Center","source":"USGS Geonames","sport":"basketball","wikidata":"Q3569735","wikipedia":"en:Wolstein Center"},"geometry":{"type":"Polygon","coordinates":[[[-81.677474,41.4996223],[-81.6766862,41.4997123],[-81.6765393,41.4996949],[-81.6764336,41.4996649],[-81.6763436,41.4996049],[-81.6762725,41.499507],[-81.6762664,41.499453],[-81.6761769,41.4994561],[-81.6761783,41.499488],[-81.6762003,41.4994967],[-81.6762164,41.4995066],[-81.676228,41.4995215],[-81.6762326,41.4995373],[-81.6762264,41.4995484],[-81.676211,41.4995629],[-81.6761912,41.4995679],[-81.6761721,41.4995679],[-81.6761448,41.499558],[-81.6761316,41.4995422],[-81.6761283,41.499524],[-81.6761283,41.4995145],[-81.6755915,41.4995655],[-81.6755171,41.4991867],[-81.6760479,41.499128],[-81.6760391,41.4991049],[-81.6760399,41.4990903],[-81.6760431,41.4990798],[-81.6760479,41.4990733],[-81.6760625,41.4990628],[-81.6760867,41.499062],[-81.6761175,41.4990628],[-81.6761336,41.4990693],[-81.6761474,41.4990846],[-81.676166,41.4991032],[-81.6762072,41.4990984],[-81.6762092,41.499051],[-81.6762328,41.4990293],[-81.6762512,41.4990019],[-81.6762957,41.4989625],[-81.6763553,41.498921],[-81.6764432,41.4988735],[-81.6765351,41.4988493],[-81.6765937,41.4988291],[-81.6773152,41.4987654],[-81.6773738,41.4987624],[-81.6774627,41.4987776],[-81.6775405,41.4988058],[-81.6776112,41.4988442],[-81.6776688,41.4988968],[-81.6777325,41.4989665],[-81.67778,41.4992808],[-81.6777739,41.4993404],[-81.6777416,41.4994091],[-81.6777042,41.4994616],[-81.6776517,41.4995222],[-81.6776011,41.4995707],[-81.6775577,41.4996011],[-81.6775062,41.4996172],[-81.677474,41.4996223]]]}},{"type":"Feature","id":53640762,"properties":{"osmId":53640762,"category":"academic","building":"university","name":"Auditorium"},"geometry":{"type":"Polygon","coordinates":[[[-81.6686413,41.4927646],[-81.6682034,41.492669],[-81.6683543,41.4922811],[-81.6687922,41.4923767],[-81.6686413,41.4927646]]]}},{"type":"Feature","id":53640763,"properties":{"osmId":53640763,"category":"academic","building":"university","name":"Manufacturing Technology Center"},"geometry":{"type":"Polygon","coordinates":[[[-81.6724094,41.492851],[-81.6717372,41.4931254],[-81.6713655,41.4926146],[-81.6720377,41.4923401],[-81.6724094,41.492851]]]}},{"type":"Feature","id":53640764,"properties":{"osmId":53640764,"category":"academic","building":"university","name":"Recreation Center"},"geometry":{"type":"Polygon","coordinates":[[[-81.6668176,41.4939593],[-81.6664141,41.493875],[-81.6665217,41.493586],[-81.6669252,41.4936704],[-81.6668176,41.4939593]]]}},{"type":"Feature","id":53640768,"properties":{"osmId":53640768,"category":"academic","building":"university","name":"Buildings and Grounds"},"geometry":{"type":"Polygon","coordinates":[[[-81.6709139,41.4937822],[-81.6703558,41.4936619],[-81.6704945,41.4933007],[-81.6710526,41.493421],[-81.6709139,41.4937822]]]}},{"type":"Feature","id":53640770,"properties":{"osmId":53640770,"category":"academic","building":"university","name":"Campus Center"},"geometry":{"type":"Polygon","coordinates":[[[-81.66898,41.4930174],[-81.6688652,41.4933148],[-81.668082,41.4931452],[-81.6681968,41.4928478],[-81.66898,41.4930174]]]}},{"type":"Feature","id":53640775,"properties":{"osmId":53640775,"category":"academic","building":"university","name":"Business and Administration"},"geometry":{"type":"Polygon","coordinates":[[[-81.6682611,41.4939406],[-81.668036,41.4938944],[-81.6682426,41.4933302],[-81.6684677,41.4933765],[-81.6682611,41.4939406]]]}},{"type":"Feature","id":53640776,"properties":{"osmId":53640776,"category":"academic","building":"university","name":"Theatre Arts and Media Center"},"geometry":{"type":"Polygon","coordinates":[[[-81.6698411,41.4929547],[-81.6690918,41.4927882],[-81.6691965,41.4925236],[-81.6699459,41.4926902],[-81.6698411,41.4929547]]]}},{"type":"Feature","id":53640777,"properties":{"osmId":53640777,"category":"academic","building":"university","name":"Arts and Music"},"geometry":{"type":"Polygon","coordinates":[[[-81.6692827,41.4922774],[-81.6692138,41.4924481],[-81.6684645,41.4922785],[-81.6685334,41.4921078],[-81.6692827,41.4922774]]]}},{"type":"Feature","id":53640778,"properties":{"osmId":53640778,"category":"academic","building":"school"},"geometry":{"type":"Polygon","coordinates":[[[-81.6663117,41.4952],[-81.6655227,41.4950253],[-81.6656756,41.4946157],[-81.6657432,41.4946296],[-81.666448,41.494774],[-81.6664831,41.4947812],[-81.6664014,41.4949807],[-81.6663117,41.4952]]]}},{"type":"Feature","id":53640780,"properties":{"osmId":53640780,"category":"academic","building":"university","name":"Liberal Arts"},"geometry":{"type":"Polygon","coordinates":[[[-81.6709219,41.4926074],[-81.6708617,41.4927744],[-81.6706486,41.4927283],[-81.6706215,41.4928025],[-81.6707426,41.4928291],[-81.6706789,41.4930003],[-81.6706669,41.492999],[-81.6706246,41.4931165],[-81.6706198,41.4931158],[-81.6705927,41.4931896],[-81.6703996,41.4931487],[-81.6703808,41.4931552],[-81.6703745,41.4931459],[-81.6703678,41.4931355],[-81.6703633,41.4931262],[-81.6703574,41.4931137],[-81.6703547,41.4931015],[-81.6703257,41.4931072],[-81.6703197,41.4930909],[-81.6703169,41.4930723],[-81.6703127,41.4930472],[-81.670312,41.493019],[-81.6703164,41.4929914],[-81.6703227,41.4929679],[-81.6703344,41.4929312],[-81.6702266,41.4929078],[-81.6702887,41.4927362],[-81.6704135,41.4927604],[-81.6704406,41.4926859],[-81.6700095,41.4925967],[-81.6700043,41.4926109],[-81.6699497,41.4926004],[-81.6699545,41.4925839],[-81.6697931,41.4925514],[-81.6698531,41.4923875],[-81.6700161,41.4924195],[-81.6700217,41.4924058],[-81.670075,41.4924152],[-81.670071,41.4924302],[-81.6707083,41.4925651],[-81.6707138,41.4925512],[-81.6707667,41.4925614],[-81.6707622,41.4925753],[-81.6709219,41.4926074]]]}},{"type":"Feature","id":53640782,"properties":{"osmId":53640782,"category":"academic","building":"school"},"geometry":{"type":"Polygon","coordinates":[[[-81.6660106,41.4955011],[-81.6655709,41.4953867],[-81.6657032,41.4951015],[-81.6661429,41.4952159],[-81.6660106,41.4955011]]]}},{"type":"Feature","id":53640784,"properties":{"osmId":53640784,"category":"academic","building":"school"},"geometry":{"type":"Polygon","coordinates":[[[-81.6662936,41.4947302],[-81.665872,41.4946459],[-81.665951,41.4944244],[-81.6663726,41.4945087],[-81.6662936,41.4947302]]]}},{"type":"Feature","id":53640788,"properties":{"osmId":53640788,"category":"academic","building":"university","name":"Recreation Center"},"geometry":{"type":"Polygon","coordinates":[[[-81.6672332,41.4927488],[-81.6668895,41.4936026],[-81.6665161,41.4935183],[-81.6668598,41.4926645],[-81.6672332,41.4927488]]]}},{"type":"Feature","id":53640790,"properties":{"osmId":53640790,"category":"academic","building":"university","name":"Student Services"},"geometry":{"type":"Polygon","coordinates":[[[-81.6700825,41.4936373],[-81.669546,41.4935293],[-81.6697045,41.4931666],[-81.6702189,41.4932569],[-81.6700825,41.4936373]]]}},{"type":"Feature","id":53652700,"properties":{"osmId":53652700,"category":"religious","amenity":"place_of_worship","building":"church","denomination":"baptist","name":"Triedstone Baptist Church","religion":"christian"},"geometry":{"type":"Polygon","coordinates":[[[-81.6604365,41.4930908],[-81.6602379,41.4930488],[-81.6603392,41.49278],[-81.6605278,41.4928198],[-81.6605624,41.4927278],[-81.6608309,41.4927845],[-81.6607132,41.493097],[-81.660549,41.4930624],[-81.6605088,41.4930533],[-81.660458,41.4930429],[-81.6604365,41.4930908]]]}},{"type":"Feature","id":104247593,"properties":{"osmId":104247593,"category":"academic","addr:housenumber":"1768","addr:street":"East 25th Street","building":"yes","name":"Magnet Innovation Center"},"geometry":{"type":"Polygon","coordinates":[[[-81.6723016,41.5056776],[-81.6721856,41.5051518],[-81.6716911,41.5051907],[-81.6717643,41.5055776],[-81.6717949,41.5057393],[-81.6723016,41.5056776]]]}},{"type":"Feature","id":104247603,"properties":{"osmId":104247603,"category":"academic","building":"yes","name":"Plant Services"},"geometry":{"type":"Polygon","coordinates":[[[-81.6724261,41.506228],[-81.6723199,41.5057416],[-81.6718193,41.5057851],[-81.6718956,41.5063063],[-81.6724261,41.506228]]]}},{"type":"Feature","id":116620435,"properties":{"osmId":116620435,"category":"other","amenity":"parking","building":"yes","fee":"yes","name":"West Garage","operator":"Cleveland State University","parking":"multi-storey","payment:credit_cards":"yes","payment:debit_cards":"yes"},"geometry":{"type":"Polygon","coordinates":[[[-81.6800662,41.5023019],[-81.679641,41.5023516],[-81.6796732,41.5025064],[-81.6797714,41.5029776],[-81.6798167,41.5031948],[-81.6802419,41.5031452],[-81.6801107,41.5025157],[-81.6800825,41.5023802],[-81.6800662,41.5023019]]]}},{"type":"Feature","id":120933098,"properties":{"osmId":120933098,"category":"other","amenity":"parking","building":"yes","name":"East Garage","operator":"Cleveland State University","parking":"multi-storey","payment:credit_cards":"yes","payment:debit_cards":"yes"},"geometry":{"type":"Polygon","coordinates":[[[-81.670897,41.5040303],[-81.6708679,41.503896],[-81.6709134,41.5038905],[-81.6708052,41.5033923],[-81.670367,41.5034457],[-81.6705043,41.5040781],[-81.670897,41.5040303]]]}},{"type":"Feature","id":137993275,"properties":{"osmId":137993275,"category":"other","access":"permissive","amenity":"parking","building":"yes","fee":"yes","name":"Central Garage","operator":"Cleveland State University","parking":"multi-storey","payment:credit_cards":"yes","payment:debit_cards":"yes"},"geometry":{"type":"Polygon","coordinates":[[[-81.6777468,41.5031566],[-81.6777383,41.5031074],[-81.677673,41.5027312],[-81.6776411,41.5025478],[-81.677621,41.5024743],[-81.6762394,41.5026253],[-81.6762432,41.5026627],[-81.6763703,41.5033149],[-81.6777468,41.5031566]]]}},{"type":"Feature","id":294598602,"properties":{"osmId":294598602,"category":"religious","addr:city":"Cleveland","addr:housenumber":"1007","addr:postcode":"44114","addr:state":"OH","addr:street":"Superior Avenue East","amenity":"place_of_worship","building":"cathedral","denomination":"roman_catholic","diocese":"Cleveland","ele":"198","gnis:feature_id":"1077551","name":"Cathedral of Saint John the Evangelist","phone":"+1 216-771-6666","religion":"christian","short_name":"Saint Johns Cathedral","website":"https://saintjohncathedral.com/","wikidata":"Q5052399","wikipedia":"en:Cathedral of St. John the Evangelist (Cleveland, Ohio)"},"geometry":{"type":"Polygon","coordinates":[[[-81.6873323,41.503383],[-81.6871788,41.5032075],[-81.6872947,41.5031507],[-81.6875929,41.5030089],[-81.6876512,41.5030777],[-81.6877747,41.5030191],[-81.6877382,41.5029759],[-81.6879187,41.5028904],[-81.6879362,41.5029111],[-81.6880486,41.5028581],[-81.6880121,41.5028146],[-81.6880986,41.5027751],[-81.6881656,41.5027428],[-81.6882187,41.5028045],[-81.6885744,41.5026366],[-81.6886046,41.5026726],[-81.6886341,41.5026686],[-81.6886687,41.5027085],[-81.6887371,41.5027876],[-81.6887248,41.5027936],[-81.6883271,41.5029886],[-81.6883704,41.5030381],[-81.6879604,41.5032392],[-81.6878343,41.5030949],[-81.6877473,41.5031376],[-81.6877729,41.5031668],[-81.6873323,41.503383]]]}},{"type":"Feature","id":353118744,"properties":{"osmId":353118744,"category":"academic","addr:city":"Cleveland","addr:housenumber":"1717","addr:postcode":"44114","addr:state":"OH","addr:street":"Euclid Avenue","building":"university","building:levels":"3","name":"Levin College of Public Affairs and Education","roof:shape":"flat"},"geometry":{"type":"Polygon","coordinates":[[[-81.6799975,41.5018796],[-81.6798634,41.5018949],[-81.6798564,41.5018587],[-81.6796971,41.5018756],[-81.6797024,41.5019077],[-81.6796849,41.50191],[-81.6795791,41.5019238],[-81.6795442,41.5017992],[-81.6795335,41.5017269],[-81.6795254,41.5016626],[-81.6794798,41.5016566],[-81.6794819,41.501621],[-81.6794932,41.5014336],[-81.679453,41.5014336],[-81.6794503,41.5013714],[-81.6795683,41.5013834],[-81.6795898,41.5013031],[-81.6797212,41.5013292],[-81.6797132,41.5013472],[-81.6797299,41.5013503],[-81.6797561,41.5013553],[-81.6797561,41.5013392],[-81.6798875,41.5013211],[-81.6799975,41.5018796]]]}},{"type":"Feature","id":353118869,"properties":{"osmId":353118869,"category":"academic","addr:city":"Cleveland","addr:housenumber":"1860","addr:postcode":"44115","addr:state":"OH","addr:street":"East 18th Street","building":"university","building:levels":"4","name":"Monte Ahuja College of Business","roof:shape":"flat"},"geometry":{"type":"Polygon","coordinates":[[[-81.6790989,41.5021889],[-81.6791284,41.5023637],[-81.679158,41.5023637],[-81.679158,41.5024983],[-81.6793859,41.5024862],[-81.6794154,41.5023014],[-81.6799465,41.5022231],[-81.6799143,41.5021327],[-81.6799385,41.5021287],[-81.679917,41.5020764],[-81.6798848,41.5020785],[-81.6798634,41.50197],[-81.679807,41.501974],[-81.6798044,41.5019559],[-81.6795469,41.501976],[-81.6793859,41.5019941],[-81.6792679,41.5020383],[-81.6792062,41.5020965],[-81.679166,41.5021809],[-81.6790989,41.5021889]]]}},{"type":"Feature","id":353119165,"properties":{"osmId":353119165,"category":"academic","amenity":"police","building":"university","name":"CSU Police Department"},"geometry":{"type":"Polygon","coordinates":[[[-81.6784121,41.5028106],[-81.6783698,41.5026111],[-81.6779553,41.5026605],[-81.6779974,41.502859],[-81.6780743,41.5028498],[-81.6781524,41.5028892],[-81.6782004,41.5028358],[-81.6784121,41.5028106]]]}},{"type":"Feature","id":353119166,"properties":{"osmId":353119166,"category":"academic","building":"university","building:levels":"4","name":"CSU Music & Communication"},"geometry":{"type":"Polygon","coordinates":[[[-81.6773506,41.5020164],[-81.6773942,41.5022347],[-81.6773982,41.5022547],[-81.6773503,41.50226],[-81.6773722,41.5023701],[-81.6773013,41.5023781],[-81.6773112,41.5024278],[-81.6763202,41.5025385],[-81.676264,41.5025818],[-81.6762183,41.5025485],[-81.6761828,41.5023638],[-81.6765773,41.5023213],[-81.6765723,41.5022954],[-81.676634,41.5022633],[-81.6766259,41.5022311],[-81.6766286,41.502199],[-81.6766581,41.5021829],[-81.6767225,41.5021809],[-81.6767706,41.5021506],[-81.676755,41.5021367],[-81.6768089,41.5021028],[-81.6767956,41.5020909],[-81.6769111,41.5020182],[-81.6769585,41.5020604],[-81.6773506,41.5020164]]]}},{"type":"Feature","id":353119328,"properties":{"osmId":353119328,"category":"academic","building":"university","building:levels":"3","name":"Law Library Law Building"},"geometry":{"type":"Polygon","coordinates":[[[-81.678651,41.5014919],[-81.6784965,41.5015106],[-81.6783855,41.501524],[-81.6784016,41.5015963],[-81.678238,41.5016164],[-81.678195,41.5016526],[-81.6782299,41.5018414],[-81.6782889,41.5018816],[-81.6783908,41.5018655],[-81.6784016,41.5019278],[-81.6778034,41.5019961],[-81.6778419,41.5021917],[-81.6778571,41.5022693],[-81.6779161,41.5022613],[-81.677908,41.5022351],[-81.6783801,41.5021809],[-81.6783828,41.5022151],[-81.678423,41.502209],[-81.6784472,41.5022733],[-81.6783908,41.5022894],[-81.6784364,41.5023938],[-81.6784096,41.5024019],[-81.678415,41.5024461],[-81.6782219,41.5024762],[-81.6782299,41.5025244],[-81.6783962,41.5025003],[-81.6783989,41.5025405],[-81.6784659,41.5025324],[-81.6785437,41.5029061],[-81.6786791,41.502891],[-81.6786845,41.5029061],[-81.6787824,41.502898],[-81.6787771,41.5028719],[-81.6789407,41.5028548],[-81.678769,41.5018394],[-81.6786993,41.5018515],[-81.6786349,41.5015722],[-81.6786752,41.5015702],[-81.678651,41.5014919]]]}},{"type":"Feature","id":353119400,"properties":{"osmId":353119400,"category":"academic","amenity":"community_centre","building":"university","building:levels":"4","name":"Student Center","operator":"Cleveland State University"},"geometry":{"type":"Polygon","coordinates":[[[-81.6758079,41.502434],[-81.6757328,41.5020162],[-81.6757033,41.5020222],[-81.6756872,41.5020041],[-81.6757408,41.5019559],[-81.6756255,41.5019097],[-81.675478,41.5018876],[-81.6753895,41.5018816],[-81.6752956,41.5019017],[-81.6751588,41.5019499],[-81.6751776,41.501974],[-81.6751159,41.5020142],[-81.6750756,41.5020503],[-81.6750086,41.5021528],[-81.6749871,41.502207],[-81.6749952,41.5023175],[-81.6749469,41.5023275],[-81.6749844,41.5025244],[-81.6753439,41.5024903],[-81.6753573,41.5025264],[-81.6753982,41.502522],[-81.6755075,41.5025103],[-81.6755042,41.5024845],[-81.6755021,41.5024682],[-81.6756093,41.5024562],[-81.6758079,41.502434]]]}},{"type":"Feature","id":353119401,"properties":{"osmId":353119401,"category":"academic","addr:city":"Cleveland","addr:housenumber":"1899","addr:postcode":"44115-2214","addr:state":"OH","addr:street":"East 22nd Street","building":"university","building:levels":"5","name":"Berkman Hall/Main Classroom Building"},"geometry":{"type":"Polygon","coordinates":[[[-81.674499,41.5020704],[-81.6740215,41.5021186],[-81.6742897,41.5035449],[-81.6743139,41.5035428],[-81.6743273,41.5036152],[-81.6743572,41.5036135],[-81.6743608,41.5036403],[-81.6744239,41.5036373],[-81.6744635,41.5036398],[-81.6744735,41.5036624],[-81.6745385,41.5036588],[-81.6745418,41.5036784],[-81.6745955,41.5036719],[-81.6746022,41.5037068],[-81.6747115,41.5036891],[-81.6747112,41.5036732],[-81.6747506,41.5036678],[-81.6747488,41.503647],[-81.67479,41.5036403],[-81.6747779,41.503571],[-81.6748691,41.5035589],[-81.6748665,41.5035264],[-81.6747485,41.5029894],[-81.6747461,41.5029647],[-81.6747436,41.5029383],[-81.6747393,41.5028939],[-81.6747346,41.5028451],[-81.6747224,41.502787],[-81.6747242,41.5027468],[-81.6747242,41.5027461],[-81.6746143,41.5027293],[-81.674499,41.5020704]]]}},{"type":"Feature","id":353119402,"properties":{"osmId":353119402,"category":"academic","addr:city":"Cleveland","addr:housenumber":"2121","addr:postcode":"44115-2214","addr:state":"OH","addr:street":"Euclid Avenue","building":"university","building:levels":"5","name":"Michael Schwartz Library, CSU"},"geometry":{"type":"Polygon","coordinates":[[[-81.6747485,41.5029894],[-81.6748351,41.5029799],[-81.674975,41.5029645],[-81.6749855,41.5030182],[-81.6751145,41.5030041],[-81.6754667,41.5029655],[-81.6758917,41.5029189],[-81.6759608,41.5029113],[-81.6760635,41.5029001],[-81.6762101,41.502884],[-81.6762936,41.5033393],[-81.6762187,41.5033478],[-81.6762242,41.5033792],[-81.6761492,41.5033845],[-81.6760138,41.5034036],[-81.6758408,41.5034037],[-81.6757938,41.5034066],[-81.6754062,41.5034497],[-81.6752868,41.5034632],[-81.6751534,41.5034921],[-81.6750826,41.5035075],[-81.6750177,41.5035142],[-81.6749625,41.5035165],[-81.674926,41.5035209],[-81.6748665,41.5035264],[-81.6747485,41.5029894]]]}},{"type":"Feature","id":353119791,"properties":{"osmId":353119791,"category":"academic","building":"university","building:levels":"3","name":"Julka Hall"},"geometry":{"type":"Polygon","coordinates":[[[-81.6715405,41.5024611],[-81.6718677,41.5025113],[-81.6718999,41.5026821],[-81.6719173,41.5026871],[-81.6718758,41.5028036],[-81.6718208,41.5028036],[-81.6718395,41.5027594],[-81.6715016,41.5026851],[-81.6714895,41.5027132],[-81.6713232,41.5026982],[-81.671342,41.502652],[-81.670878,41.5025485],[-81.6708659,41.5024882],[-81.6708391,41.5024812],[-81.670874,41.5024039],[-81.6709115,41.5024039],[-81.6709316,41.5023496],[-81.6708538,41.5023296],[-81.6708632,41.5023115],[-81.6709397,41.5023034],[-81.6709383,41.5022753],[-81.6714654,41.5022422],[-81.6714627,41.502208],[-81.6716558,41.502192],[-81.6715405,41.5024611]]]}},{"type":"Feature","id":353119792,"properties":{"osmId":353119792,"category":"academic","addr:city":"Cleveland","addr:housenumber":"1983","addr:postcode":"44115","addr:state":"OH","addr:street":"East 24th Street","building":"university","height":"81.0768","name":"Fenn Tower","wikidata":"Q14716415"},"geometry":{"type":"Polygon","coordinates":[[[-81.6723128,41.5026107],[-81.6720109,41.5026446],[-81.6719133,41.5021571],[-81.6722152,41.5021232],[-81.6723128,41.5026107]]]}},{"type":"Feature","id":353119810,"properties":{"osmId":353119810,"category":"academic","building":"university","building:levels":"4","name":"CSU Science & Research Center"},"geometry":{"type":"Polygon","coordinates":[[[-81.6732837,41.5024713],[-81.6732944,41.502529],[-81.6732702,41.5025315],[-81.6731976,41.5021381],[-81.6727043,41.5021891],[-81.6727791,41.5025951],[-81.6725777,41.502616],[-81.6725963,41.5027169],[-81.6725687,41.5027197],[-81.6725825,41.5027797],[-81.6729768,41.5027367],[-81.6730118,41.5029167],[-81.6730439,41.5029134],[-81.6730475,41.5029326],[-81.674074,41.5028253],[-81.6739942,41.502397],[-81.6732837,41.5024713]]]}},{"type":"Feature","id":353119811,"properties":{"osmId":353119811,"category":"academic","building":"yes","building:levels":"4","name":"Fenn Hall"},"geometry":{"type":"Polygon","coordinates":[[[-81.6730118,41.5029167],[-81.6729768,41.5027367],[-81.6725825,41.5027797],[-81.6726626,41.5031915],[-81.6727426,41.5036033],[-81.6727663,41.5036007],[-81.6731651,41.5035572],[-81.6731394,41.5034255],[-81.673107,41.503429],[-81.673071,41.5032448],[-81.6731049,41.5032411],[-81.6730921,41.503176],[-81.6730635,41.5031791],[-81.6730118,41.5029167]]]}},{"type":"Feature","id":353119884,"properties":{"osmId":353119884,"category":"academic","building":"university","building:levels":"4","name":"Washkewicz Hall"},"geometry":{"type":"Polygon","coordinates":[[[-81.6734376,41.5035324],[-81.6738641,41.503491],[-81.6739422,41.5034766],[-81.6740011,41.5037327],[-81.673347,41.5037951],[-81.6733417,41.5037748],[-81.6733052,41.5037717],[-81.6732987,41.5037295],[-81.6729362,41.5037625],[-81.6729174,41.5037343],[-81.6728816,41.5037355],[-81.6728664,41.5036878],[-81.6728358,41.5036882],[-81.6728294,41.5036624],[-81.6727886,41.5036627],[-81.6727663,41.5036007],[-81.6731651,41.5035572],[-81.6732612,41.5035474],[-81.6732399,41.5034521],[-81.6734194,41.5034332],[-81.6734376,41.5035324]]]}},{"type":"Feature","id":353120089,"properties":{"osmId":353120089,"category":"academic","building":"yes"},"geometry":{"type":"Polygon","coordinates":[[[-81.6713828,41.5029712],[-81.6713696,41.5029032],[-81.67128,41.5029129],[-81.6712932,41.5029809],[-81.6713828,41.5029712]]]}},{"type":"Feature","id":353120090,"properties":{"osmId":353120090,"category":"academic","building":"university","building:levels":"4","name":"Recreation Center"},"geometry":{"type":"Polygon","coordinates":[[[-81.6716732,41.5030376],[-81.6714962,41.5030547],[-81.6714748,41.5030668],[-81.6714654,41.5030818],[-81.6714667,41.5030979],[-81.6714225,41.5031019],[-81.6714171,41.5030919],[-81.6714064,41.5030788],[-81.6713876,41.5030708],[-81.6713661,41.5030678],[-81.6710174,41.503108],[-81.670992,41.503123],[-81.6709826,41.5031451],[-81.6709973,41.5032194],[-81.6709571,41.5032245],[-81.670945,41.5032355],[-81.670937,41.5032536],[-81.6709786,41.5034906],[-81.670992,41.5035037],[-81.6710215,41.5035117],[-81.6710523,41.5035077],[-81.671063,41.503587],[-81.6710872,41.5036051],[-81.6711113,41.5036101],[-81.6714184,41.503578],[-81.6714251,41.5036111],[-81.6713299,41.5036202],[-81.6713326,41.5036473],[-81.6711314,41.5036734],[-81.6711663,41.5038532],[-81.6711301,41.5038582],[-81.6711489,41.5039476],[-81.671177,41.5039446],[-81.6711864,41.5040008],[-81.6715177,41.5039607],[-81.6715163,41.5039486],[-81.6715593,41.5039436],[-81.6715727,41.5039898],[-81.6717886,41.5039556],[-81.6717926,41.5039717],[-81.671861,41.5039627],[-81.6718583,41.5039496],[-81.6718932,41.5039446],[-81.6718959,41.5039546],[-81.671967,41.5039466],[-81.6719656,41.5039376],[-81.6719978,41.5039345],[-81.6720005,41.5039466],[-81.6720716,41.5039406],[-81.6720702,41.5039255],[-81.6721078,41.5039225],[-81.6721118,41.5039406],[-81.6723049,41.5039205],[-81.6723451,41.5036624],[-81.6724055,41.5036694],[-81.6724015,41.5036945],[-81.6725047,41.5037086],[-81.6725302,41.503573],[-81.6724605,41.503569],[-81.6724699,41.5035238],[-81.6724109,41.5035177],[-81.6723974,41.5034715],[-81.672431,41.5034695],[-81.6724538,41.5034555],[-81.6724672,41.5034354],[-81.6724202,41.5031702],[-81.6724095,41.5031552],[-81.6723867,41.5031451],[-81.6721306,41.5031682],[-81.6721091,41.5030778],[-81.6720662,41.5030818],[-81.6720568,41.5030517],[-81.6720273,41.5030346],[-81.6719924,41.5030376],[-81.6719884,41.5030196],[-81.6719482,41.5030236],[-81.6719643,41.5030909],[-81.6716893,41.503119],[-81.6716732,41.5030376]]]}},{"type":"Feature","id":353120253,"properties":{"osmId":353120253,"category":"academic","building":"university","building:levels":"3","name":"Mather Mansion"},"geometry":{"type":"Polygon","coordinates":[[[-81.6706908,41.5028305],[-81.6707259,41.5030211],[-81.6706814,41.5030257],[-81.6707067,41.5031627],[-81.6707343,41.5031599],[-81.6707466,41.5032262],[-81.6706214,41.5032392],[-81.6706271,41.5032704],[-81.6704806,41.5032856],[-81.6704564,41.5031549],[-81.6704941,41.5031509],[-81.6704762,41.5030543],[-81.6704468,41.5030573],[-81.670433,41.5029831],[-81.6704631,41.5029799],[-81.6704565,41.502944],[-81.6704341,41.5029463],[-81.6704255,41.5029002],[-81.6704555,41.5028971],[-81.6704478,41.5028557],[-81.6706908,41.5028305]]]}},{"type":"Feature","id":353120254,"properties":{"osmId":353120254,"category":"academic","building":"yes","building:levels":"4"},"geometry":{"type":"Polygon","coordinates":[[[-81.6738687,41.5043117],[-81.6738251,41.5040951],[-81.6728764,41.5042022],[-81.672923,41.5044335],[-81.6730252,41.504422],[-81.6730076,41.5043722],[-81.6737593,41.5042889],[-81.6737739,41.5043224],[-81.6738687,41.5043117]]]}},{"type":"Feature","id":353120255,"properties":{"osmId":353120255,"category":"academic","building":"yes","building:levels":"5"},"geometry":{"type":"Polygon","coordinates":[[[-81.6749102,41.5041947],[-81.6748621,41.5039736],[-81.6739378,41.5040863],[-81.6739838,41.5042983],[-81.6740833,41.5042861],[-81.6740737,41.5042723],[-81.6742121,41.5042558],[-81.6747359,41.504193],[-81.6748055,41.5041847],[-81.6748171,41.5042061],[-81.6749102,41.5041947]]]}},{"type":"Feature","id":353120256,"properties":{"osmId":353120256,"category":"academic","building":"yes","building:levels":"4"},"geometry":{"type":"Polygon","coordinates":[[[-81.6754018,41.5042865],[-81.6752221,41.5043056],[-81.6753106,41.5047746],[-81.6754903,41.5047555],[-81.6754018,41.5042865]]]}},{"type":"Feature","id":353120257,"properties":{"osmId":353120257,"category":"academic","building":"yes","building:levels":"4"},"geometry":{"type":"Polygon","coordinates":[[[-81.6760226,41.5040807],[-81.6759752,41.5038498],[-81.6751159,41.5039487],[-81.6751598,41.5041625],[-81.6752435,41.5041529],[-81.6752365,41.5041137],[-81.6759106,41.5040343],[-81.675923,41.5040922],[-81.6760226,41.5040807]]]}},{"type":"Feature","id":353120305,"properties":{"osmId":353120305,"category":"academic","building":"yes","building:levels":"4"},"geometry":{"type":"Polygon","coordinates":[[[-81.6763637,41.5045608],[-81.6760628,41.5041571],[-81.6758978,41.5042261],[-81.6761986,41.5046298],[-81.6763637,41.5045608]]]}},{"type":"Feature","id":353120306,"properties":{"osmId":353120306,"category":"academic","building":"yes","building:levels":"4"},"geometry":{"type":"Polygon","coordinates":[[[-81.6750019,41.5048076],[-81.6748187,41.5048285],[-81.6747246,41.5043661],[-81.6749078,41.5043452],[-81.6750019,41.5048076]]]}},{"type":"Feature","id":353120307,"properties":{"osmId":353120307,"category":"academic","building":"yes","building:levels":"4"},"geometry":{"type":"Polygon","coordinates":[[[-81.6743333,41.5049152],[-81.6742414,41.5044488],[-81.6740555,41.5044694],[-81.6741475,41.5049357],[-81.6743333,41.5049152]]]}},{"type":"Feature","id":353120308,"properties":{"osmId":353120308,"category":"academic","building":"yes","building:levels":"4"},"geometry":{"type":"Polygon","coordinates":[[[-81.6739543,41.5049248],[-81.6738637,41.5044577],[-81.6736841,41.5044772],[-81.6737747,41.5049443],[-81.6739543,41.5049248]]]}},{"type":"Feature","id":353120309,"properties":{"osmId":353120309,"category":"academic","building":"yes","building:levels":"4"},"geometry":{"type":"Polygon","coordinates":[[[-81.6731371,41.5045432],[-81.6729436,41.5045655],[-81.6730373,41.5050231],[-81.6732308,41.5050009],[-81.6731371,41.5045432]]]}},{"type":"Feature","id":353120311,"properties":{"osmId":353120311,"category":"academic","building":"yes"},"geometry":{"type":"Polygon","coordinates":[[[-81.6735725,41.5054982],[-81.6733526,41.5055257],[-81.6732807,41.5052032],[-81.6735006,41.5051757],[-81.6735725,41.5054982]]]}},{"type":"Feature","id":353120409,"properties":{"osmId":353120409,"category":"academic","building":"yes","building:levels":"4","name":"Euclid Commons"},"geometry":{"type":"Polygon","coordinates":[[[-81.6724872,41.5015913],[-81.6725543,41.5015852],[-81.6725918,41.501764],[-81.6723773,41.5017881],[-81.6723343,41.501764],[-81.6722539,41.5013221],[-81.6723102,41.5013181],[-81.6723069,41.5012998],[-81.6723048,41.5012879],[-81.6722807,41.5012899],[-81.672278,41.5012658],[-81.6722405,41.5012759],[-81.6720822,41.500852],[-81.6720339,41.5008701],[-81.6719873,41.5008738],[-81.671932,41.5008781],[-81.671881,41.5008641],[-81.6719427,41.5012598],[-81.6718945,41.5012678],[-81.6719049,41.5013286],[-81.6719079,41.5013462],[-81.6720554,41.5013321],[-81.6721519,41.5018263],[-81.6709369,41.501977],[-81.6708806,41.5019549],[-81.6708725,41.5018625],[-81.6709396,41.5018604],[-81.6709557,41.5018243],[-81.6713231,41.5017841],[-81.671299,41.5016696],[-81.6713956,41.5016596],[-81.6713929,41.5016314],[-81.6714814,41.5016214],[-81.6715055,41.50176],[-81.6719642,41.5017038],[-81.6719293,41.5016837],[-81.6718771,41.5013575],[-81.671873,41.5013321],[-81.6717657,41.5013422],[-81.6716557,41.5008199],[-81.6719517,41.5007869],[-81.6722861,41.5007496],[-81.6723156,41.500854],[-81.6722753,41.5008721],[-81.6724202,41.5012518],[-81.6723692,41.5012678],[-81.6723719,41.501306],[-81.6724309,41.501298],[-81.6724872,41.5015913]]]}},{"type":"Feature","id":363490981,"properties":{"osmId":363490981,"category":"academic","amenity":"parking","building":"parking","name":"Prospect Garage","parking":"multi-storey"},"geometry":{"type":"Polygon","coordinates":[[[-81.6729501,41.5012104],[-81.6728768,41.5008324],[-81.6728621,41.5007269],[-81.672778,41.5007357],[-81.6727711,41.5006939],[-81.6724112,41.5007357],[-81.6724914,41.5011408],[-81.6725168,41.501269],[-81.6729501,41.5012104]]]}},{"type":"Feature","id":363490995,"properties":{"osmId":363490995,"category":"academic","building":"school","building:levels":"3","layer":"-1","name":"NEOMED Campus at CSU, Health /Counseling Services"},"geometry":{"type":"Polygon","coordinates":[[[-81.6750071,41.5012929],[-81.6750119,41.5013195],[-81.6748244,41.5013386],[-81.6748078,41.5012467],[-81.6747936,41.5011683],[-81.6746309,41.5011848],[-81.6745963,41.5009938],[-81.6748774,41.5009653],[-81.6750952,41.5009432],[-81.6750463,41.5006731],[-81.6750996,41.5006677],[-81.675092,41.5006256],[-81.6753783,41.5005965],[-81.6754954,41.5012433],[-81.6750071,41.5012929]]]}},{"type":"Feature","id":387414102,"properties":{"osmId":387414102,"category":"residential","addr:housenumber":"1750","addr:street":"Euclid Avenue","building":"apartments","building:levels":"11","name":"The Edge","note":"imageryisoutdatedhere","roof:shape":"flat"},"geometry":{"type":"Polygon","coordinates":[[[-81.6796053,41.5010334],[-81.6794891,41.5005131],[-81.6792282,41.5005444],[-81.6792987,41.5008857],[-81.6793196,41.5008833],[-81.6793236,41.5009028],[-81.679308,41.5009111],[-81.6792794,41.5009144],[-81.6792743,41.5008897],[-81.6790672,41.5009137],[-81.6789964,41.5005713],[-81.6787784,41.5005965],[-81.6788862,41.5011187],[-81.6796053,41.5010334]]]}},{"type":"Feature","id":392834352,"properties":{"osmId":392834352,"category":"religious","building":"church"},"geometry":{"type":"Polygon","coordinates":[[[-81.6845518,41.5040227],[-81.6843956,41.5041015],[-81.6841413,41.5038187],[-81.6842974,41.5037399],[-81.6845518,41.5040227]]]}},{"type":"Feature","id":417402337,"properties":{"osmId":417402337,"category":"medical","amenity":"clinic","building":"yes","building:levels":"3","name":"Care Alliance"},"geometry":{"type":"Polygon","coordinates":[[[-81.667102,41.496614],[-81.667086,41.496791],[-81.666852,41.496779],[-81.66683,41.496778],[-81.666795,41.496779],[-81.666768,41.496783],[-81.666733,41.49679],[-81.666704,41.496797],[-81.666683,41.496801],[-81.666655,41.4968],[-81.666617,41.496792],[-81.666588,41.49678],[-81.666569,41.496765],[-81.666552,41.496747],[-81.666543,41.496729],[-81.666537,41.49671],[-81.666536,41.496694],[-81.666539,41.49667],[-81.666551,41.496654],[-81.666561,41.496633],[-81.666571,41.496619],[-81.666674,41.496345],[-81.666897,41.496392],[-81.666831,41.496568],[-81.667035,41.496611],[-81.667102,41.496614]]]}},{"type":"Feature","id":443870878,"properties":{"osmId":443870878,"category":"academic","addr:city":"Cleveland","addr:housenumber":"2160","addr:state":"OH","addr:street":"Payne Avenue","amenity":"school","building":"school","name":"Campus International School","note":"imageryisoutdatedhere"},"geometry":{"type":"Polygon","coordinates":[[[-81.6764424,41.5055467],[-81.6762841,41.5051849],[-81.6756779,41.5053562],[-81.6758655,41.50572],[-81.6764424,41.5055467]]]}},{"type":"Feature","id":451583936,"properties":{"osmId":451583936,"category":"academic","building":"yes","name":"Wallingford Building"},"geometry":{"type":"Polygon","coordinates":[[[-81.6719155,41.5068896],[-81.6716816,41.5069532],[-81.6715355,41.5066519],[-81.6717694,41.5065883],[-81.6719155,41.5068896]]]}},{"type":"Feature","id":510784003,"properties":{"osmId":510784003,"category":"academic","building":"yes","building:levels":"3","name":"Parker Hannifin Administration Center"},"geometry":{"type":"Polygon","coordinates":[[[-81.6730414,41.5017272],[-81.6726633,41.501769],[-81.6725948,41.5013585],[-81.6728156,41.5013395],[-81.6728308,41.5013927],[-81.6728891,41.5013927],[-81.6728891,41.5014631],[-81.6729145,41.5014535],[-81.6729551,41.5015068],[-81.6729297,41.5015201],[-81.6730059,41.5016075],[-81.6730287,41.5016208],[-81.6730414,41.5017272]]]}},{"type":"Feature","id":510784004,"properties":{"osmId":510784004,"category":"academic","building":"yes"},"geometry":{"type":"Polygon","coordinates":[[[-81.6734308,41.5016862],[-81.6733728,41.5014239],[-81.6731751,41.5014416],[-81.6732331,41.5017103],[-81.6734308,41.5016862]]]}},{"type":"Feature","id":709805017,"properties":{"osmId":709805017,"category":"religious","amenity":"place_of_worship","building":"church","denomination":"catholic","ele":"195","gnis:feature_id":"1062356","name":"Saint Peters Catholic Church","religion":"christian","wikidata":"Q7591451"},"geometry":{"type":"Polygon","coordinates":[[[-81.6812822,41.5057199],[-81.6813106,41.5057522],[-81.6813831,41.5057166],[-81.6813542,41.5056837],[-81.6814281,41.5056474],[-81.681197,41.5053835],[-81.6811814,41.5053911],[-81.6811482,41.5053532],[-81.6809645,41.5054434],[-81.6809975,41.5054812],[-81.6809722,41.5054936],[-81.6812039,41.5057583],[-81.6812822,41.5057199]]]}},{"type":"Feature","id":717173700,"properties":{"osmId":717173700,"category":"religious","addr:state":"OH","building":"church","ele":"193","gnis:feature_id":"2087981","name":"Josaphat Arts Hall","source":"USGS Geonames","start_date":"1915"},"geometry":{"type":"Polygon","coordinates":[[[-81.6680133,41.5125256],[-81.6682634,41.5128291],[-81.6683718,41.512779],[-81.6683103,41.5127044],[-81.6685866,41.5125767],[-81.6685442,41.5125254],[-81.6685216,41.5125358],[-81.6684634,41.5124653],[-81.6684814,41.512457],[-81.6684489,41.5124175],[-81.6683955,41.5124421],[-81.6684031,41.5124514],[-81.6681832,41.512553],[-81.66812,41.5124763],[-81.6680133,41.5125256]]]}},{"type":"Feature","id":744438530,"properties":{"osmId":744438530,"category":"religious","building":"church"},"geometry":{"type":"Polygon","coordinates":[[[-81.65607,41.497078],[-81.655892,41.497097],[-81.65589,41.497085],[-81.655784,41.497097],[-81.655779,41.497072],[-81.655742,41.497057],[-81.655722,41.497029],[-81.655716,41.496998],[-81.655725,41.496975],[-81.655688,41.496979],[-81.65568,41.496939],[-81.6557154,41.4969349],[-81.655749,41.496931],[-81.655749,41.496927],[-81.655832,41.496917],[-81.655828,41.496898],[-81.655887,41.496891],[-81.655892,41.496914],[-81.65606,41.496895],[-81.656055,41.496867],[-81.656119,41.49686],[-81.656124,41.496885],[-81.656179,41.496879],[-81.656187,41.49692],[-81.656135,41.496926],[-81.656143,41.496942],[-81.656151,41.496942],[-81.656166,41.49695],[-81.656172,41.496982],[-81.656161,41.496994],[-81.656153,41.496995],[-81.656157,41.497012],[-81.656204,41.497007],[-81.656212,41.497048],[-81.656104,41.49706],[-81.656102,41.497052],[-81.656066,41.497056],[-81.65607,41.497078]]]}},{"type":"Feature","id":758396133,"properties":{"osmId":758396133,"category":"library","addr:city":"Cleveland","addr:housenumber":"2200","addr:postcode":"44115","addr:state":"OH","addr:street":"East 30th Street","amenity":"library","building":"yes","ele":"205","gnis:feature_id":"1085004","internet_access":"wlan","internet_access:fee":"no","name":"Sterling Branch","opening_hours":"Mo-Sa 10:00-18:00; PH off","operator":"Cleveland Public Library","operator:short":"CPL","operator:type":"public","operator:wikidata":"Q5132215","phone":"+1-216-623-7074"},"geometry":{"type":"Polygon","coordinates":[[[-81.6668613,41.4976549],[-81.666635,41.4976765],[-81.666594,41.4974357],[-81.6668203,41.4974141],[-81.6668613,41.4976549]]]}},{"type":"Feature","id":795741968,"properties":{"osmId":795741968,"category":"academic","building":"school"},"geometry":{"type":"Polygon","coordinates":[[[-81.665985,41.497764],[-81.665795,41.497786],[-81.665775,41.49769],[-81.665679,41.497701],[-81.665699,41.497797],[-81.66534,41.497838],[-81.665275,41.497519],[-81.665355,41.497509],[-81.66534,41.49744],[-81.665211,41.497455],[-81.665181,41.49731],[-81.665309,41.497295],[-81.665301,41.497257],[-81.665496,41.497234],[-81.665499,41.49725],[-81.665592,41.497239],[-81.665599,41.497274],[-81.6656491,41.497268],[-81.665691,41.497263],[-81.665672,41.49717],[-81.665863,41.497148],[-81.665882,41.497242],[-81.665934,41.497236],[-81.665964,41.497381],[-81.665938,41.497384],[-81.665966,41.497522],[-81.665988,41.497519],[-81.666018,41.497666],[-81.665966,41.497672],[-81.665985,41.497764]]]}},{"type":"Feature","id":796167258,"properties":{"osmId":796167258,"category":"religious","addr:city":"Cleveland","addr:housenumber":"2352","addr:state":"OH","addr:street":"East 40th Street","amenity":"place_of_worship","building":"church","denomination":"baptist","ele":"205","gnis:feature_id":"1084999","name":"Pilgrim Baptist Church","religion":"christian"},"geometry":{"type":"Polygon","coordinates":[[[-81.657467,41.495161],[-81.657411,41.495149],[-81.657395,41.495191],[-81.657131,41.495136],[-81.65717,41.49503],[-81.657432,41.495084],[-81.657431,41.495088],[-81.657489,41.4951],[-81.657467,41.495161]]]}},{"type":"Feature","id":796167259,"properties":{"osmId":796167259,"category":"religious","amenity":"place_of_worship","building":"church","denomination":"jehovahs_witness","ele":"205","gnis:feature_id":"1084987","name":"Kingdom Hall of Jehovahs Witnesses","religion":"christian"},"geometry":{"type":"Polygon","coordinates":[[[-81.65758,41.495997],[-81.657535,41.495988],[-81.657517,41.49604],[-81.657432,41.496023],[-81.65745,41.49597],[-81.657252,41.49593],[-81.657301,41.495791],[-81.657631,41.495857],[-81.657616,41.495902],[-81.657631,41.495905],[-81.657612,41.495957],[-81.657596,41.495954],[-81.65758,41.495997]]]}},{"type":"Feature","id":796167281,"properties":{"osmId":796167281,"category":"religious","amenity":"place_of_worship","building":"yes","denomination":"baptist","ele":"206","gnis:feature_id":"1073062","name":"Mount Hermon Baptist Church","religion":"christian"},"geometry":{"type":"Polygon","coordinates":[[[-81.658954,41.491664],[-81.658679,41.491611],[-81.658645,41.49171],[-81.658555,41.491692],[-81.658569,41.49165],[-81.658548,41.491646],[-81.658547,41.491649],[-81.658487,41.491637],[-81.658502,41.491593],[-81.658585,41.491609],[-81.658591,41.491591],[-81.658555,41.491584],[-81.658567,41.491549],[-81.65854,41.491544],[-81.658572,41.491449],[-81.658442,41.491424],[-81.658451,41.491398],[-81.658581,41.491423],[-81.658576,41.491437],[-81.658604,41.491442],[-81.658605,41.49144],[-81.659005,41.491518],[-81.658954,41.491664]]]}},{"type":"Feature","id":954820248,"properties":{"osmId":954820248,"category":"academic","building":"university","name":"Gill And Tommy LiPuma Center for Creative Arts"},"geometry":{"type":"Polygon","coordinates":[[[-81.6702235,41.4920254],[-81.6700003,41.49198],[-81.6699794,41.4920312],[-81.669941,41.4920234],[-81.6699324,41.4920494],[-81.669734,41.4920084],[-81.6697007,41.4920015],[-81.6697288,41.4919242],[-81.6694042,41.4918561],[-81.6693111,41.4921019],[-81.6696069,41.4921644],[-81.6695952,41.4921965],[-81.6697655,41.4922327],[-81.6697805,41.4921998],[-81.6701324,41.4922722],[-81.6702235,41.4920254]]]}},{"type":"Feature","id":954820249,"properties":{"osmId":954820249,"category":"academic","building":"university","name":"Health Careers and Sciences"},"geometry":{"type":"Polygon","coordinates":[[[-81.6706296,41.4937464],[-81.6704091,41.4936973],[-81.6703975,41.4937254],[-81.6702944,41.4937027],[-81.6702155,41.4939095],[-81.6696367,41.4937939],[-81.6696431,41.4937763],[-81.6695934,41.4937662],[-81.6695889,41.4937837],[-81.6694608,41.493756],[-81.6694341,41.4938301],[-81.6693519,41.4940594],[-81.6693156,41.4941588],[-81.6694437,41.4941838],[-81.6694383,41.494198],[-81.6694843,41.4942088],[-81.6694924,41.4941973],[-81.670105,41.494323],[-81.6701005,41.4943358],[-81.670151,41.4943453],[-81.6701564,41.4943304],[-81.6702809,41.4943575],[-81.6702935,41.4943217],[-81.6704081,41.4943453],[-81.6706296,41.4937464]]]}},{"type":"Feature","id":954820250,"properties":{"osmId":954820250,"category":"academic","building":"university","name":"Technology Learning Center"},"geometry":{"type":"Polygon","coordinates":[[[-81.6693519,41.4940594],[-81.6693279,41.4940542],[-81.6693221,41.4940705],[-81.6692502,41.4940562],[-81.6692421,41.4940758],[-81.6690206,41.4940296],[-81.6690274,41.4940097],[-81.6688715,41.4939786],[-81.6689321,41.4938075],[-81.6689245,41.4938058],[-81.6689461,41.4937495],[-81.6689545,41.4937501],[-81.6690152,41.4935799],[-81.6692321,41.4936262],[-81.6692135,41.4936791],[-81.669379,41.4937129],[-81.6693443,41.4938101],[-81.6694341,41.4938301],[-81.6693519,41.4940594]]]}},{"type":"Feature","id":968312893,"properties":{"osmId":968312893,"category":"residential","building":"house"},"geometry":{"type":"Polygon","coordinates":[[[-81.671428,41.506557],[-81.671352,41.506314],[-81.671678,41.506279],[-81.671722,41.506479],[-81.671428,41.506557]]]}}]}