{"type":"FeatureCollection","features":[{"type":"Feature","id":27329874,"properties":{"osmId":27329874,"category":"medical","addr:city":"Durham","addr:housenumber":"2213","addr:postcode":"27705","addr:street":"Elba Street","amenity":"clinic","building":"yes","healthcare":"clinic","healthcare:speciality":"psychiatry","name":"Duke Psychiatry","_wikiTried":true},"geometry":{"type":"Polygon","coordinates":[[[-78.9350588,36.0090537],[-78.9345052,36.0090558],[-78.9345036,36.008778],[-78.9350572,36.0087759],[-78.9350588,36.0090537]]]}},{"type":"Feature","id":27331214,"properties":{"osmId":27331214,"category":"medical","addr:city":"Durham","addr:housenumber":"2308","addr:postcode":"27705","addr:state":"NC","addr:street":"Erwin Road","building":"hospital","name":"Durham VA Health Care System","source:addr":"Durham Open Data","_wikiTried":true},"geometry":{"type":"Polygon","coordinates":[[[-78.9395047,36.0089317],[-78.9394228,36.0091396],[-78.939176,36.0090735],[-78.9390561,36.0093644],[-78.9392412,36.0094142],[-78.9392513,36.0093894],[-78.9393276,36.0094098],[-78.9393169,36.009436],[-78.9393855,36.0094543],[-78.9392907,36.0096879],[-78.9392407,36.0096746],[-78.9392458,36.0096621],[-78.9387835,36.0095407],[-78.9387596,36.0096004],[-78.9386769,36.0098065],[-78.9388703,36.0098572],[-78.938806,36.0100176],[-78.938544,36.009949],[-78.9384399,36.010209],[-78.9381248,36.0101264],[-78.9379883,36.010467],[-78.937891,36.0104415],[-78.9378859,36.010425],[-78.937891,36.0104121],[-78.9378379,36.0103985],[-78.9379914,36.0100075],[-78.9376263,36.0099137],[-78.9375178,36.0098859],[-78.9375322,36.0098491],[-78.9375382,36.009834],[-78.9375621,36.0098248],[-78.9375831,36.0098301],[-78.9376053,36.0097728],[-78.9381933,36.0099215],[-78.9381816,36.0099517],[-78.9383082,36.0099837],[-78.9383477,36.0098817],[-78.9382004,36.0098444],[-78.9382512,36.009713],[-78.9384609,36.009766],[-78.9385149,36.0096263],[-78.9384949,36.0096212],[-78.9385103,36.0095815],[-78.938455,36.0095675],[-78.9384065,36.0095881],[-78.9383556,36.0095095],[-78.9384048,36.0094887],[-78.9384196,36.0094509],[-78.9383133,36.0094237],[-78.9382444,36.0096004],[-78.9382283,36.00961],[-78.9379199,36.0095343],[-78.9379102,36.0095185],[-78.9383192,36.0085267],[-78.9392907,36.0087889],[-78.939262,36.0088732],[-78.9395047,36.0089317]]]}},{"type":"Feature","id":27331582,"properties":{"osmId":27331582,"category":"medical","addr:city":"Durham","addr:housenumber":"2100","addr:postcode":"27705","addr:state":"NC","addr:street":"Erwin Road","amenity":"clinic","building":"yes","name":"Pickens Building","source:addr":"Durham Open Data","_wikiTried":true},"geometry":{"type":"Polygon","coordinates":[[[-78.9335383,36.0082373],[-78.9328513,36.0081833],[-78.9328757,36.0079795],[-78.9335627,36.0080335],[-78.9335383,36.0082373]]]}},{"type":"Feature","id":27331652,"properties":{"osmId":27331652,"category":"other","addr:city":"Durham","addr:housenumber":"307","addr:postcode":"27705","addr:state":"NC","addr:street":"Trent Drive","amenity":"university","building":"yes","name":"School of Nursing","source:addr":"Durham Open Data","_wikiTried":true},"geometry":{"type":"Polygon","coordinates":[[[-78.9356759,36.0061992],[-78.9355029,36.0065681],[-78.9354198,36.0067319],[-78.9352508,36.006682],[-78.9352597,36.0066632],[-78.93524,36.0066587],[-78.9352203,36.0066543],[-78.9348659,36.0065898],[-78.9349048,36.0064216],[-78.9349732,36.0064325],[-78.9349732,36.0064509],[-78.9351529,36.0064694],[-78.9352548,36.0062415],[-78.9349947,36.0061178],[-78.935047,36.0060321],[-78.9349705,36.0059887],[-78.9350148,36.005928],[-78.9354828,36.006145],[-78.9356759,36.0061992]]]}},{"type":"Feature","id":27458925,"properties":{"osmId":27458925,"category":"other","access":"yes","addr:city":"Durham","addr:housenumber":"135","addr:postcode":"27705","addr:state":"NC","addr:street":"Science Drive","amenity":"parking","building":"yes","capacity":"350","fee":"yes","maxstay":"1 day","name":"Bryan Center Parking Garage","operator":"Duke University","park_ride":"no","parking":"multi-storey","ref":"Parking Garage IV","source:addr":"Durham Open Data","surface":"concrete","_wikiTried":true},"geometry":{"type":"Polygon","coordinates":[[[-78.9421696,36.002005],[-78.942623,36.0014348],[-78.9421902,36.0012096],[-78.9421004,36.0011628],[-78.941647,36.001733],[-78.9421027,36.0019629],[-78.9421696,36.002005]]]}},{"type":"Feature","id":28000635,"properties":{"osmId":28000635,"category":"religious","addr:city":"Durham","addr:country":"US","addr:housenumber":"1902","addr:postcode":"27705","addr:state":"NC","addr:street":"Perry Street","amenity":"place_of_worship","building":"yes","denomination":"presbyterian","name":"Blacknall Memorial Presbyterian Church","religion":"christian","source:addr":"Durham Open Data","survey:date":"2014-06-01","_wikiTried":true},"geometry":{"type":"Polygon","coordinates":[[[-78.9213101,36.0078605],[-78.9212997,36.0079771],[-78.9213688,36.007981],[-78.9213593,36.0080489],[-78.9213039,36.0080428],[-78.9212938,36.0081741],[-78.9210238,36.0081585],[-78.9210762,36.0077229],[-78.9212759,36.0077422],[-78.9212738,36.0077637],[-78.9214329,36.0077765],[-78.9214436,36.00769],[-78.9215754,36.0077011],[-78.9215567,36.0078435],[-78.9215527,36.0078808],[-78.9214953,36.0078762],[-78.9214924,36.0078998],[-78.9214163,36.0078936],[-78.9214193,36.0078693],[-78.9213101,36.0078605]]]}},{"type":"Feature","id":29020343,"properties":{"osmId":29020343,"category":"medical","amenity":"clinic","building":"yes","healthcare":"clinic","healthcare:speciality":"paediatrics","name":"McGovern-Davison Children's Health Center","phone":"+1 919 668 4000","_wikiTried":true},"geometry":{"type":"Polygon","coordinates":[[[-78.9369006,36.0075598],[-78.9367649,36.0075962],[-78.9367649,36.0076287],[-78.9367917,36.0076438],[-78.9368024,36.0076807],[-78.9367917,36.0077068],[-78.9367514,36.0077177],[-78.9367514,36.0077632],[-78.9362204,36.0077459],[-78.936156,36.0077719],[-78.9360836,36.0076569],[-78.9361399,36.0076287],[-78.9360697,36.0075015],[-78.9367407,36.007301],[-78.9369006,36.0075598]]]}},{"type":"Feature","id":29031538,"properties":{"osmId":29031538,"category":"medical","addr:city":"Durham","addr:housenumber":"2351","addr:postcode":"27705","addr:street":"Erwin Road","amenity":"clinic","building":"yes","healthcare":"clinic","healthcare:speciality":"ophthalmology","name":"Duke Eye Center","opening_hours":"Mo-Fr 08:00-17:00","phone":"+1 919 681 3937","website":"https://www.dukehealth.org/locations/duke-eye-center","_wikiTried":true},"geometry":{"type":"Polygon","coordinates":[[[-78.9386659,36.007641],[-78.9386495,36.0076464],[-78.9386571,36.0076614],[-78.9386924,36.0077318],[-78.9386848,36.0077343],[-78.938668,36.0077006],[-78.9386281,36.0077137],[-78.9386664,36.00779],[-78.9386962,36.0077802],[-78.9387166,36.0078209],[-78.938667,36.0078372],[-78.9387473,36.0079975],[-78.9388811,36.0079535],[-78.9392359,36.0078371],[-78.939239,36.0078122],[-78.939328,36.007783],[-78.9393519,36.007799],[-78.9393746,36.0077915],[-78.9393785,36.0077664],[-78.9394498,36.007743],[-78.9394666,36.0077375],[-78.9394902,36.0077536],[-78.9395083,36.0077476],[-78.9395128,36.0077223],[-78.9395936,36.0076957],[-78.9396165,36.0077121],[-78.9396402,36.0077043],[-78.9396448,36.007679],[-78.9397397,36.0076478],[-78.9397638,36.0076638],[-78.939782,36.0076578],[-78.9397717,36.0076373],[-78.9396869,36.0074683],[-78.9396773,36.0074491],[-78.939658,36.0074554],[-78.9396541,36.0074791],[-78.9395678,36.0075074],[-78.9395449,36.0074925],[-78.9395219,36.0075001],[-78.9395195,36.0075233],[-78.9394308,36.0075524],[-78.9394083,36.0075374],[-78.9393824,36.0075459],[-78.9393821,36.0075684],[-78.9392921,36.0075979],[-78.9392825,36.0075787],[-78.9393256,36.0075645],[-78.939258,36.0074297],[-78.9394498,36.0073668],[-78.93956,36.0073306],[-78.9394638,36.0071388],[-78.9394899,36.0071302],[-78.9394679,36.0070864],[-78.9391537,36.0071895],[-78.9391394,36.0071608],[-78.9389695,36.0072166],[-78.9391045,36.0074858],[-78.9390744,36.0074957],[-78.9390793,36.0075053],[-78.9390526,36.0075141],[-78.9390542,36.0075311],[-78.9389572,36.0075629],[-78.9389448,36.0075495],[-78.938915,36.0075593],[-78.9389156,36.0075766],[-78.9388218,36.0076074],[-78.938806,36.007595],[-78.9387811,36.0076032],[-78.9387786,36.0076216],[-78.9386837,36.0076527],[-78.9386659,36.007641]]]}},{"type":"Feature","id":30424777,"properties":{"osmId":30424777,"category":"other","addr:city":"Durham","addr:housenumber":"2001","addr:postcode":"27705","addr:state":"NC","addr:street":"Campus Drive","building":"yes","name":"Nasher Museum of Art","operator":"Duke University","phone":"+1-919-684-5135","tourism":"museum","website":"https://nasher.duke.edu/","wikidata":"Q6966836","wikipedia":"en:Nasher Museum of Art","_wikiTried":true},"geometry":{"type":"Polygon","coordinates":[[[-78.9294991,35.9989544],[-78.9295162,35.9990863],[-78.9294132,35.9990932],[-78.9293875,35.9991905],[-78.9293016,35.9992043],[-78.929415,35.9993411],[-78.9292305,35.9994378],[-78.9291333,35.9993215],[-78.9289901,35.9993337],[-78.9289285,35.9994073],[-78.9286909,35.9992865],[-78.928767,35.9991882],[-78.9287534,35.999182],[-78.9287266,35.9991696],[-78.9287325,35.9991462],[-78.9287526,35.9990987],[-78.9285124,35.9990181],[-78.9286011,35.9988461],[-78.9287698,35.9989018],[-78.9288811,35.9988571],[-78.9289669,35.998871],[-78.9290098,35.9986835],[-78.9292845,35.9987183],[-78.9292587,35.9988641],[-78.9293446,35.9989058],[-78.9293531,35.9989613],[-78.9294991,35.9989544]]]}},{"type":"Feature","id":31004008,"properties":{"osmId":31004008,"category":"academic","addr:city":"Durham","addr:housenumber":"402","addr:postcode":"27705","addr:state":"NC","addr:street":"Chapel Drive","building":"university","name":"Flowers Building","source:addr":"Durham Open Data","_wikiTried":true},"geometry":{"type":"Polygon","coordinates":[[[-78.9401882,36.0010122],[-78.9399964,36.0012868],[-78.9400425,36.0013079],[-78.9400715,36.0013211],[-78.940042,36.0013633],[-78.9400804,36.0013809],[-78.9399998,36.0014962],[-78.9398801,36.0014415],[-78.9399126,36.0013949],[-78.9396073,36.0012553],[-78.9395887,36.0012819],[-78.9395084,36.0012452],[-78.9396014,36.0011121],[-78.9396495,36.001134],[-78.9396409,36.0011464],[-78.9397792,36.0012097],[-78.9399829,36.0009183],[-78.9401882,36.0010122]]]}},{"type":"Feature","id":32684251,"properties":{"osmId":32684251,"category":"medical","addr:city":"Durham","addr:housenumber":"40","addr:postcode":"27710","addr:street":"Duke Medicine Circle","amenity":"clinic","building":"yes","name":"Duke Clinic","phone":"+1 919 684 8111","website":"https://www.dukehealth.org/locations/duke-clinic","_wikiTried":true},"geometry":{"type":"Polygon","coordinates":[[[-78.9361587,36.004135],[-78.9355836,36.0043156],[-78.9356089,36.0043564],[-78.9356266,36.004385],[-78.9359699,36.0045378],[-78.93613,36.0048277],[-78.9361501,36.0048641],[-78.9362081,36.0048451],[-78.9362891,36.0048204],[-78.9362649,36.0047796],[-78.9364523,36.0047123],[-78.9364421,36.0046823],[-78.9362418,36.0043041],[-78.9362074,36.0042313],[-78.9361587,36.004135]]]}},{"type":"Feature","id":32684295,"properties":{"osmId":32684295,"category":"medical","addr:city":"Durham","addr:housenumber":"20","addr:postcode":"27710","addr:street":"Duke Medicine Circle","amenity":"clinic","building":"yes","healthcare":"clinic","healthcare:speciality":"oncology","name":"Duke Cancer Center","phone":"+1 919 613 1909","website":"https://www.dukehealth.org/locations/duke-cancer-center","_wikiTried":true},"geometry":{"type":"Polygon","coordinates":[[[-78.9364761,36.0055151],[-78.9371527,36.0052866],[-78.9371598,36.0052832],[-78.9372109,36.005267],[-78.9372,36.0052316],[-78.9372837,36.0051895],[-78.9372752,36.0051698],[-78.9373225,36.0051581],[-78.9373031,36.0051159],[-78.9373164,36.0050943],[-78.9372885,36.0050384],[-78.9373589,36.0050158],[-78.9373006,36.0048991],[-78.9373601,36.0048775],[-78.9373977,36.0048216],[-78.9373783,36.0047775],[-78.9374668,36.0047461],[-78.9375749,36.0044475],[-78.9375663,36.0044128],[-78.9372852,36.0044999],[-78.9372798,36.004528],[-78.9370519,36.0045953],[-78.937006,36.0045724],[-78.936641,36.0046833],[-78.9366167,36.0046234],[-78.9364421,36.0046823],[-78.9364523,36.0047123],[-78.9362649,36.0047796],[-78.9362891,36.0048204],[-78.9362081,36.0048451],[-78.9364603,36.0054259],[-78.9364773,36.005419],[-78.9364858,36.0054367],[-78.9364433,36.0054504],[-78.9364761,36.0055151]]]}},{"type":"Feature","id":32685403,"properties":{"osmId":32685403,"category":"academic","addr:city":"Durham","addr:housenumber":"100","addr:postcode":"27705","addr:state":"NC","addr:street":"Fuqua Drive","building":"university","name":"Fuqua School of Business","source:addr":"Durham Open Data","_wikiTried":true},"geometry":{"type":"Polygon","coordinates":[[[-78.9486395,35.9987052],[-78.9484732,35.99874],[-78.9485457,35.9990286],[-78.9480924,35.9991045],[-78.9479495,35.9986232],[-78.9475648,35.9986939],[-78.947351,35.9985687],[-78.9473221,35.9985607],[-78.947172,35.9987458],[-78.9469469,35.9986245],[-78.9467883,35.9985434],[-78.9467234,35.9985102],[-78.9466878,35.998492],[-78.9466608,35.9984782],[-78.9460232,35.9981522],[-78.9456896,35.9985869],[-78.9471054,35.9993426],[-78.9472301,35.9994091],[-78.9472988,35.999305],[-78.9475133,35.9992702],[-78.9475391,35.9993397],[-78.9487321,35.9991383],[-78.9486395,35.9987052]]]}},{"type":"Feature","id":32685410,"properties":{"osmId":32685410,"category":"academic","addr:city":"Durham","addr:housenumber":"140","addr:postcode":"27705","addr:state":"NC","addr:street":"Science Drive","building":"university","name":"Paul M. Gross Hall","source:addr":"Durham Open Data","_wikiTried":true},"geometry":{"type":"Polygon","coordinates":[[[-78.9452564,36.0010678],[-78.9451937,36.0011447],[-78.9452723,36.0011867],[-78.9452452,36.0012199],[-78.9452061,36.001199],[-78.9450966,36.0013334],[-78.9451317,36.0013521],[-78.9451079,36.0013813],[-78.9450687,36.0013604],[-78.9449556,36.001499],[-78.9449909,36.0015179],[-78.9449707,36.0015427],[-78.9449313,36.0015217],[-78.9448226,36.0016551],[-78.9448581,36.001674],[-78.9448309,36.0017074],[-78.9447533,36.0016659],[-78.9446941,36.0017385],[-78.9442963,36.0015262],[-78.9443583,36.0014502],[-78.9442721,36.0014042],[-78.9443015,36.0013682],[-78.9443582,36.0013985],[-78.9444631,36.0012699],[-78.9444107,36.0012419],[-78.9444339,36.0012134],[-78.9444848,36.0012406],[-78.9445935,36.0011073],[-78.944547,36.0010824],[-78.9445757,36.0010473],[-78.9446206,36.0010713],[-78.9447297,36.0009375],[-78.9446892,36.0009159],[-78.9447166,36.0008823],[-78.9447956,36.0009245],[-78.944854,36.0008529],[-78.9452564,36.0010678]]]}},{"type":"Feature","id":32685583,"properties":{"osmId":32685583,"category":"academic","addr:city":"Durham","addr:housenumber":"136","addr:postcode":"27705","addr:state":"NC","addr:street":"Science Drive","building":"university","name":"Biological Sciences Greenhouses","source:addr":"Durham Open Data","_wikiTried":true},"geometry":{"type":"Polygon","coordinates":[[[-78.9445051,36.0022064],[-78.9446104,36.0023962],[-78.9445929,36.0024082],[-78.9446063,36.002432],[-78.9442027,36.0029094],[-78.9443368,36.0032251],[-78.9437758,36.0034106],[-78.9437496,36.0033631],[-78.9437119,36.0033758],[-78.943655,36.0032659],[-78.9436968,36.0032523],[-78.9436654,36.0031954],[-78.9437816,36.0031597],[-78.9437053,36.0030236],[-78.9441276,36.0028812],[-78.9441383,36.0029007],[-78.9441839,36.0028812],[-78.9440958,36.0026945],[-78.9441916,36.0026659],[-78.9441138,36.0025127],[-78.9442021,36.0024831],[-78.9441779,36.0024402],[-78.9443448,36.0023837],[-78.9444263,36.0025141],[-78.9444739,36.0024972],[-78.9443428,36.0022628],[-78.9445051,36.0022064]]]}},{"type":"Feature","id":32921856,"properties":{"osmId":32921856,"category":"academic","addr:city":"Durham","addr:housenumber":"124","addr:postcode":"27705","addr:state":"NC","addr:street":"Science Drive","building":"university","name":"French Family Science Center","source:addr":"Durham Open Data","_wikiTried":true},"geometry":{"type":"Polygon","coordinates":[[[-78.9435826,36.0030846],[-78.9436883,36.0029186],[-78.9436715,36.0029105],[-78.9441758,36.0022423],[-78.9438442,36.0020751],[-78.9436966,36.0022546],[-78.9435944,36.0021991],[-78.9435178,36.0022828],[-78.9436281,36.0023434],[-78.9436095,36.0023659],[-78.9435863,36.0023509],[-78.9435556,36.0023984],[-78.9434888,36.0024701],[-78.9433495,36.0026511],[-78.9432349,36.0025924],[-78.9431718,36.0026603],[-78.9433116,36.0027363],[-78.9432593,36.0028048],[-78.943243,36.0028081],[-78.9432082,36.0028503],[-78.9432163,36.0028616],[-78.9431728,36.0029476],[-78.9431948,36.0029608],[-78.9431658,36.0029861],[-78.9430609,36.003177],[-78.942992,36.0033015],[-78.9429417,36.0033955],[-78.943074,36.0034419],[-78.9431031,36.003394],[-78.9432018,36.0034311],[-78.9431879,36.003464],[-78.9433214,36.0035077],[-78.9435826,36.0030846]]]}},{"type":"Feature","id":36884302,"properties":{"osmId":36884302,"category":"academic","addr:city":"Durham","addr:housenumber":"201","addr:postcode":"27705","addr:state":"NC","addr:street":"Science Drive","building":"university","name":"Sanford School of Public Policy","source:addr":"Durham Open Data","_wikiTried":true},"geometry":{"type":"Polygon","coordinates":[[[-78.9435197,35.9995713],[-78.943841,35.9991799],[-78.9439096,35.9992103],[-78.9440696,35.9992814],[-78.9441061,35.9992322],[-78.9440797,35.9992059],[-78.9440954,35.9991639],[-78.9441408,35.9991447],[-78.9441705,35.9991694],[-78.9442052,35.9991266],[-78.9442547,35.9991386],[-78.9443017,35.9991823],[-78.9440648,35.999466],[-78.9440985,35.9994882],[-78.9440516,35.9995488],[-78.944007,35.9995408],[-78.9439661,35.9995864],[-78.943892,35.9995579],[-78.9438723,35.9995818],[-78.943793,35.9995392],[-78.9438174,35.9995095],[-78.9437539,35.9994754],[-78.9437171,35.9995202],[-78.9437517,35.9995388],[-78.943697,35.9996054],[-78.9436503,35.9995803],[-78.9436155,35.9996228],[-78.9435197,35.9995713]]]}},{"type":"Feature","id":36884310,"properties":{"osmId":36884310,"category":"academic","addr:city":"Durham","addr:housenumber":"302","addr:postcode":"27705","addr:state":"NC","addr:street":"Towerview Drive","building":"university","name":"Rubenstein Hall","source:addr":"Durham Open Data","_wikiTried":true},"geometry":{"type":"Polygon","coordinates":[[[-78.9431674,35.9993784],[-78.9427878,35.9991845],[-78.9426934,35.9991984],[-78.9426797,35.9991905],[-78.9426333,35.9991637],[-78.9428736,35.9988581],[-78.9432598,35.9990595],[-78.9433199,35.9989901],[-78.9433886,35.9990248],[-78.9433628,35.9990456],[-78.9434157,35.9990686],[-78.9431674,35.9993784]]]}},{"type":"Feature","id":36884323,"properties":{"osmId":36884323,"category":"athletic","addr:city":"Durham","addr:housenumber":"320","addr:postcode":"27705","addr:state":"NC","addr:street":"Towerview Drive","building":"yes","leisure":"sports_centre","name":"Card Gymnasium","source:addr":"Durham Open Data","wikidata":"Q5038194","_wikiTried":true},"geometry":{"type":"Polygon","coordinates":[[[-78.9412796,35.997163],[-78.9417707,35.9973935],[-78.9416275,35.9975932],[-78.9415401,35.9975522],[-78.9415178,35.9975833],[-78.9411141,35.9973938],[-78.9411648,35.9973271],[-78.9412305,35.9972328],[-78.9412796,35.997163]]]}},{"type":"Feature","id":36884382,"properties":{"osmId":36884382,"category":"athletic","addr:city":"Durham","addr:housenumber":"204","addr:postcode":"27705","addr:state":"NC","addr:street":"Wannamaker Drive","building":"yes","leisure":"sports_centre","name":"Sheffield Tennis Center","source:addr":"Durham Open Data","_wikiTried":true},"geometry":{"type":"Polygon","coordinates":[[[-78.9397838,35.9972906],[-78.9393461,35.9973948],[-78.9390285,35.9965407],[-78.9394748,35.9964365],[-78.9396375,35.9968861],[-78.9397716,35.9968611],[-78.9397887,35.9968333],[-78.939866,35.996875],[-78.9397372,35.9970486],[-78.9397029,35.9970347],[-78.9397838,35.9972906]]]}},{"type":"Feature","id":36884389,"properties":{"osmId":36884389,"category":"athletic","addr:city":"Durham","addr:housenumber":"208","addr:postcode":"27705","addr:state":"NC","addr:street":"Wannamaker Drive","building":"yes","leisure":"sports_centre","name":"Intramural Building","source:addr":"Durham Open Data","_wikiTried":true},"geometry":{"type":"Polygon","coordinates":[[[-78.940045,35.9967659],[-78.9395645,35.9965422],[-78.9397216,35.9963213],[-78.9402016,35.9965446],[-78.9401715,35.9965869],[-78.9402443,35.9966208],[-78.9401601,35.9967391],[-78.9400879,35.9967055],[-78.940045,35.9967659]]]}},{"type":"Feature","id":36884459,"properties":{"osmId":36884459,"category":"athletic","addr:city":"Durham","addr:housenumber":"326","addr:postcode":"27705","addr:state":"NC","addr:street":"Towerview Drive","building":"yes","leisure":"sports_centre","name":"Wilson Recreation Center","source:addr":"Durham Open Data","_wikiTried":true},"geometry":{"type":"Polygon","coordinates":[[[-78.940581,35.9970663],[-78.9405432,35.9971206],[-78.9401738,35.9969522],[-78.9404651,35.9965339],[-78.9408204,35.9966958],[-78.9409659,35.9964869],[-78.9409934,35.9964995],[-78.9410659,35.9963954],[-78.9415239,35.9966044],[-78.9413819,35.9968081],[-78.9414758,35.996851],[-78.9413862,35.9969795],[-78.9413004,35.9969404],[-78.941256,35.9970041],[-78.9412324,35.9969933],[-78.9411901,35.997054],[-78.9412523,35.9970824],[-78.9412107,35.9971421],[-78.941172,35.9971245],[-78.9411288,35.9971865],[-78.9412305,35.9972328],[-78.9411648,35.9973271],[-78.9410692,35.9972835],[-78.9410171,35.9973583],[-78.94088,35.9972959],[-78.9409293,35.9972251],[-78.940581,35.9970663]]]}},{"type":"Feature","id":37107072,"properties":{"osmId":37107072,"category":"residential","addr:city":"Durham","addr:housenumber":"423","addr:postcode":"27705","addr:state":"NC","addr:street":"Towerview Drive","building":"dormitory","name":"Edens Quad 1C","source:addr":"Durham Open Data","_wikiTried":true},"geometry":{"type":"Polygon","coordinates":[[[-78.9368758,35.9986966],[-78.9367726,35.9988173],[-78.9366942,35.9987734],[-78.9366581,35.9988156],[-78.9367402,35.9988615],[-78.9366391,35.9989796],[-78.9365461,35.9989275],[-78.9365217,35.998956],[-78.9364889,35.9989377],[-78.9365167,35.9989051],[-78.9365035,35.9988977],[-78.9366034,35.9987808],[-78.9366249,35.9987556],[-78.9366049,35.9987445],[-78.9366296,35.9987156],[-78.9366468,35.9987252],[-78.9367358,35.998621],[-78.9367026,35.9986024],[-78.936724,35.9985776],[-78.9367917,35.9986172],[-78.9367735,35.9986394],[-78.9368363,35.9986746],[-78.9368758,35.9986966]]]}},{"type":"Feature","id":39800173,"properties":{"osmId":39800173,"category":"academic","addr:city":"Durham","addr:housenumber":"308","addr:postcode":"27705","addr:state":"NC","addr:street":"Research Drive","building":"university","name":"Levine Science Research Center","source:addr":"Durham Open Data","_wikiTried":true},"geometry":{"type":"Polygon","coordinates":[[[-78.9405545,36.005129],[-78.9406143,36.0051077],[-78.9406363,36.0051494],[-78.9409629,36.0050184],[-78.94094,36.0049805],[-78.9409858,36.0049573],[-78.9410247,36.0050129],[-78.9417973,36.0047064],[-78.9417847,36.0046879],[-78.941826,36.0046718],[-78.9418501,36.0046624],[-78.9420332,36.0049629],[-78.9423193,36.0048559],[-78.9420925,36.0045027],[-78.94212,36.0044916],[-78.9421464,36.004538],[-78.9423736,36.0044453],[-78.9423495,36.0044203],[-78.9423695,36.004424],[-78.942421,36.0043926],[-78.9424479,36.0043731],[-78.9424673,36.0043893],[-78.9426488,36.0042403],[-78.9425962,36.0042181],[-78.9426468,36.004149],[-78.9426957,36.0041773],[-78.942805,36.0039959],[-78.9426419,36.003937],[-78.9426602,36.0038991],[-78.9425389,36.0038565],[-78.942484,36.0039116],[-78.9423959,36.0040713],[-78.9423455,36.0041157],[-78.9422951,36.0040768],[-78.9422333,36.0041259],[-78.9422832,36.0041625],[-78.9422058,36.0042296],[-78.9419942,36.004312],[-78.9418105,36.0040292],[-78.941724,36.004062],[-78.9416885,36.004],[-78.9415649,36.0040509],[-78.9415317,36.0039972],[-78.9414677,36.0040199],[-78.9417379,36.0044453],[-78.9417195,36.0044595],[-78.9416496,36.0044787],[-78.9416359,36.0044592],[-78.9413006,36.0045972],[-78.9412894,36.0045811],[-78.9412662,36.0045444],[-78.9412302,36.0045588],[-78.9411872,36.0045759],[-78.9412113,36.0046161],[-78.9412204,36.0046314],[-78.9408908,36.0047629],[-78.9409297,36.0048212],[-78.9408496,36.0048518],[-78.940813,36.0047944],[-78.9405131,36.0049231],[-78.9405033,36.0049046],[-78.9404822,36.0048647],[-78.9404529,36.004877],[-78.9404103,36.0048948],[-78.9405545,36.005129]]]}},{"type":"Feature","id":40017631,"properties":{"osmId":40017631,"category":"academic","addr:city":"Durham","addr:housenumber":"101","addr:postcode":"27705","addr:state":"NC","addr:street":"Science Drive","building":"university","name":"Fitzpatrick Center for Interdisciplinary Engineering, Medicine and Applied Sciences (FCIEMAS)","source:addr":"Durham Open Data","_wikiTried":true},"geometry":{"type":"Polygon","coordinates":[[[-78.9393306,36.003568],[-78.938922,36.0033835],[-78.9389897,36.0032853],[-78.9389703,36.0032766],[-78.9391101,36.0030738],[-78.9392003,36.0031146],[-78.9391932,36.0031249],[-78.9396016,36.0033093],[-78.9396602,36.0032149],[-78.9395062,36.0031459],[-78.9395492,36.0030765],[-78.9395234,36.0030695],[-78.9396007,36.0029654],[-78.9396264,36.0029723],[-78.9396693,36.0029098],[-78.9401242,36.0031112],[-78.9401071,36.003132],[-78.9401328,36.0031876],[-78.9402358,36.0031667],[-78.940253,36.0032014],[-78.9403045,36.0031876],[-78.9402873,36.0031459],[-78.9409053,36.003014],[-78.9409225,36.0030695],[-78.9409568,36.0030626],[-78.9410083,36.0031945],[-78.9409825,36.0032014],[-78.9410083,36.003257],[-78.9409167,36.0032779],[-78.940356,36.0034028],[-78.9403474,36.0033542],[-78.9403045,36.0033681],[-78.9403131,36.0033889],[-78.9401328,36.0034236],[-78.9401071,36.0033195],[-78.940047,36.0033264],[-78.9400142,36.0033776],[-78.9399244,36.0033451],[-78.939864,36.0034319],[-78.9399345,36.0034634],[-78.9398556,36.0035779],[-78.9397956,36.0035509],[-78.9395731,36.0038736],[-78.9395594,36.0038674],[-78.9395371,36.0038996],[-78.9395623,36.003911],[-78.9395173,36.0039762],[-78.9392783,36.0038683],[-78.9392975,36.0038404],[-78.9391795,36.0037872],[-78.9393306,36.003568]]]}},{"type":"Feature","id":44055991,"properties":{"osmId":44055991,"category":"library","addr:city":"Durham","addr:housenumber":"409","addr:postcode":"27705","addr:state":"NC","addr:street":"Chapel Drive","amenity":"library","building":"yes","name":"Rubenstein Library","operator:type":"university","source:addr":"Durham Open Data","_wikiTried":true},"geometry":{"type":"Polygon","coordinates":[[[-78.9386996,36.0020218],[-78.9385476,36.0019527],[-78.9385743,36.0019144],[-78.938459,36.001862],[-78.9383447,36.0020263],[-78.9383208,36.0020154],[-78.9382605,36.0019879],[-78.9381321,36.0019295],[-78.9381517,36.0019013],[-78.9381967,36.0019219],[-78.9384277,36.0015898],[-78.9383979,36.0015763],[-78.9384672,36.0014767],[-78.9385938,36.0015343],[-78.9385794,36.001555],[-78.9389102,36.0017057],[-78.9389434,36.001658],[-78.9390394,36.0017018],[-78.9390242,36.0017237],[-78.9391186,36.0017667],[-78.9390661,36.0018421],[-78.93913,36.0018712],[-78.9390381,36.0020033],[-78.9389024,36.0019415],[-78.9388112,36.0020726],[-78.9386996,36.0020218]]]}},{"type":"Feature","id":44055992,"properties":{"osmId":44055992,"category":"library","amenity":"library","building":"yes","name":"Bostock Library","operator:type":"university","source":"Bing","_wikiTried":true},"geometry":{"type":"Polygon","coordinates":[[[-78.9381593,36.0027054],[-78.9386343,36.0029159],[-78.9384267,36.0032226],[-78.9379517,36.0030121],[-78.9381593,36.0027054]]]}},{"type":"Feature","id":44073313,"properties":{"osmId":44073313,"category":"academic","addr:city":"Durham","addr:housenumber":"403","addr:postcode":"27705","addr:state":"NC","addr:street":"Chapel Drive","building":"university","name":"Westbrook Building","source:addr":"Durham Open Data","_wikiTried":true},"geometry":{"type":"Polygon","coordinates":[[[-78.9396514,36.0020158],[-78.9401669,36.0022455],[-78.940064,36.0023913],[-78.9400811,36.002426],[-78.940064,36.0024538],[-78.9400296,36.0024538],[-78.9399781,36.0025232],[-78.9398322,36.0024538],[-78.9398065,36.0024885],[-78.9397852,36.0024799],[-78.939755,36.0024677],[-78.9397807,36.002426],[-78.9396176,36.0023496],[-78.939549,36.0024121],[-78.9394889,36.002426],[-78.9394031,36.0023774],[-78.9394889,36.0022593],[-78.9394631,36.0021483],[-78.939549,36.0021344],[-78.9395747,36.0020927],[-78.93956,36.0020795],[-78.9395883,36.0020383],[-78.9396247,36.0020546],[-78.9396514,36.0020158]]]}},{"type":"Feature","id":44108884,"properties":{"osmId":44108884,"category":"academic","addr:city":"Durham","addr:housenumber":"421","addr:postcode":"27705","addr:state":"NC","addr:street":"Chapel Drive","building":"university","name":"Allen Building","source:addr":"Durham Open Data","_wikiTried":true},"geometry":{"type":"Polygon","coordinates":[[[-78.9375924,36.0014013],[-78.9376046,36.0013841],[-78.9375397,36.0013538],[-78.9375951,36.0012763],[-78.9376559,36.0013047],[-78.9376752,36.0012777],[-78.9374327,36.0011644],[-78.9373878,36.0012272],[-78.9370989,36.0010922],[-78.9370876,36.001108],[-78.93699,36.0010623],[-78.9370107,36.0010333],[-78.9369572,36.0010083],[-78.9370242,36.0009145],[-78.9370845,36.0009427],[-78.9371058,36.0009128],[-78.9371922,36.0009532],[-78.937171,36.0009829],[-78.9373258,36.0010552],[-78.9373873,36.000969],[-78.9374408,36.000994],[-78.9379488,36.0012315],[-78.9378978,36.0013029],[-78.9378781,36.0012937],[-78.9377752,36.0014378],[-78.9377398,36.0014212],[-78.9377136,36.001458],[-78.9375924,36.0014013]]]}},{"type":"Feature","id":44109486,"properties":{"osmId":44109486,"category":"academic","addr:city":"Durham","addr:housenumber":"419","addr:postcode":"27705","addr:state":"NC","addr:street":"Chapel Drive","building":"university","name":"Social Sciences Building","source:addr":"Durham Open Data","_wikiTried":true},"geometry":{"type":"Polygon","coordinates":[[[-78.9374842,36.0015756],[-78.9375605,36.0014677],[-78.9376543,36.001511],[-78.9375731,36.0016259],[-78.9376421,36.0016579],[-78.9374454,36.0019361],[-78.937492,36.0019576],[-78.93744,36.0020312],[-78.9373315,36.001981],[-78.9372973,36.0020295],[-78.9372054,36.001987],[-78.9372402,36.0019378],[-78.9370736,36.0018608],[-78.937147,36.0017569],[-78.9373168,36.0018354],[-78.9374202,36.0016893],[-78.9372007,36.0015877],[-78.937277,36.0014797],[-78.9374842,36.0015756]]]}},{"type":"Feature","id":44164280,"properties":{"osmId":44164280,"category":"academic","addr:city":"Durham","addr:housenumber":"417","addr:postcode":"27705","addr:state":"NC","addr:street":"Chapel Drive","building":"university","building:levels":"4","name":"Rueben-Cooke","source:addr":"Durham Open Data","_wikiTried":true},"geometry":{"type":"Polygon","coordinates":[[[-78.9363113,36.0023925],[-78.9363167,36.002385],[-78.9362979,36.0023761],[-78.9363534,36.0022991],[-78.9363798,36.0023116],[-78.9363908,36.0022963],[-78.9366941,36.0024394],[-78.936848,36.002512],[-78.9368886,36.0024556],[-78.9367798,36.0024043],[-78.9368536,36.0023019],[-78.9369734,36.0023584],[-78.9370245,36.0022875],[-78.9368801,36.0022194],[-78.9369544,36.0021163],[-78.9373043,36.0022893],[-78.9372686,36.0023417],[-78.9372194,36.0023212],[-78.9370077,36.0026209],[-78.9370801,36.002655],[-78.9370263,36.0027297],[-78.9363113,36.0023925]]]}},{"type":"Feature","id":44164281,"properties":{"osmId":44164281,"category":"academic","addr:city":"Durham","addr:housenumber":"415","addr:postcode":"27705","addr:state":"NC","addr:street":"Chapel Drive","building":"university","name":"Old Chemistry Building","source:addr":"Durham Open Data","_wikiTried":true},"geometry":{"type":"Polygon","coordinates":[[[-78.9374455,36.0028392],[-78.9375123,36.002869],[-78.9375343,36.0028367],[-78.9374849,36.0028147],[-78.9375168,36.0027678],[-78.9375608,36.0027874],[-78.9376099,36.0027152],[-78.9375778,36.002701],[-78.9376209,36.0026378],[-78.9376617,36.002656],[-78.9376981,36.0026025],[-78.9376377,36.0025756],[-78.9376891,36.0025],[-78.9378308,36.0025631],[-78.9378494,36.0025358],[-78.9379905,36.0025986],[-78.9379846,36.0026073],[-78.938134,36.0026739],[-78.9380431,36.0028076],[-78.9378479,36.0027207],[-78.9378263,36.0027524],[-78.9379876,36.0028243],[-78.9379101,36.0029382],[-78.937763,36.0028727],[-78.9376457,36.0030451],[-78.9373845,36.0029288],[-78.9374455,36.0028392]]]}},{"type":"Feature","id":44506333,"properties":{"osmId":44506333,"category":"academic","addr:city":"Durham","addr:housenumber":"210","addr:postcode":"27705","addr:state":"NC","addr:street":"Science Drive","alt_name":"Duke Law School","building":"university","name":"Duke University School of Law","source:addr":"Durham Open Data","_wikiTried":true},"geometry":{"type":"Polygon","coordinates":[[[-78.9459249,35.9999115],[-78.9459017,35.9999406],[-78.9459003,35.9999568],[-78.9458923,36.0000588],[-78.9458628,36.0001108],[-78.9458024,36.0001586],[-78.9456791,36.0002063],[-78.9455584,36.0003712],[-78.9452928,36.0002432],[-78.9449502,36.0000712],[-78.9449153,36.0001103],[-78.9446739,35.999991],[-78.9450671,35.9994865],[-78.9452388,35.9995761],[-78.9452787,35.9995261],[-78.9452536,35.999513],[-78.9452968,35.9994588],[-78.9453359,35.9994792],[-78.9455583,35.9992004],[-78.9456934,35.9992709],[-78.9456573,35.9993162],[-78.9456742,35.999325],[-78.9454368,35.9996227],[-78.945944,35.9998875],[-78.9459249,35.9999115]]]}},{"type":"Feature","id":45345520,"properties":{"osmId":45345520,"category":"academic","addr:city":"Durham","addr:housenumber":"2","addr:postcode":"27705","addr:state":"NC","addr:street":"Telcom Drive","building":"university","name":"Oit/Telecommunications Building","source:addr":"Durham Open Data","_wikiTried":true},"geometry":{"type":"Polygon","coordinates":[[[-78.9389421,36.0034773],[-78.9387017,36.0038064],[-78.9386003,36.0037579],[-78.9386222,36.0037279],[-78.9385184,36.0036782],[-78.9387684,36.003336],[-78.9388698,36.0033844],[-78.9388382,36.0034277],[-78.9389421,36.0034773]]]}},{"type":"Feature","id":45345521,"properties":{"osmId":45345521,"category":"academic","addr:city":"Durham","addr:housenumber":"100","addr:postcode":"27705","addr:state":"NC","addr:street":"Science Drive","building":"university","ele":"106","name":"Hudson Hall","source":"USGS Geonames","source:addr":"Durham Open Data","_wikiTried":true},"geometry":{"type":"Polygon","coordinates":[[[-78.9406555,36.0037836],[-78.9406664,36.0038019],[-78.9407666,36.0039698],[-78.9408493,36.0039372],[-78.9408534,36.0039437],[-78.9409249,36.0040567],[-78.9407663,36.0041176],[-78.9408235,36.0042173],[-78.9408489,36.0042049],[-78.9409076,36.0042958],[-78.940876,36.0043086],[-78.9408613,36.0042891],[-78.9408396,36.0042973],[-78.9408661,36.0043394],[-78.9407916,36.0043664],[-78.9407998,36.0043883],[-78.9407637,36.0044033],[-78.9407501,36.0043838],[-78.9404892,36.0044904],[-78.9404996,36.0045128],[-78.9404784,36.0045204],[-78.940462,36.0045247],[-78.9404502,36.0045074],[-78.9403762,36.0045357],[-78.9403493,36.0044982],[-78.9403304,36.0045074],[-78.9403176,36.0044969],[-78.9402206,36.0043415],[-78.9400536,36.0044189],[-78.9400087,36.0043438],[-78.940105,36.0043061],[-78.9399595,36.0040624],[-78.9400155,36.0040405],[-78.9399819,36.0039842],[-78.9405794,36.0037507],[-78.9406097,36.0038015],[-78.9406555,36.0037836]]]}},{"type":"Feature","id":45345522,"properties":{"osmId":45345522,"category":"academic","addr:city":"Durham","addr:housenumber":"110","addr:postcode":"27705","addr:state":"NC","addr:street":"Science Drive","building":"university","ele":"106","gnis:feature_id":"2454481","name":"Teer Engineering Building","source":"USGS Geonames","source:addr":"Durham Open Data","_wikiTried":true},"geometry":{"type":"Polygon","coordinates":[[[-78.9412248,36.003787],[-78.9413061,36.0039232],[-78.9412372,36.0039501],[-78.9409843,36.004049],[-78.9409061,36.0039187],[-78.9408153,36.003766],[-78.9408107,36.0037583],[-78.9408755,36.003733],[-78.9408464,36.0036844],[-78.940889,36.0036677],[-78.9409075,36.0036605],[-78.9409259,36.0036914],[-78.9410497,36.003643],[-78.9411526,36.0038152],[-78.9412248,36.003787]]]}},{"type":"Feature","id":45345523,"properties":{"osmId":45345523,"category":"residential","addr:city":"Durham","addr:housenumber":"102","addr:postcode":"27705","addr:state":"NC","addr:street":"Wannamaker Dorm Lane","building":"dormitory","name":"Wannamaker 4","source:addr":"Durham Open Data","_wikiTried":true},"geometry":{"type":"Polygon","coordinates":[[[-78.9390905,35.9988483],[-78.9390211,35.9989439],[-78.9390342,35.9989493],[-78.9389733,35.9990393],[-78.9388027,35.9989616],[-78.9388528,35.9988909],[-78.9388663,35.9988963],[-78.9389471,35.998781],[-78.9390905,35.9988483]]]}},{"type":"Feature","id":45743948,"properties":{"osmId":45743948,"category":"religious","addr:city":"Durham","addr:housenumber":"809","addr:postcode":"27705","addr:state":"NC","addr:street":"Trent Drive","amenity":"place_of_worship","building":"yes","religion":"christian","source:addr":"Durham Open Data"},"geometry":{"type":"Polygon","coordinates":[[[-78.929622,36.0122164],[-78.9295042,36.0123116],[-78.929306,36.0121513],[-78.929299,36.0121422],[-78.9293266,36.0121121],[-78.9293314,36.012106],[-78.9293237,36.012099],[-78.929359,36.012069],[-78.9293694,36.0120744],[-78.929379,36.0120698],[-78.9294056,36.0120513],[-78.9294238,36.012056],[-78.929622,36.0122164]]]}},{"type":"Feature","id":47280537,"properties":{"osmId":47280537,"category":"medical","addr:city":"Durham","addr:housenumber":"3040","addr:postcode":"27705","addr:state":"NC","addr:street":"Erwin Road","building":"hospital","source:addr":"Durham Open Data"},"geometry":{"type":"Polygon","coordinates":[[[-78.9506309,36.0048396],[-78.9505343,36.0049307],[-78.9504431,36.0049351],[-78.9504002,36.0049047],[-78.9503358,36.0049568],[-78.9504431,36.0050305],[-78.9503305,36.0051303],[-78.9502339,36.0050609],[-78.9501695,36.0051217],[-78.9502232,36.0051607],[-78.9498691,36.0054862],[-78.9496706,36.0053517],[-78.949735,36.0052909],[-78.9496223,36.0052085],[-78.9495419,36.0052085],[-78.9494882,36.0052519],[-78.9493005,36.0051173],[-78.9495741,36.00487],[-78.9497296,36.0049698],[-78.9499871,36.0047137],[-78.9502071,36.0048613],[-78.9502554,36.0048136],[-78.9502929,36.0048353],[-78.9503358,36.0048049],[-78.9503358,36.0047354],[-78.9505397,36.0047094],[-78.9505504,36.0047745],[-78.9506309,36.0048396]]]}},{"type":"Feature","id":57443597,"properties":{"osmId":57443597,"category":"residential","building":"dormitory","name":"Keohane 4D","_wikiTried":true},"geometry":{"type":"Polygon","coordinates":[[[-78.9375195,35.9995755],[-78.9371468,35.9994091],[-78.936916,35.999305],[-78.9368996,35.9993288],[-78.9367459,35.9992479],[-78.936843,35.9991038],[-78.9370172,35.9991824],[-78.937002,35.9992043],[-78.9372169,35.9993012],[-78.9374457,35.9994034],[-78.9374854,35.9993453],[-78.9376319,35.9994107],[-78.9375195,35.9995755]]]}},{"type":"Feature","id":57753997,"properties":{"osmId":57753997,"category":"residential","addr:city":"Durham","addr:housenumber":"415","addr:postcode":"27705","addr:state":"NC","addr:street":"Towerview Drive","building":"dormitory","name":"Edens Quad 1B","source:addr":"Durham Open Data","_wikiTried":true},"geometry":{"type":"Polygon","coordinates":[[[-78.9366549,35.9983118],[-78.936616,35.9983232],[-78.9365456,35.9983492],[-78.9365348,35.9983289],[-78.9364582,35.9983572],[-78.9364205,35.9982904],[-78.9364682,35.9982728],[-78.936452,35.9982442],[-78.9364254,35.998254],[-78.9363973,35.9982042],[-78.9364372,35.9981894],[-78.9364452,35.9982037],[-78.9366029,35.9981454],[-78.9366895,35.998299],[-78.9366549,35.9983118]]]}},{"type":"Feature","id":75755397,"properties":{"osmId":75755397,"category":"academic","addr:city":"Durham","addr:housenumber":"130","addr:postcode":"27705","addr:state":"NC","addr:street":"Science Drive","building":"university","layer":"1","name":"Biological Sciences Building","source:addr":"Durham Open Data","_wikiTried":true},"geometry":{"type":"Polygon","coordinates":[[[-78.9431814,36.0021413],[-78.9431479,36.0021814],[-78.9435556,36.0023984],[-78.9434888,36.0024701],[-78.9434215,36.0024369],[-78.9434007,36.0024803],[-78.9430247,36.0022508],[-78.9429253,36.0023758],[-78.9432349,36.0025924],[-78.9431718,36.0026603],[-78.9431594,36.0026737],[-78.9428092,36.00249],[-78.9426367,36.0024012],[-78.9427256,36.0023025],[-78.9427836,36.0023312],[-78.9428899,36.0021987],[-78.9428754,36.0021897],[-78.9429666,36.0020821],[-78.9429794,36.0020901],[-78.9430973,36.001951],[-78.9430409,36.0019163],[-78.9431269,36.0018162],[-78.9434721,36.0019972],[-78.9436119,36.0020794],[-78.9435328,36.0021814],[-78.9434402,36.0021288],[-78.9433444,36.0022422],[-78.9431814,36.0021413]]]}},{"type":"Feature","id":75903598,"properties":{"osmId":75903598,"category":"academic","addr:city":"Durham","addr:housenumber":"304","addr:postcode":"27705","addr:state":"NC","addr:street":"Research Drive","building":"university","name":"North Building","source:addr":"Durham Open Data","_wikiTried":true},"geometry":{"type":"Polygon","coordinates":[[[-78.9406616,36.0052603],[-78.9410282,36.0051142],[-78.9410873,36.0052115],[-78.9408285,36.0053146],[-78.9408901,36.0054158],[-78.9410725,36.0053431],[-78.9411295,36.0054366],[-78.9409447,36.0055103],[-78.9410327,36.0056549],[-78.9411842,36.0055946],[-78.9412475,36.0056985],[-78.9409658,36.0058107],[-78.9409019,36.0057058],[-78.9409268,36.0056959],[-78.9406616,36.0052603]]]}},{"type":"Feature","id":292493735,"properties":{"osmId":292493735,"category":"residential","building":"residential","name":"Keohane 4E","operator":"Duke University","residential":"university","_wikiTried":true},"geometry":{"type":"Polygon","coordinates":[[[-78.9375707,35.9985747],[-78.9374306,35.9985099],[-78.937189,35.9988464],[-78.937179,35.9988406],[-78.9371061,35.9989505],[-78.9371819,35.9989852],[-78.9370947,35.9991159],[-78.9372376,35.9991853],[-78.9374134,35.9989517],[-78.9373334,35.9989123],[-78.9375707,35.9985747]]]}},{"type":"Feature","id":305879102,"properties":{"osmId":305879102,"category":"medical","addr:city":"Durham","addr:housenumber":"2301","addr:postcode":"27710","addr:street":"Erwin Road","amenity":"hospital","building":"yes","emergency":"yes","healthcare":"hospital","name":"Duke University Hospital","opening_hours":"24/7","phone":"+1 919 684 8111","website":"https://www.dukehealth.org/hospitals/duke-university-hospital/home","wikidata":"Q5312894","wikipedia":"en:Duke University Hospital","_wikiTried":true},"geometry":{"type":"Polygon","coordinates":[[[-78.9378516,36.0062953],[-78.9378746,36.0063428],[-78.9379466,36.0063337],[-78.9379722,36.0063738],[-78.9380281,36.0063622],[-78.9380825,36.0064877],[-78.9381305,36.0064708],[-78.9381273,36.0065821],[-78.9380409,36.0066106],[-78.9380921,36.0067684],[-78.9381593,36.0067516],[-78.9382073,36.0068577],[-78.9380937,36.0069029],[-78.9380729,36.0069262],[-78.9381161,36.0069728],[-78.9381321,36.0070478],[-78.9382052,36.0070732],[-78.9382424,36.007053],[-78.9382057,36.0069948],[-78.9382073,36.006956],[-78.9382856,36.0069146],[-78.9383592,36.0069081],[-78.938404,36.0069754],[-78.9384711,36.0069625],[-78.9383256,36.0066649],[-78.938404,36.0066093],[-78.9388661,36.0067703],[-78.9388869,36.0067775],[-78.9388861,36.0068583],[-78.9385783,36.0069625],[-78.938735,36.0072742],[-78.9383339,36.007403],[-78.9384734,36.0076656],[-78.938396,36.0077115],[-78.9379514,36.0075524],[-78.9379162,36.007533],[-78.9379226,36.007458],[-78.9382615,36.0073596],[-78.938173,36.0071449],[-78.9381006,36.0071275],[-78.9380469,36.0071579],[-78.9379879,36.0071774],[-78.9379316,36.007173],[-78.9378672,36.007147],[-78.9376714,36.0072077],[-78.9378699,36.0075853],[-78.9378753,36.0076547],[-78.9377787,36.0076894],[-78.9376768,36.0076807],[-78.9375883,36.0076547],[-78.9374971,36.0076179],[-78.9374703,36.0075744],[-78.9374703,36.0075224],[-78.937481,36.0074941],[-78.9369553,36.0076482],[-78.9369006,36.0075598],[-78.9367407,36.007301],[-78.9360697,36.0075015],[-78.9358985,36.0075527],[-78.9359924,36.007275],[-78.936612,36.0070885],[-78.93651,36.0069279],[-78.9371659,36.0067116],[-78.9370877,36.0065452],[-78.9373886,36.0064471],[-78.9374472,36.0064279],[-78.9377565,36.0063271],[-78.9377883,36.0063165],[-78.9378516,36.0062953]]]}},{"type":"Feature","id":305879103,"properties":{"osmId":305879103,"category":"academic","addr:city":"Durham","addr:housenumber":"405","addr:postcode":"27705","addr:state":"NC","addr:street":"Research Drive","building":"university","name":"West Campus Steam Plant","source:addr":"Durham Open Data","_wikiTried":true},"geometry":{"type":"Polygon","coordinates":[[[-78.9379329,36.0046802],[-78.9376347,36.0045445],[-78.9377988,36.0043086],[-78.9381203,36.004455],[-78.9381828,36.0043651],[-78.9382813,36.0044099],[-78.9381818,36.004553],[-78.9382316,36.0045757],[-78.9380708,36.0048069],[-78.9378991,36.0047288],[-78.9379329,36.0046802]]]}},{"type":"Feature","id":312110807,"properties":{"osmId":312110807,"category":"academic","addr:city":"Durham","addr:housenumber":"1516","addr:postcode":"27705","addr:state":"NC","addr:street":"Hull Avenue","building":"school","name":"The Little School","opening_hours":"Mo-Fr 07:30-17:00","source:addr":"Durham Open Data","website":"https://thelittleschool.net","_wikiTried":true},"geometry":{"type":"Polygon","coordinates":[[[-78.9230246,36.0031564],[-78.9230514,36.0029443],[-78.9233208,36.0029666],[-78.923294,36.0031787],[-78.9230246,36.0031564]]]}},{"type":"Feature","id":337107588,"properties":{"osmId":337107588,"category":"residential","building":"dormitory","name":"House FF","_wikiTried":true},"geometry":{"type":"Polygon","coordinates":[[[-78.9384111,36.0006043],[-78.9379605,36.0003949],[-78.9379761,36.0003735],[-78.9380181,36.0003157],[-78.9383494,36.0004698],[-78.9384996,36.0002539],[-78.9385894,36.0003006],[-78.9385626,36.0003396],[-78.938572,36.0003461],[-78.9384741,36.0004698],[-78.9384875,36.0004785],[-78.9384486,36.0005306],[-78.9384607,36.0005382],[-78.9384111,36.0006043]]]}},{"type":"Feature","id":337107590,"properties":{"osmId":337107590,"category":"residential","building":"dormitory","name":"House GG","_wikiTried":true},"geometry":{"type":"Polygon","coordinates":[[[-78.9380302,36.0003006],[-78.9377057,36.0001584],[-78.9376963,36.0001747],[-78.9376024,36.0001324],[-78.9376145,36.0001161],[-78.9374656,36.0000521],[-78.937526,35.9999675],[-78.9375745,35.9999887],[-78.9376769,36.0000335],[-78.93799,36.0001704],[-78.9381469,35.9999382],[-78.9382515,35.9999848],[-78.9380302,36.0003006]]]}},{"type":"Feature","id":337107591,"properties":{"osmId":337107591,"category":"residential","building":"dormitory","name":"House HH","_wikiTried":true},"geometry":{"type":"Polygon","coordinates":[[[-78.9382515,35.9999848],[-78.9381469,35.9999382],[-78.9381764,35.9998959],[-78.9378666,35.999757],[-78.9376769,36.0000335],[-78.9375745,35.9999887],[-78.9377264,35.9997702],[-78.9377861,35.9996843],[-78.9377325,35.9996593],[-78.9377808,35.999591],[-78.9378626,35.9996289],[-78.9378827,35.9996051],[-78.9379538,35.9996387],[-78.9379336,35.9996637],[-78.9382434,35.9998025],[-78.9383226,35.9996984],[-78.9383159,35.9996919],[-78.9383735,35.9996073],[-78.9383883,35.9996127],[-78.9384097,35.9995877],[-78.9384714,35.9996148],[-78.9384513,35.9996409],[-78.938509,35.9996658],[-78.9382703,35.9999902],[-78.9382515,35.9999848]]]}},{"type":"Feature","id":337107592,"properties":{"osmId":337107592,"category":"residential","building":"dormitory","name":"House B","_wikiTried":true},"geometry":{"type":"Polygon","coordinates":[[[-78.9385894,36.0003006],[-78.9384996,36.0002539],[-78.9385398,36.0001953],[-78.9385653,36.000204],[-78.9386216,36.0001291],[-78.9385894,36.0001129],[-78.9386552,36.000025],[-78.9387624,36.000077],[-78.9387075,36.000153],[-78.9386377,36.0002463],[-78.9386552,36.0002539],[-78.9386122,36.0003103],[-78.9385894,36.0003006]]]}},{"type":"Feature","id":337107593,"properties":{"osmId":337107593,"category":"residential","building":"dormitory","name":"House A","_wikiTried":true},"geometry":{"type":"Polygon","coordinates":[[[-78.9386552,36.000025],[-78.9385894,36.0001129],[-78.9383829,36.0000174],[-78.9384017,35.9999946],[-78.9383534,35.9999707],[-78.9383923,35.9999121],[-78.9384419,35.9999317],[-78.9384647,35.9999002],[-78.9385036,35.9999186],[-78.9384862,35.9999425],[-78.9386552,36.000025]]]}},{"type":"Feature","id":337107594,"properties":{"osmId":337107594,"category":"residential","building":"dormitory","name":"Craven House C","_wikiTried":true},"geometry":{"type":"Polygon","coordinates":[[[-78.9387624,36.000077],[-78.9386552,36.000025],[-78.9387222,35.9999273],[-78.9387008,35.9999165],[-78.9387651,35.9998275],[-78.9387879,35.9998362],[-78.9389073,35.9996691],[-78.9390092,35.9997168],[-78.9388899,35.9998839],[-78.9389153,35.9998959],[-78.938855,35.9999794],[-78.9388362,35.9999685],[-78.9387624,36.000077]]]}},{"type":"Feature","id":337107595,"properties":{"osmId":337107595,"category":"residential","building":"dormitory","name":"Craven House D","_wikiTried":true},"geometry":{"type":"Polygon","coordinates":[[[-78.9390092,35.9997168],[-78.9389073,35.9996691],[-78.9390213,35.9995053],[-78.9390816,35.9994228],[-78.9392224,35.9994868],[-78.9391554,35.9995747],[-78.9391782,35.9995866],[-78.9391152,35.9996734],[-78.9390588,35.9996485],[-78.9390092,35.9997168]]]}},{"type":"Feature","id":337107596,"properties":{"osmId":337107596,"category":"residential","building":"dormitory","name":"Craven House E","_wikiTried":true},"geometry":{"type":"Polygon","coordinates":[[[-78.9390816,35.9994228],[-78.9391527,35.9993208],[-78.939203,35.9992493],[-78.9392251,35.9992177],[-78.9393713,35.999285],[-78.9392801,35.9994098],[-78.9393271,35.9994326],[-78.9392815,35.9994917],[-78.9392721,35.9995074],[-78.9392224,35.9994868],[-78.9390816,35.9994228]]]}},{"type":"Feature","id":337107597,"properties":{"osmId":337107597,"category":"residential","building":"dormitory","name":"Craven House F","_wikiTried":true},"geometry":{"type":"Polygon","coordinates":[[[-78.9393713,35.999285],[-78.9392251,35.9992177],[-78.939382,35.9989975],[-78.9395225,35.9990625],[-78.9393713,35.999285]]]}},{"type":"Feature","id":337108845,"properties":{"osmId":337108845,"category":"residential","building":"dormitory","name":"Craven House R","_wikiTried":true},"geometry":{"type":"Polygon","coordinates":[[[-78.9390213,35.9995053],[-78.9389958,35.9994933],[-78.9389328,35.9995856],[-78.9388443,35.9995454],[-78.9387906,35.9996192],[-78.9389073,35.9996691],[-78.9390213,35.9995053]]]}},{"type":"Feature","id":337108846,"properties":{"osmId":337108846,"category":"residential","building":"dormitory","name":"Craven House S","_wikiTried":true},"geometry":{"type":"Polygon","coordinates":[[[-78.9387906,35.9996192],[-78.9386283,35.9995497],[-78.9386833,35.9994705],[-78.9388443,35.9995454],[-78.9387906,35.9996192]]]}},{"type":"Feature","id":337108847,"properties":{"osmId":337108847,"category":"residential","building":"dormitory","name":"Craven House T","_wikiTried":true},"geometry":{"type":"Polygon","coordinates":[[[-78.9386283,35.9995497],[-78.9385438,35.9995129],[-78.9385345,35.999528],[-78.9384406,35.9994901],[-78.9384553,35.9994695],[-78.9384366,35.9994608],[-78.9384915,35.9993859],[-78.9385205,35.9993987],[-78.9386306,35.9994473],[-78.9386833,35.9994705],[-78.9386283,35.9995497]]]}},{"type":"Feature","id":337108848,"properties":{"osmId":337108848,"category":"residential","building":"dormitory","name":"Craven  House U","_wikiTried":true},"geometry":{"type":"Polygon","coordinates":[[[-78.9386306,35.9994473],[-78.9385205,35.9993987],[-78.9386283,35.9992438],[-78.9387437,35.9992937],[-78.9386306,35.9994473]]]}},{"type":"Feature","id":337108850,"properties":{"osmId":337108850,"category":"residential","addr:city":"Durham","addr:housenumber":"102","addr:postcode":"27705","addr:state":"NC","addr:street":"Wannamaker Dorm Lane","building":"dormitory","name":"Craven House Y/W","source:addr":"Durham Open Data","_wikiTried":true},"geometry":{"type":"Polygon","coordinates":[[[-78.9388027,35.9992134],[-78.938686,35.9991624],[-78.9387155,35.9991255],[-78.9386954,35.9991158],[-78.938745,35.9990463],[-78.9387745,35.9990593],[-78.9387866,35.9990398],[-78.9388724,35.9990778],[-78.9388604,35.9990951],[-78.9389381,35.999132],[-78.9388899,35.9992036],[-78.9388268,35.9991765],[-78.9388027,35.9992134]]]}},{"type":"Feature","id":337108851,"properties":{"osmId":337108851,"category":"residential","building":"dormitory","name":"Craven House Z","_wikiTried":true},"geometry":{"type":"Polygon","coordinates":[[[-78.9388899,35.9992036],[-78.9389381,35.999132],[-78.9390146,35.9991678],[-78.938965,35.9992394],[-78.9388899,35.9992036]]]}},{"type":"Feature","id":337108852,"properties":{"osmId":337108852,"category":"residential","building":"dormitory","name":"Craven House AA","_wikiTried":true},"geometry":{"type":"Polygon","coordinates":[[[-78.938965,35.9992394],[-78.9390146,35.9991678],[-78.939203,35.9992493],[-78.9391527,35.9993208],[-78.938965,35.9992394]]]}},{"type":"Feature","id":337113434,"properties":{"osmId":337113434,"category":"residential","building":"dormitory","name":"Kilgo House P","_wikiTried":true},"geometry":{"type":"Polygon","coordinates":[[[-78.9396717,36.000077],[-78.9395577,36.0002387],[-78.93961,36.0002604],[-78.9395564,36.0003429],[-78.9394773,36.0003103],[-78.9394625,36.0003288],[-78.9394048,36.0003049],[-78.9394209,36.0002789],[-78.9393633,36.0002561],[-78.9394169,36.0001769],[-78.9394545,36.0001931],[-78.9395631,36.0000282],[-78.9396717,36.000077]]]}},{"type":"Feature","id":337113435,"properties":{"osmId":337113435,"category":"residential","building":"dormitory","name":"Kilgo House O","_wikiTried":true},"geometry":{"type":"Polygon","coordinates":[[[-78.9396717,36.000077],[-78.9395631,36.0000282],[-78.9396271,35.9999325],[-78.9395721,35.9999108],[-78.9396244,35.9998305],[-78.9396499,35.9998402],[-78.939713,35.9997459],[-78.9398015,35.9997882],[-78.9397478,35.9998652],[-78.9398337,35.9999032],[-78.93978,35.9999791],[-78.9398109,35.9999921],[-78.9397438,36.0000887],[-78.9396821,36.0000605],[-78.9396717,36.000077]]]}},{"type":"Feature","id":337113436,"properties":{"osmId":337113436,"category":"residential","building":"dormitory","name":"Kilgo House J","_wikiTried":true},"geometry":{"type":"Polygon","coordinates":[[[-78.9398015,35.9997882],[-78.939713,35.9997459],[-78.9397277,35.9997231],[-78.9396231,35.9996764],[-78.9396325,35.9996607],[-78.9396593,35.99962],[-78.9397009,35.9996395],[-78.9397197,35.9996167],[-78.9397773,35.9996395],[-78.9398578,35.9995256],[-78.9399718,35.9995766],[-78.9399604,35.999593],[-78.9398953,35.9996905],[-78.9398189,35.9997969],[-78.9398015,35.9997882]]]}},{"type":"Feature","id":337113437,"properties":{"osmId":337113437,"category":"residential","building":"dormitory","name":"Kilgo House K","_wikiTried":true},"geometry":{"type":"Polygon","coordinates":[[[-78.9398953,35.9996905],[-78.9399604,35.999593],[-78.9402427,35.9997144],[-78.9401756,35.9998142],[-78.9398953,35.9996905]]]}},{"type":"Feature","id":337113438,"properties":{"osmId":337113438,"category":"residential","building":"dormitory","name":"Kilgo House L","_wikiTried":true},"geometry":{"type":"Polygon","coordinates":[[[-78.9401756,35.9998142],[-78.9402427,35.9997144],[-78.9403594,35.9997643],[-78.9403741,35.9997437],[-78.9404546,35.9997817],[-78.9403781,35.999901],[-78.9403473,35.9998902],[-78.9403191,35.9999303],[-78.9402159,35.9998847],[-78.940244,35.9998468],[-78.9401756,35.9998142]]]}},{"type":"Feature","id":337113439,"properties":{"osmId":337113439,"category":"residential","building":"dormitory","name":"Kilgo House M","_wikiTried":true},"geometry":{"type":"Polygon","coordinates":[[[-78.9402159,35.9998847],[-78.9400657,36.0001039],[-78.9401756,36.0001506],[-78.9403191,35.9999303],[-78.9402159,35.9998847]]]}},{"type":"Feature","id":337113440,"properties":{"osmId":337113440,"category":"residential","building":"dormitory","name":"Kilgo House N","_wikiTried":true},"geometry":{"type":"Polygon","coordinates":[[[-78.9401756,36.0001506],[-78.9402025,36.0001625],[-78.9401542,36.000233],[-78.9401287,36.0002232],[-78.9401099,36.0002482],[-78.9400496,36.0002232],[-78.9397438,36.0000887],[-78.9398109,35.9999921],[-78.9400657,36.0001039],[-78.9401756,36.0001506]]]}},{"type":"Feature","id":337114874,"properties":{"osmId":337114874,"category":"residential","building":"dormitory","name":"Crowell House G","_wikiTried":true},"geometry":{"type":"Polygon","coordinates":[[[-78.9395225,35.9990625],[-78.9395306,35.9990482],[-78.9395865,35.9990723],[-78.939725,35.9991318],[-78.9397143,35.9991469],[-78.9397679,35.9991719],[-78.9398363,35.9990775],[-78.9398015,35.9990623],[-78.9397907,35.9990732],[-78.9396365,35.9990048],[-78.9396472,35.9989853],[-78.9395499,35.9989433],[-78.9394206,35.9988876],[-78.9393763,35.9989495],[-78.9394085,35.9989625],[-78.939382,35.9989975],[-78.9395225,35.9990625]]]}},{"type":"Feature","id":337114878,"properties":{"osmId":337114878,"category":"residential","addr:city":"Durham","addr:housenumber":"104","addr:postcode":"27705","addr:state":"NC","addr:street":"Union Drive","building":"dormitory","name":"Crowell House H","source:addr":"Durham Open Data","_wikiTried":true},"geometry":{"type":"Polygon","coordinates":[[[-78.9397679,35.9991719],[-78.9400197,35.9992877],[-78.9401314,35.999339],[-78.9401475,35.9993151],[-78.9402172,35.9993433],[-78.9402588,35.9992847],[-78.9401326,35.9992284],[-78.9400265,35.9991811],[-78.9398793,35.9991155],[-78.93989,35.9990992],[-78.9398363,35.9990775],[-78.9397679,35.9991719]]]}},{"type":"Feature","id":337114880,"properties":{"osmId":337114880,"category":"residential","building":"dormitory","name":"Kilgo House I","_wikiTried":true},"geometry":{"type":"Polygon","coordinates":[[[-78.9401314,35.999339],[-78.9400938,35.9993954],[-78.9401086,35.999403],[-78.940059,35.9994757],[-78.9400442,35.9994692],[-78.9399718,35.9995766],[-78.9398578,35.9995256],[-78.9400197,35.9992877],[-78.9401314,35.999339]]]}},{"type":"Feature","id":337115830,"properties":{"osmId":337115830,"category":"residential","building":"dormitory","name":"Crowell House BB","_wikiTried":true},"geometry":{"type":"Polygon","coordinates":[[[-78.9396472,35.9989853],[-78.9397375,35.9988605],[-78.939843,35.9987097],[-78.9397425,35.9986652],[-78.9396285,35.9988301],[-78.9396151,35.9988247],[-78.9395762,35.9988779],[-78.9395923,35.9988844],[-78.9395499,35.9989433],[-78.9396472,35.9989853]]]}},{"type":"Feature","id":337115832,"properties":{"osmId":337115832,"category":"residential","building":"dormitory","name":"Crowell  House CC","_wikiTried":true},"geometry":{"type":"Polygon","coordinates":[[[-78.9397425,35.9986652],[-78.9397492,35.9986522],[-78.9397089,35.9986327],[-78.9397612,35.9985556],[-78.9399026,35.9986176],[-78.9399369,35.9986327],[-78.939949,35.9986164],[-78.9400348,35.9986554],[-78.9400201,35.998675],[-78.9400925,35.9987086],[-78.9400321,35.9987911],[-78.939843,35.9987097],[-78.9397425,35.9986652]]]}},{"type":"Feature","id":337115835,"properties":{"osmId":337115835,"category":"residential","building":"dormitory","name":"Crowell House DD","_wikiTried":true},"geometry":{"type":"Polygon","coordinates":[[[-78.9400321,35.9987911],[-78.9400925,35.9987086],[-78.940303,35.998803],[-78.9403138,35.99879],[-78.9403728,35.9988171],[-78.9403621,35.9988334],[-78.9404452,35.9988703],[-78.9403889,35.9989506],[-78.9403417,35.9989295],[-78.9402367,35.9988825],[-78.9400321,35.9987911]]]}},{"type":"Feature","id":337115836,"properties":{"osmId":337115836,"category":"residential","building":"dormitory","name":"Crowell EE","_wikiTried":true},"geometry":{"type":"Polygon","coordinates":[[[-78.9403417,35.9989295],[-78.9401326,35.9992284],[-78.9400265,35.9991811],[-78.9402367,35.9988825],[-78.9403417,35.9989295]]]}},{"type":"Feature","id":337118689,"properties":{"osmId":337118689,"category":"residential","addr:city":"Durham","addr:housenumber":"419","addr:postcode":"27705","addr:state":"NC","addr:street":"Towerview Drive","building":"dormitory","name":"Edens Quad 1A","source:addr":"Durham Open Data","_wikiTried":true},"geometry":{"type":"Polygon","coordinates":[[[-78.9366542,35.9983221],[-78.9367717,35.9982839],[-78.9367806,35.9982997],[-78.936807,35.9983465],[-78.9367979,35.9983499],[-78.9368069,35.9983659],[-78.9368423,35.9983529],[-78.9369579,35.9985576],[-78.9369403,35.9985641],[-78.9369614,35.9986015],[-78.9368144,35.9986558],[-78.9367917,35.9986172],[-78.9367412,35.9985261],[-78.9367596,35.9985193],[-78.9367376,35.9984804],[-78.9367231,35.9984857],[-78.9366738,35.9983983],[-78.9366215,35.9984177],[-78.936602,35.9983831],[-78.9366487,35.9983658],[-78.9366274,35.9983302],[-78.9366542,35.9983221]]]}},{"type":"Feature","id":337118702,"properties":{"osmId":337118702,"category":"residential","addr:city":"Durham","addr:housenumber":"105","addr:postcode":"27705","addr:state":"NC","addr:street":"Edens Drive","building":"dormitory","name":"Edens Quad 3B","source:addr":"Durham Open Data","_wikiTried":true},"geometry":{"type":"Polygon","coordinates":[[[-78.9353256,35.9983452],[-78.9353112,35.9983614],[-78.935322,35.9983677],[-78.9352979,35.9983947],[-78.9353097,35.9984016],[-78.9352618,35.9984555],[-78.9352503,35.9984488],[-78.9352216,35.998481],[-78.935157,35.9984434],[-78.9351685,35.9984304],[-78.9351273,35.9984064],[-78.9351154,35.9984198],[-78.9350447,35.9983787],[-78.9350691,35.9983512],[-78.9350501,35.9983401],[-78.9350996,35.9982845],[-78.9351146,35.9982932],[-78.9351344,35.998271],[-78.9351071,35.9982551],[-78.935099,35.9982642],[-78.9350359,35.9982275],[-78.9350452,35.998217],[-78.9350028,35.9981924],[-78.9351123,35.9980691],[-78.9351466,35.9980891],[-78.9351543,35.9980804],[-78.9352334,35.9981264],[-78.9352242,35.9981367],[-78.9352653,35.9981606],[-78.9352565,35.9981706],[-78.9352829,35.998186],[-78.9352546,35.9982179],[-78.9352684,35.9982259],[-78.9352747,35.9982188],[-78.9352911,35.9982283],[-78.9353178,35.9982439],[-78.9352835,35.9982824],[-78.9353497,35.9983213],[-78.9353256,35.9983452]]]}},{"type":"Feature","id":337119073,"properties":{"osmId":337119073,"category":"residential","addr:city":"Durham","addr:housenumber":"117","addr:postcode":"27705","addr:state":"NC","addr:street":"Edens Drive","building":"dormitory","name":"Edens Quad 2C","source:addr":"Durham Open Data","_wikiTried":true},"geometry":{"type":"Polygon","coordinates":[[[-78.9361198,35.998896],[-78.9361642,35.9988472],[-78.936133,35.9988286],[-78.9361117,35.9988519],[-78.9360703,35.9988273],[-78.9361116,35.9987819],[-78.936146,35.9988024],[-78.9362069,35.9987353],[-78.9361628,35.9987091],[-78.9361834,35.9986864],[-78.9362391,35.9987196],[-78.9362575,35.9986993],[-78.9363875,35.9987766],[-78.9363563,35.9988109],[-78.9363428,35.9988029],[-78.9363357,35.9988106],[-78.9363709,35.9988316],[-78.9363341,35.9988722],[-78.9363139,35.9988943],[-78.9363357,35.9989073],[-78.9363227,35.9989216],[-78.936359,35.9989432],[-78.9363048,35.9990027],[-78.9362656,35.9989794],[-78.9362578,35.9989879],[-78.9362698,35.9989951],[-78.9362293,35.9990397],[-78.9361269,35.9989788],[-78.936141,35.9989633],[-78.9360869,35.9989302],[-78.9361198,35.998896]]]}},{"type":"Feature","id":391474817,"properties":{"osmId":391474817,"category":"library","addr:city":"Durham","addr:housenumber":"411","addr:postcode":"27705","addr:state":"NC","addr:street":"Chapel Drive","amenity":"library","building":"yes","name":"Perkins Library","operator:type":"university","source:addr":"Durham Open Data","_wikiTried":true},"geometry":{"type":"Polygon","coordinates":[[[-78.9383208,36.0020154],[-78.9383447,36.0020263],[-78.938459,36.001862],[-78.9385743,36.0019144],[-78.9385476,36.0019527],[-78.9386996,36.0020218],[-78.9386583,36.0020811],[-78.9389867,36.0022307],[-78.9389378,36.0023009],[-78.9390211,36.0023388],[-78.9388092,36.0026433],[-78.9387119,36.0025991],[-78.9386662,36.0026648],[-78.9385195,36.0025981],[-78.9384744,36.002663],[-78.9382075,36.0025415],[-78.9383055,36.0024006],[-78.9382299,36.0023661],[-78.9382374,36.0023553],[-78.938373,36.0021604],[-78.9383951,36.0021287],[-78.9383003,36.0020855],[-78.9382788,36.0020757],[-78.9383208,36.0020154]]]}},{"type":"Feature","id":547286844,"properties":{"osmId":547286844,"category":"academic","addr:city":"Durham","addr:housenumber":"101","addr:postcode":"27705","addr:state":"NC","addr:street":"Circuit Drive","building":"university","source:addr":"Durham Open Data"},"geometry":{"type":"Polygon","coordinates":[[[-78.943394,36.0045711],[-78.9433508,36.0045854],[-78.9433594,36.0046025],[-78.9434335,36.0047499],[-78.9435216,36.004925],[-78.9437844,36.0048385],[-78.9437546,36.0047793],[-78.9441833,36.0046381],[-78.9441971,36.0046655],[-78.9442626,36.004644],[-78.944109,36.0043387],[-78.9440211,36.0043677],[-78.943394,36.0045711]]]}},{"type":"Feature","id":547286851,"properties":{"osmId":547286851,"category":"academic","building":"university","name":"Triangle Universities Nuclear Laboratory Building","_wikiTried":true},"geometry":{"type":"Polygon","coordinates":[[[-78.9428474,36.0039891],[-78.9427779,36.0041111],[-78.9430379,36.0042081],[-78.9431056,36.0040855],[-78.9428474,36.0039891]]]}},{"type":"Feature","id":547286868,"properties":{"osmId":547286868,"category":"academic","building":"university","name":"Free Electron Laser Lab","_wikiTried":true},"geometry":{"type":"Polygon","coordinates":[[[-78.9434335,36.0047499],[-78.9433594,36.0046025],[-78.9432499,36.0046386],[-78.9432611,36.0046609],[-78.9428882,36.0047837],[-78.9429082,36.0048235],[-78.9429222,36.0048189],[-78.9429524,36.004879],[-78.9429672,36.0048741],[-78.9429798,36.0048992],[-78.9434335,36.0047499]]]}},{"type":"Feature","id":547286870,"properties":{"osmId":547286870,"category":"academic","building":"university"},"geometry":{"type":"Polygon","coordinates":[[[-78.9440211,36.0043677],[-78.944012,36.0043497],[-78.9439198,36.0043801],[-78.9438463,36.0042341],[-78.9437457,36.0042672],[-78.9437959,36.0043671],[-78.9437175,36.0043929],[-78.9437104,36.0043787],[-78.9436896,36.0043856],[-78.9436776,36.0043617],[-78.9436288,36.0043778],[-78.9436407,36.0044013],[-78.9436202,36.0044081],[-78.9436272,36.0044219],[-78.9435468,36.0044483],[-78.9434962,36.0043478],[-78.9433942,36.0043814],[-78.9434673,36.0045267],[-78.9433853,36.0045537],[-78.943394,36.0045711],[-78.9440211,36.0043677]]]}},{"type":"Feature","id":547286873,"properties":{"osmId":547286873,"category":"academic","building":"university","name":"Environment Hall","_wikiTried":true},"geometry":{"type":"Polygon","coordinates":[[[-78.9430654,36.0046203],[-78.942991,36.004457],[-78.9426409,36.0045677],[-78.9423124,36.0047049],[-78.9424125,36.0048619],[-78.9427114,36.0047391],[-78.9430654,36.0046203]]]}},{"type":"Feature","id":553578352,"properties":{"osmId":553578352,"category":"academic","addr:city":"Durham","addr:housenumber":"2020","addr:postcode":"27705","addr:state":"NC","addr:street":"Campus Drive","building":"university","building:levels":"2","name":"Rubenstein Arts Center","phone":"+1-919-660-1700","source:addr":"Durham Open Data","website":"https://artscenter.duke.edu/","_wikiTried":true},"geometry":{"type":"Polygon","coordinates":[[[-78.9299208,36.0004902],[-78.929723,36.0004656],[-78.9297099,36.0005347],[-78.9292229,36.0004741],[-78.9292687,36.0002336],[-78.9291441,36.000218],[-78.9291086,36.0004045],[-78.9289536,36.0003851],[-78.9289935,36.000175],[-78.9291357,36.0001927],[-78.9291559,36.0000867],[-78.9294667,36.0001254],[-78.9294762,36.0000751],[-78.9296417,36.0000957],[-78.9296125,36.0002496],[-78.9297535,36.0002672],[-78.9297666,36.0001981],[-78.9299716,36.0002236],[-78.9299208,36.0004902]]]}},{"type":"Feature","id":625303125,"properties":{"osmId":625303125,"category":"athletic","addr:city":"Durham","addr:housenumber":"110","addr:postcode":"27705","addr:state":"NC","addr:street":"Whitford Drive","building":"yes","leisure":"sports_centre","name":"William D Murray Building","source":"survey","source:addr":"Durham Open Data","_wikiTried":true},"geometry":{"type":"Polygon","coordinates":[[[-78.9427907,35.9961348],[-78.942955,35.9961918],[-78.9429509,35.9961995],[-78.9429852,35.9962114],[-78.9429891,35.9962041],[-78.9431825,35.9962713],[-78.9430701,35.9964848],[-78.9430666,35.9964915],[-78.942698,35.9963632],[-78.9426747,35.9963552],[-78.9427907,35.9961348]]]}},{"type":"Feature","id":625303127,"properties":{"osmId":625303127,"category":"athletic","addr:city":"Durham","addr:housenumber":"110","addr:postcode":"27705","addr:state":"NC","addr:street":"Whitford Drive","building":"yes","leisure":"sports_centre","name":"Scott Family Pavilion","source":"survey","source:addr":"Durham Open Data","_wikiTried":true},"geometry":{"type":"Polygon","coordinates":[[[-78.942965,35.9968129],[-78.9428615,35.9967641],[-78.9425668,35.996625],[-78.9425138,35.9966],[-78.9426742,35.996375],[-78.9426882,35.9963815],[-78.942698,35.9963632],[-78.9430666,35.9964915],[-78.9430701,35.9964848],[-78.9430975,35.9964941],[-78.9430898,35.9965093],[-78.9430853,35.9965077],[-78.9430673,35.9965426],[-78.9430729,35.9965444],[-78.9430659,35.9965589],[-78.9431373,35.9965926],[-78.9429963,35.9967901],[-78.9429849,35.9967852],[-78.942965,35.9968129]]]}},{"type":"Feature","id":625303136,"properties":{"osmId":625303136,"category":"other","access":"private","addr:city":"Durham","addr:housenumber":"302","addr:postcode":"27705","addr:state":"NC","addr:street":"Science Drive","amenity":"parking","building":"parking","capacity":"2263","name":"Science Drive Garage","operator":"Duke University","parking":"multi-storey","source:addr":"Survey","_wikiTried":true},"geometry":{"type":"Polygon","coordinates":[[[-78.948686,35.9965075],[-78.9482082,35.9970018],[-78.9479513,35.9968395],[-78.947901,35.9968918],[-78.9478937,35.9968871],[-78.9478952,35.9968844],[-78.947797,35.9968251],[-78.9478128,35.9968087],[-78.9471559,35.9963922],[-78.9470968,35.9963533],[-78.9469452,35.9962569],[-78.9470926,35.9961051],[-78.9470418,35.9960728],[-78.9470614,35.9960524],[-78.9470707,35.996058],[-78.9470791,35.9960472],[-78.9470271,35.9960141],[-78.9470432,35.9959974],[-78.9470615,35.9959784],[-78.9471135,35.9960115],[-78.9471247,35.9960024],[-78.9471155,35.9959963],[-78.9471351,35.9959759],[-78.9471859,35.9960082],[-78.9474572,35.9957256],[-78.9484794,35.996376],[-78.948686,35.9965075]]]}},{"type":"Feature","id":625303137,"properties":{"osmId":625303137,"category":"athletic","addr:city":"Durham","addr:housenumber":"110","addr:postcode":"27708","addr:state":"NC","addr:street":"Bassett Dr","building":"stadium","source":"survey"},"geometry":{"type":"Polygon","coordinates":[[[-78.9411388,35.9960687],[-78.9410471,35.9959557],[-78.940957,35.9958178],[-78.9409098,35.9957249],[-78.9408816,35.9956582],[-78.940828,35.9954871],[-78.9408063,35.9953708],[-78.9407998,35.9953057],[-78.9408039,35.9951057],[-78.9408266,35.9949659],[-78.9408474,35.9948902],[-78.9408647,35.9948448],[-78.9410911,35.9948953],[-78.9411109,35.9948997],[-78.9411538,35.9950426],[-78.941261,35.9950561],[-78.9412489,35.9951388],[-78.9412449,35.9952221],[-78.9412489,35.9953053],[-78.941261,35.995388],[-78.9412809,35.9954698],[-78.9413087,35.99555],[-78.9413441,35.9956281],[-78.9413869,35.9957038],[-78.9414369,35.9957765],[-78.9414938,35.9958459],[-78.9414242,35.9958886],[-78.9415072,35.9959675],[-78.9415808,35.9960119],[-78.9416248,35.9960303],[-78.9416509,35.9960386],[-78.9416862,35.9959618],[-78.9417258,35.9959726],[-78.9417729,35.9959791],[-78.9418212,35.9959802],[-78.9418693,35.9959763],[-78.9419164,35.9959674],[-78.9419617,35.9959536],[-78.9420044,35.9959352],[-78.9420432,35.9959123],[-78.9420756,35.995887],[-78.9421477,35.9959449],[-78.9421857,35.9959064],[-78.9422327,35.9958304],[-78.9422645,35.9957473],[-78.9422692,35.9957183],[-78.9421849,35.9957082],[-78.9421977,35.9956258],[-78.9422022,35.9955428],[-78.9421985,35.9954597],[-78.9421865,35.9953772],[-78.9421665,35.9952957],[-78.9421383,35.9952158],[-78.9421024,35.9951381],[-78.9420588,35.9950629],[-78.9420079,35.9949908],[-78.94195,35.9949223],[-78.942037,35.9948701],[-78.9419947,35.994726],[-78.9420074,35.9947127],[-78.9421306,35.9946233],[-78.9421833,35.9945851],[-78.9422522,35.9946478],[-78.9423148,35.9947136],[-78.942397,35.9948162],[-78.9424069,35.9948311],[-78.9424765,35.9949356],[-78.9425046,35.9949901],[-78.9425136,35.9950203],[-78.94254,35.9950593],[-78.9425819,35.9951653],[-78.9426121,35.9952685],[-78.9426321,35.9953679],[-78.9426461,35.9955278],[-78.9426442,35.9956319],[-78.942643,35.9956422],[-78.9426153,35.9958044],[-78.9425896,35.9958903],[-78.9425696,35.9959425],[-78.9425488,35.99598],[-78.9424895,35.996064],[-78.942429,35.9961283],[-78.9423578,35.9961875],[-78.9422252,35.996266],[-78.9421988,35.9962778],[-78.9421162,35.9963062],[-78.9418852,35.996352],[-78.9417361,35.9963511],[-78.9416523,35.9963408],[-78.9415547,35.9963227],[-78.9414459,35.9962857],[-78.9413037,35.9962124],[-78.9412288,35.9961572],[-78.9411388,35.9960687]]]}},{"type":"Feature","id":626679795,"properties":{"osmId":626679795,"category":"academic","addr:city":"Durham","addr:housenumber":"406","addr:postcode":"27705","addr:state":"NC","addr:street":"Chapel Drive","building":"university","building:levels":"4","name":"Richard H. Brodhead Center, West Union","source":"survey","source:addr":"Durham Open Data","_wikiTried":true},"geometry":{"type":"Polygon","coordinates":[[[-78.9396994,36.0006552],[-78.9397369,36.0006026],[-78.9397435,36.0006057],[-78.9397501,36.0006006],[-78.9397588,36.0006047],[-78.9397557,36.000609],[-78.9398146,36.0006367],[-78.9398177,36.0006324],[-78.9398264,36.0006365],[-78.9398242,36.0006436],[-78.9398308,36.0006467],[-78.9398177,36.0006651],[-78.9398221,36.0006672],[-78.9398074,36.0006795],[-78.9398118,36.0006816],[-78.939807,36.0006883],[-78.9398026,36.0006863],[-78.9397938,36.0006987],[-78.9397863,36.0007092],[-78.9397907,36.0007112],[-78.9397859,36.000718],[-78.9397815,36.0007159],[-78.9397773,36.0007218],[-78.9397741,36.0007203],[-78.9397665,36.000731],[-78.9397697,36.0007325],[-78.9397652,36.0007388],[-78.9397696,36.0007409],[-78.9397648,36.0007476],[-78.9397604,36.0007455],[-78.9397441,36.0007685],[-78.9397484,36.0007705],[-78.9397437,36.0007772],[-78.9397393,36.0007752],[-78.9397229,36.0007981],[-78.9397273,36.0008002],[-78.9397225,36.0008069],[-78.9397182,36.0008048],[-78.9397018,36.0008277],[-78.9397062,36.0008298],[-78.9397014,36.0008365],[-78.939697,36.0008345],[-78.9396807,36.0008574],[-78.9396851,36.0008595],[-78.9396803,36.0008662],[-78.9396759,36.0008641],[-78.9396585,36.0008886],[-78.9396616,36.0008925],[-78.9396568,36.0008992],[-78.9396524,36.0008971],[-78.9396465,36.0009136],[-78.9396421,36.0009115],[-78.9396241,36.0009368],[-78.9396285,36.0009389],[-78.939621,36.0009493],[-78.9396113,36.0009448],[-78.9395972,36.0009645],[-78.9396069,36.0009691],[-78.9396009,36.0009776],[-78.9395965,36.0009756],[-78.9395785,36.0010009],[-78.9395828,36.0010029],[-78.9395781,36.0010096],[-78.9395737,36.0010076],[-78.9395557,36.0010329],[-78.93956,36.0010349],[-78.9395552,36.0010417],[-78.9395509,36.0010396],[-78.9395328,36.0010649],[-78.9395372,36.0010669],[-78.9395324,36.0010737],[-78.9395281,36.0010716],[-78.93951,36.001097],[-78.9395143,36.0010991],[-78.9394777,36.0011505],[-78.9394733,36.0011485],[-78.9394705,36.0011524],[-78.9394597,36.0011547],[-78.93945,36.0011502],[-78.9394471,36.0011414],[-78.9394007,36.0011196],[-78.9393899,36.0011219],[-78.9393802,36.0011173],[-78.9393773,36.0011086],[-78.939382,36.0011021],[-78.9393567,36.0010902],[-78.9393541,36.0010937],[-78.9393466,36.0010902],[-78.9393491,36.0010866],[-78.9393448,36.0010846],[-78.9393494,36.0010781],[-78.9393538,36.0010801],[-78.9393705,36.0010566],[-78.9393662,36.0010545],[-78.9393693,36.0010502],[-78.9393584,36.0010451],[-78.9393497,36.001041],[-78.9393466,36.0010453],[-78.9393386,36.0010416],[-78.9393417,36.0010372],[-78.9393195,36.0010268],[-78.9393164,36.0010311],[-78.9393084,36.0010274],[-78.9393115,36.001023],[-78.9392897,36.0010128],[-78.9392866,36.0010171],[-78.9392786,36.0010134],[-78.9392817,36.001009],[-78.9392601,36.0009988],[-78.939257,36.0010032],[-78.9392489,36.0009994],[-78.939252,36.000995],[-78.9392301,36.0009847],[-78.939227,36.0009891],[-78.939219,36.0009853],[-78.9392221,36.000981],[-78.9392,36.0009706],[-78.9391969,36.0009749],[-78.9391889,36.0009711],[-78.939192,36.0009668],[-78.9391706,36.0009567],[-78.9391675,36.0009611],[-78.9391594,36.0009573],[-78.9391625,36.0009529],[-78.9391404,36.0009425],[-78.9391373,36.0009469],[-78.9391293,36.0009431],[-78.9391324,36.0009387],[-78.9391243,36.0009349],[-78.9391102,36.0009283],[-78.9391036,36.0009331],[-78.939073,36.0009187],[-78.9390704,36.0009223],[-78.939053,36.0009259],[-78.9390482,36.0009327],[-78.9390324,36.0009252],[-78.9390372,36.0009185],[-78.9390336,36.0009028],[-78.9390286,36.0008978],[-78.9390035,36.000886],[-78.9389957,36.000885],[-78.9389932,36.0008884],[-78.9389548,36.0008704],[-78.9389793,36.0008359],[-78.9389745,36.0008336],[-78.9389812,36.0008241],[-78.9389861,36.0008264],[-78.9390005,36.0008062],[-78.9389956,36.0008039],[-78.9390024,36.0007945],[-78.9390072,36.0007967],[-78.9390274,36.0007684],[-78.9390391,36.0007739],[-78.9391309,36.0006451],[-78.9391009,36.0006311],[-78.9391223,36.000601],[-78.9391523,36.0006151],[-78.9392415,36.0004899],[-78.9392196,36.0004823],[-78.9392235,36.0004768],[-78.9392177,36.0004741],[-78.9392227,36.000467],[-78.9392286,36.0004697],[-78.9392603,36.0004253],[-78.9392544,36.0004225],[-78.9392595,36.0004154],[-78.9392653,36.0004181],[-78.9392693,36.0004126],[-78.9392977,36.0004278],[-78.9393274,36.0003861],[-78.939404,36.0004222],[-78.9393833,36.0004512],[-78.9394207,36.0004688],[-78.9394235,36.0004648],[-78.9394327,36.0004692],[-78.9394299,36.0004731],[-78.9394348,36.0004754],[-78.9394294,36.0004829],[-78.9394245,36.0004807],[-78.9393992,36.0005162],[-78.9394228,36.0005273],[-78.9394584,36.0005441],[-78.9394948,36.0004904],[-78.9396785,36.0005764],[-78.9396413,36.0006301],[-78.9396687,36.0006419],[-78.9396787,36.0006462],[-78.9396994,36.0006552]]]}},{"type":"Feature","id":626679803,"properties":{"osmId":626679803,"category":"academic","addr:city":"Durham","addr:country":"US","addr:housenumber":"125","addr:postcode":"27705","addr:state":"NC","addr:street":"Science Drive","building":"university","building:levels":"3","name":"Bryan Center","roof:levels":"0","source":"survey","_wikiTried":true},"geometry":{"type":"Polygon","coordinates":[[[-78.941116,36.001217],[-78.9411022,36.0012378],[-78.9410822,36.0012288],[-78.9410646,36.0012208],[-78.9410782,36.0011991],[-78.94106,36.0011905],[-78.9409072,36.0014055],[-78.9408079,36.0013584],[-78.940833,36.0013225],[-78.9407451,36.0012812],[-78.9407702,36.0012457],[-78.9405066,36.0011226],[-78.9405639,36.0010417],[-78.9406102,36.0010634],[-78.9406596,36.0009919],[-78.9407024,36.001012],[-78.9407221,36.0009838],[-78.9407464,36.000949],[-78.9405796,36.0008712],[-78.9406056,36.0008354],[-78.9405086,36.0007904],[-78.9405334,36.0007544],[-78.9403576,36.000671],[-78.9404144,36.0005918],[-78.9404435,36.0006053],[-78.9404934,36.0005338],[-78.9405235,36.0005471],[-78.9405742,36.0004778],[-78.9406031,36.0004899],[-78.9406551,36.0004187],[-78.9407424,36.00046],[-78.9407591,36.0004361],[-78.9408578,36.0004822],[-78.9407921,36.000577],[-78.9408535,36.0006056],[-78.9407697,36.0007223],[-78.940786,36.0007297],[-78.940817,36.0006839],[-78.9411826,36.000852],[-78.9411307,36.0009261],[-78.9412175,36.0009661],[-78.9412103,36.0009773],[-78.9412863,36.0010135],[-78.9412935,36.0010026],[-78.9413383,36.0010235],[-78.9413629,36.0009865],[-78.9414072,36.0010077],[-78.9414317,36.0009722],[-78.9414765,36.0009924],[-78.9415019,36.0009576],[-78.9415485,36.0009791],[-78.9415717,36.000945],[-78.9417197,36.0010141],[-78.9417021,36.001039],[-78.9418161,36.0010893],[-78.9418344,36.001062],[-78.9420342,36.0011543],[-78.9420251,36.0011683],[-78.9420198,36.0011659],[-78.941902,36.0013337],[-78.9418605,36.0013134],[-78.9416762,36.0015707],[-78.9415046,36.0014917],[-78.9415232,36.0014601],[-78.9414728,36.0014368],[-78.9414623,36.0014526],[-78.9414032,36.0014244],[-78.9413922,36.0014385],[-78.9413331,36.0014107],[-78.9413221,36.0014249],[-78.9412525,36.0013923],[-78.9412639,36.0013765],[-78.9410885,36.0012958],[-78.941136,36.0012264],[-78.941116,36.001217]]]}},{"type":"Feature","id":626679812,"properties":{"osmId":626679812,"category":"academic","addr:city":"Durham","addr:housenumber":"305","addr:postcode":"27705","addr:state":"NC","addr:street":"Towerview Drive","building":"school","name":"Duke Student Health Center","source":"survey","source:addr":"Durham Open Data","website":"https://studentaffairs.duke.edu/studenthealth","_wikiTried":true},"geometry":{"type":"Polygon","coordinates":[[[-78.9412404,35.9996116],[-78.9412939,35.999636],[-78.941327,35.9995882],[-78.9413127,35.9995817],[-78.9413122,35.9995778],[-78.9413729,35.9994146],[-78.9413773,35.999404],[-78.9414388,35.9993183],[-78.9415316,35.9993596],[-78.9415486,35.9993672],[-78.9415229,35.9994033],[-78.9422039,35.9997163],[-78.9420667,35.99991],[-78.9413947,35.9996003],[-78.9413825,35.9996177],[-78.9413782,35.9996158],[-78.9413469,35.9996607],[-78.9414394,35.9997034],[-78.9413006,35.9999012],[-78.9410623,35.999792],[-78.9412404,35.9996116]]]}},{"type":"Feature","id":626679838,"properties":{"osmId":626679838,"category":"academic","addr:city":"Durham","addr:housenumber":"401","addr:postcode":"27705","addr:state":"NC","addr:street":"Chapel Drive","amenity":"place_of_worship","building":"university","name":"Duke Chapel","opening_hours":"10:00-20:00","religion":"christian","source":"survey","source:addr":"Durham Open Data","wikidata":"Q5312747","_wikiTried":true},"geometry":{"type":"Polygon","coordinates":[[[-78.9403925,36.0021041],[-78.9403898,36.0021079],[-78.9403481,36.0020884],[-78.9403422,36.0020967],[-78.9403217,36.0020872],[-78.9403171,36.0020937],[-78.9403376,36.0021033],[-78.9403284,36.0021163],[-78.9403108,36.0021082],[-78.940307,36.0021135],[-78.940299,36.0021097],[-78.9402872,36.0021264],[-78.9402711,36.0021189],[-78.9402829,36.0021022],[-78.9401914,36.0020595],[-78.9401785,36.0020756],[-78.9401624,36.0020681],[-78.9401742,36.0020515],[-78.9401661,36.0020477],[-78.9401699,36.0020424],[-78.9401523,36.0020342],[-78.9401616,36.0020211],[-78.9401821,36.0020307],[-78.9401867,36.0020241],[-78.9401662,36.0020146],[-78.9401754,36.0020015],[-78.9401959,36.0020111],[-78.9402176,36.0019804],[-78.9401708,36.0019585],[-78.9401658,36.0019656],[-78.9401497,36.0019581],[-78.9401547,36.001951],[-78.9401128,36.0019314],[-78.9401078,36.0019386],[-78.9400917,36.001931],[-78.9400967,36.0019239],[-78.9400548,36.0019043],[-78.9400497,36.0019115],[-78.9400337,36.001904],[-78.9400387,36.0018968],[-78.9399968,36.0018773],[-78.9399917,36.0018844],[-78.9399756,36.0018769],[-78.9399807,36.0018697],[-78.9399387,36.0018502],[-78.9399337,36.0018573],[-78.9399176,36.0018498],[-78.9399226,36.0018427],[-78.9398807,36.0018231],[-78.939876,36.0018298],[-78.9398718,36.0018279],[-78.9398648,36.0018378],[-78.9398495,36.0018412],[-78.9398358,36.0018348],[-78.9398317,36.0018223],[-78.9398387,36.0018124],[-78.9398345,36.0018105],[-78.9398384,36.0018049],[-78.939806,36.0017898],[-78.9398038,36.001793],[-78.93979,36.0017905],[-78.9398106,36.0017613],[-78.9397798,36.001747],[-78.9397824,36.0017434],[-78.939775,36.00174],[-78.9397776,36.0017365],[-78.9397703,36.0017331],[-78.9397586,36.0017495],[-78.9397381,36.0017399],[-78.9397498,36.0017235],[-78.9397437,36.0017206],[-78.9397472,36.0017157],[-78.9397326,36.0017089],[-78.9397931,36.0016233],[-78.9398077,36.0016301],[-78.9398112,36.0016252],[-78.9398173,36.001628],[-78.9398289,36.0016116],[-78.9398494,36.0016211],[-78.9398378,36.0016376],[-78.9398549,36.0016408],[-78.9398574,36.0016373],[-78.9398881,36.0016516],[-78.9399087,36.0016225],[-78.9399183,36.0016309],[-78.9399161,36.0016341],[-78.9399485,36.0016492],[-78.9399524,36.0016437],[-78.9399566,36.0016456],[-78.9399636,36.0016357],[-78.9399789,36.0016323],[-78.9399926,36.0016387],[-78.9399967,36.0016512],[-78.9399897,36.0016611],[-78.9399939,36.001663],[-78.9399891,36.0016698],[-78.940031,36.0016893],[-78.9400361,36.0016822],[-78.9400522,36.0016897],[-78.9400471,36.0016968],[-78.9400891,36.0017164],[-78.9400941,36.0017093],[-78.9401102,36.0017168],[-78.9401052,36.0017239],[-78.9401471,36.0017435],[-78.9401521,36.0017364],[-78.9401682,36.0017439],[-78.9401632,36.001751],[-78.9402051,36.0017706],[-78.9402102,36.0017635],[-78.9402262,36.001771],[-78.9402212,36.0017781],[-78.9402631,36.0017977],[-78.9402682,36.0017905],[-78.9402843,36.001798],[-78.9402792,36.0018052],[-78.940326,36.001827],[-78.9403477,36.0017963],[-78.9403273,36.0017868],[-78.9403365,36.0017737],[-78.940357,36.0017832],[-78.9403616,36.0017767],[-78.9403411,36.0017672],[-78.9403504,36.0017541],[-78.9403679,36.0017623],[-78.9403717,36.0017569],[-78.9403793,36.0017605],[-78.9403916,36.0017441],[-78.9404076,36.0017515],[-78.9403958,36.0017682],[-78.9404322,36.0017852],[-78.9404885,36.0018114],[-78.9405002,36.0017948],[-78.9405163,36.0018023],[-78.9405046,36.0018189],[-78.9405126,36.0018227],[-78.9405088,36.001828],[-78.9405183,36.0018325],[-78.9405213,36.0018283],[-78.940533,36.0018338],[-78.94053,36.0018379],[-78.9405491,36.0018468],[-78.940552,36.0018427],[-78.9405637,36.0018481],[-78.9405608,36.0018523],[-78.9405798,36.0018612],[-78.9405827,36.001857],[-78.9405944,36.0018625],[-78.9405915,36.0018666],[-78.9406105,36.0018755],[-78.9406134,36.0018713],[-78.9406251,36.0018768],[-78.9406222,36.001881],[-78.9406376,36.0018934],[-78.9406427,36.001891],[-78.9406495,36.0019005],[-78.9406444,36.0019029],[-78.9406501,36.00192],[-78.940656,36.00192],[-78.940656,36.0019309],[-78.9406501,36.0019309],[-78.9406445,36.001948],[-78.9406496,36.0019504],[-78.9406429,36.0019599],[-78.9406378,36.0019575],[-78.9406224,36.0019701],[-78.9406328,36.0019765],[-78.9406218,36.001992],[-78.9406299,36.0019957],[-78.9406253,36.0020023],[-78.9406458,36.0020118],[-78.9406365,36.0020249],[-78.940616,36.0020154],[-78.9405639,36.002089],[-78.9405844,36.0020986],[-78.9405752,36.0021117],[-78.9405547,36.0021021],[-78.9405501,36.0021087],[-78.940542,36.0021049],[-78.9405311,36.0021204],[-78.940515,36.0021128],[-78.9405259,36.0020974],[-78.9404855,36.0020785],[-78.9404745,36.0020939],[-78.9404687,36.0020912],[-78.9404429,36.0021277],[-78.9403925,36.0021041]]]}},{"type":"Feature","id":697182706,"properties":{"osmId":697182706,"category":"residential","addr:housenumber":"101","addr:street":"Wannamaker Dorm Ln","building":"dormitory","name":"Wannamaker 3","_wikiTried":true},"geometry":{"type":"Polygon","coordinates":[[[-78.9390905,35.9988483],[-78.9391964,35.9986954],[-78.9390563,35.9986318],[-78.9389471,35.998781],[-78.9390905,35.9988483]]]}},{"type":"Feature","id":697182707,"properties":{"osmId":697182707,"category":"residential","building":"dormitory","name":"Wannamaker 2","_wikiTried":true},"geometry":{"type":"Polygon","coordinates":[[[-78.9391964,35.9986954],[-78.9392425,35.9986321],[-78.939256,35.9986379],[-78.939279,35.998604],[-78.9392661,35.998598],[-78.9393223,35.998524],[-78.9391807,35.9984591],[-78.9391252,35.9985362],[-78.9391163,35.9985317],[-78.9390932,35.9985629],[-78.9391028,35.9985674],[-78.9390563,35.9986318],[-78.9391964,35.9986954]]]}},{"type":"Feature","id":697182708,"properties":{"osmId":697182708,"category":"residential","building":"dormitory","name":"Wannamaker 1","_wikiTried":true},"geometry":{"type":"Polygon","coordinates":[[[-78.9393223,35.998524],[-78.9393854,35.9984267],[-78.939402,35.998434],[-78.9394665,35.9983471],[-78.9392967,35.9982684],[-78.9392485,35.9983332],[-78.9392649,35.9983409],[-78.9391807,35.9984591],[-78.9393223,35.998524]]]}},{"type":"Feature","id":697183785,"properties":{"osmId":697183785,"category":"residential","building":"dormitory","name":"Keohane 4B","_wikiTried":true},"geometry":{"type":"Polygon","coordinates":[[[-78.9377858,35.999457],[-78.9376552,35.9993936],[-78.9379533,35.9989781],[-78.9379294,35.9989394],[-78.9380121,35.9988338],[-78.9380404,35.9988465],[-78.9381083,35.9987507],[-78.9382401,35.998811],[-78.9381731,35.9988989],[-78.9382471,35.9989341],[-78.9381666,35.9990415],[-78.9381252,35.9990556],[-78.9380861,35.999045],[-78.9380687,35.9990415],[-78.9377858,35.999457]]]}},{"type":"Feature","id":697183786,"properties":{"osmId":697183786,"category":"residential","building":"dormitory","name":"Keohane 4A","_wikiTried":true},"geometry":{"type":"Polygon","coordinates":[[[-78.9382401,35.998811],[-78.9383547,35.9986472],[-78.93822,35.9985855],[-78.9381783,35.9986452],[-78.9377744,35.9984602],[-78.9377015,35.9985644],[-78.9381083,35.9987507],[-78.9382401,35.998811]]]}},{"type":"Feature","id":719031966,"properties":{"osmId":719031966,"category":"residential","building":"dormitory"},"geometry":{"type":"Polygon","coordinates":[[[-78.9383435,35.9979192],[-78.9378383,35.9976851],[-78.9378001,35.997739],[-78.9374971,35.9975986],[-78.937397,35.9977399],[-78.9376775,35.9978699],[-78.9374729,35.9981589],[-78.9377933,35.9983074],[-78.937821,35.9982682],[-78.9380041,35.9983531],[-78.9382877,35.9979527],[-78.9383119,35.9979639],[-78.9383435,35.9979192]]]}},{"type":"Feature","id":719031967,"properties":{"osmId":719031967,"category":"residential","building":"dormitory","building:levels":"6","roof:levels":"0"},"geometry":{"type":"Polygon","coordinates":[[[-78.9372422,35.9976118],[-78.9372761,35.9975634],[-78.9372346,35.9975444],[-78.9372577,35.9975113],[-78.9368079,35.9973051],[-78.9367909,35.9973294],[-78.9366604,35.9972696],[-78.936562,35.9974101],[-78.9365791,35.9974179],[-78.9364911,35.9975434],[-78.9365071,35.9975508],[-78.9364137,35.9976842],[-78.9367207,35.9978249],[-78.9369313,35.9975242],[-78.9371608,35.9976294],[-78.93719,35.9975879],[-78.9372422,35.9976118]]]}},{"type":"Feature","id":822682382,"properties":{"osmId":822682382,"category":"athletic","building":"grandstand"},"geometry":{"type":"Polygon","coordinates":[[[-78.9434866,35.9959032],[-78.9434155,35.9958839],[-78.9436176,35.9953972],[-78.9436887,35.9954165],[-78.9434866,35.9959032]]]}},{"type":"Feature","id":822682383,"properties":{"osmId":822682383,"category":"athletic","building":"grandstand","layer":"1"},"geometry":{"type":"Polygon","coordinates":[[[-78.9447411,35.9956577],[-78.9445501,35.995606],[-78.9442851,35.9962473],[-78.9444761,35.9962989],[-78.9447411,35.9956577]]]}},{"type":"Feature","id":1157040430,"properties":{"osmId":1157040430,"category":"academic","addr:city":"Durham","addr:housenumber":"534","addr:postcode":"27708","addr:state":"NC","addr:street":"Research Drive","building":"university","building:levels":"4","layer":"1","name":"Wilkinson Building","_wikiTried":true},"geometry":{"type":"Polygon","coordinates":[[[-78.9381997,36.0037937],[-78.9380951,36.003746],[-78.9381273,36.0036874],[-78.937674,36.0034487],[-78.9377196,36.0033923],[-78.9376606,36.0033663],[-78.9378081,36.0031992],[-78.9378483,36.0032144],[-78.9379182,36.003134],[-78.93838,36.0033419],[-78.9383069,36.0034418],[-78.9384356,36.0035022],[-78.9381997,36.0037937]]]}},{"type":"Feature","id":1467685900,"properties":{"osmId":1467685900,"category":"athletic","building":"grandstand","layer":"1"},"geometry":{"type":"Polygon","coordinates":[[[-78.9405195,35.9978451],[-78.9405491,35.9979345],[-78.9397991,35.9981159],[-78.9397662,35.9980281],[-78.9405195,35.9978451]]]}}]}