{"type":"FeatureCollection","features":[{"type":"Feature","id":25509346,"properties":{"osmId":25509346,"category":"other","amenity":"parking","building":"parking","name":"Starvine Parking Deck","operator":"Emory University","parking":"multi-storey"},"geometry":{"type":"Polygon","coordinates":[[[-84.3091062,33.7958193],[-84.3090021,33.7956056],[-84.3090248,33.7955984],[-84.309035,33.7956179],[-84.3091036,33.7955942],[-84.3090317,33.7954523],[-84.3089672,33.7954746],[-84.3089807,33.7954967],[-84.308972,33.7954995],[-84.3089336,33.7954513],[-84.3089035,33.7954619],[-84.3088333,33.7953247],[-84.3086558,33.7953908],[-84.308492,33.7954618],[-84.308364,33.7955226],[-84.308232,33.7955934],[-84.3081326,33.7956557],[-84.3080361,33.7957168],[-84.3079095,33.7958052],[-84.307731,33.7959507],[-84.3075796,33.796095],[-84.3074544,33.7962355],[-84.3073401,33.7963779],[-84.3072354,33.7965256],[-84.3071844,33.7966095],[-84.3073303,33.7966708],[-84.3075192,33.7967501],[-84.3076737,33.796815],[-84.3077452,33.796845],[-84.3078155,33.7967327],[-84.3078994,33.7966185],[-84.3079291,33.7966338],[-84.3079898,33.7965841],[-84.3079455,33.7965596],[-84.3079978,33.7964978],[-84.3081447,33.7963457],[-84.3082654,33.7962414],[-84.3083143,33.7962063],[-84.3083358,33.7962286],[-84.3083593,33.7962181],[-84.3083904,33.7961957],[-84.3084044,33.7962056],[-84.3084997,33.7961402],[-84.3084896,33.7961299],[-84.3085283,33.7961068],[-84.3085178,33.7960955],[-84.3086524,33.796013],[-84.3087409,33.7959666],[-84.308915,33.7958909],[-84.3091062,33.7958193]]]}},{"type":"Feature","id":40859912,"properties":{"osmId":40859912,"category":"academic","building":"university","name":"Emory University School of Medicine"},"geometry":{"type":"Polygon","coordinates":[[[-84.322094,33.7934148],[-84.3222589,33.7934132],[-84.322265,33.7938504],[-84.3222294,33.7938508],[-84.3222299,33.793887],[-84.3222737,33.7938866],[-84.322276,33.7940493],[-84.322196,33.7940501],[-84.3221967,33.7941021],[-84.3215519,33.7941084],[-84.3215518,33.7941],[-84.3213469,33.794102],[-84.3213443,33.793912],[-84.3214195,33.7939113],[-84.321419,33.7938767],[-84.3215159,33.7938757],[-84.3215156,33.7938578],[-84.3214762,33.7938582],[-84.32147,33.7934202],[-84.3216299,33.7934187],[-84.3216361,33.7938583],[-84.3221002,33.7938538],[-84.322094,33.7934148]]]}},{"type":"Feature","id":40859913,"properties":{"osmId":40859913,"category":"academic","addr:city":"Atlanta","addr:housenumber":"1440","addr:postcode":"30322","addr:state":"GA","addr:street":"Clifton Road Northeast","building":"university","ele":"293","gnis:feature_id":"1687653","name":"Woodruff Health Sciences Administration Building","official_name":"Woodruff Health Sciences Center Administration Building","source":"USGS Geonames","website":"http://whsc.emory.edu/home/about/map-and-directions/whsc-administration-building.html"},"geometry":{"type":"Polygon","coordinates":[[[-84.3219489,33.7941952],[-84.3213137,33.7942024],[-84.3213223,33.7947231],[-84.3216353,33.794457],[-84.3219183,33.7946838],[-84.3220878,33.7945437],[-84.3219449,33.7944295],[-84.3220471,33.7943405],[-84.321983,33.7942884],[-84.3220211,33.7942589],[-84.3220361,33.794248],[-84.3220436,33.7942314],[-84.322035,33.7942182],[-84.3220209,33.7942161],[-84.3220014,33.7942196],[-84.3219893,33.7942377],[-84.3219569,33.7942684],[-84.3219108,33.7942273],[-84.3219489,33.7941952]]]}},{"type":"Feature","id":40860286,"properties":{"osmId":40860286,"category":"academic","addr:city":"Atlanta","addr:housename":"Nell Hodgson Woodruff School of Nursing","addr:housenumber":"1520","addr:postcode":"30322","addr:state":"GA","addr:street":"1520 Clifton Road Northeast","building":"university","building:levels":"5","name":"Nell Hodgson Woodruff School of Nursing"},"geometry":{"type":"Polygon","coordinates":[[[-84.3241066,33.7981967],[-84.3238267,33.7983469],[-84.3234711,33.7978859],[-84.3237585,33.7977337],[-84.3239059,33.7979309],[-84.3241682,33.7978161],[-84.324309,33.7980313],[-84.3240681,33.7981366],[-84.3241066,33.7981967]]]}},{"type":"Feature","id":41109062,"properties":{"osmId":41109062,"category":"academic","addr:housenumber":"1555","addr:postcode":"30322","addr:street":"Dickey Drive","building":"university","name":"Tarbutton Hall"},"geometry":{"type":"Polygon","coordinates":[[[-84.3252276,33.7920638],[-84.3247823,33.7922477],[-84.3246978,33.7921039],[-84.3248708,33.7920304],[-84.3248096,33.7919597],[-84.3248614,33.7919301],[-84.3248802,33.791949],[-84.3249272,33.7919234],[-84.3248628,33.7918197],[-84.3249895,33.7917641],[-84.3250277,33.7917473],[-84.3252276,33.7920638]]]}},{"type":"Feature","id":41109063,"properties":{"osmId":41109063,"category":"academic","addr:housenumber":"1557","addr:postcode":"30322","addr:street":"Dickey Drive","building":"university","name":"Anthropology","old_name":"Geosciences"},"geometry":{"type":"Polygon","coordinates":[[[-84.3247139,33.79228],[-84.3242848,33.7924595],[-84.3241963,33.7923168],[-84.3243465,33.792251],[-84.3243263,33.7922232],[-84.3243438,33.7921975],[-84.3243786,33.7921686],[-84.3244175,33.7921474],[-84.3244578,33.792202],[-84.32462,33.7921329],[-84.3247139,33.79228]]]}},{"type":"Feature","id":41109064,"properties":{"osmId":41109064,"category":"academic","addr:city":"Atlanta","addr:housenumber":"532","addr:postcode":"30322","addr:state":"GA","addr:street":"North Kilgo Circle","building":"university","name":"Modern Languages","old_name":"Psychology"},"geometry":{"type":"Polygon","coordinates":[[[-84.3246093,33.7919055],[-84.32449,33.7917729],[-84.3246858,33.7916503],[-84.3248802,33.7915288],[-84.3250023,33.7916681],[-84.3249308,33.7917113],[-84.3246093,33.7919055]]]}},{"type":"Feature","id":41109065,"properties":{"osmId":41109065,"category":"academic","addr:state":"GA","building":"university","ele":"282","gnis:feature_id":"1687615","name":"Alabama Hall","source":"USGS Geonames"},"geometry":{"type":"Polygon","coordinates":[[[-84.3231572,33.7930271],[-84.3229966,33.7928456],[-84.3233683,33.7926185],[-84.3234769,33.7927412],[-84.3232178,33.7928996],[-84.3232698,33.7929583],[-84.3231572,33.7930271]]]}},{"type":"Feature","id":41109068,"properties":{"osmId":41109068,"category":"academic","addr:housenumber":"400","addr:postcode":"30322","addr:street":"Dowman Drive","building":"university","name":"Mathematics and Science Center"},"geometry":{"type":"Polygon","coordinates":[[[-84.3273101,33.7904472],[-84.3268636,33.790419],[-84.3268677,33.7903595],[-84.3268314,33.7903574],[-84.3267687,33.7903538],[-84.3266984,33.7903911],[-84.3267072,33.7904135],[-84.3267088,33.7904364],[-84.3267012,33.7904593],[-84.3266851,33.7904786],[-84.3266601,33.7904924],[-84.3266312,33.7904996],[-84.3266005,33.7904975],[-84.3265713,33.7904893],[-84.3265535,33.7904749],[-84.3264902,33.7903975],[-84.3264709,33.790374],[-84.3262972,33.7901618],[-84.3262817,33.7901428],[-84.3264939,33.7900196],[-84.3265446,33.7900774],[-84.3265531,33.7900724],[-84.3265156,33.7900226],[-84.3268169,33.7898459],[-84.3269781,33.7900432],[-84.3268417,33.7901273],[-84.3267401,33.7901899],[-84.3267838,33.7902423],[-84.3268788,33.7902446],[-84.3268865,33.7901823],[-84.3273273,33.7902115],[-84.3273101,33.7904472]]]}},{"type":"Feature","id":41109069,"properties":{"osmId":41109069,"category":"academic","addr:city":"Atlanta","addr:housenumber":"301","addr:postcode":"30322","addr:state":"GA","addr:street":"Dowman Drive","building":"university","ele":"279","gnis:feature_id":"1687633","name":"Goodrich C. White Hall","source":"USGS Geonames"},"geometry":{"type":"Polygon","coordinates":[[[-84.3262611,33.7909099],[-84.3261963,33.7909503],[-84.3262195,33.7909809],[-84.326083,33.7910582],[-84.3260599,33.7910289],[-84.3259263,33.7911051],[-84.3259066,33.7910803],[-84.3258347,33.7909893],[-84.325793,33.7910127],[-84.3257484,33.7909616],[-84.3257209,33.7909295],[-84.3256043,33.7907871],[-84.3256254,33.7907756],[-84.3255632,33.7907011],[-84.3255152,33.7906948],[-84.3256568,33.7906161],[-84.325969,33.7904361],[-84.3261362,33.7906496],[-84.3261137,33.7906617],[-84.3261352,33.7906919],[-84.3262029,33.7907873],[-84.3261767,33.790803],[-84.3262123,33.7908463],[-84.3262611,33.7909099]]]}},{"type":"Feature","id":41109070,"properties":{"osmId":41109070,"category":"academic","addr:city":"Atlanta","addr:housenumber":"505","addr:postcode":"30322","addr:state":"GA","addr:street":"North Kilgo Circle","building":"university","ele":"280","gnis:feature_id":"1687184","name":"Convocation Hall","old_name":"Pitts Theology Library","source":"local_knowledge","wheelchair":"yes"},"geometry":{"type":"Polygon","coordinates":[[[-84.325273,33.7910895],[-84.3251271,33.7909326],[-84.3249984,33.7910182],[-84.3248782,33.7908898],[-84.3250698,33.7907644],[-84.3252816,33.7906258],[-84.3254018,33.7907614],[-84.3252645,33.7908541],[-84.3254018,33.7910182],[-84.325273,33.7910895]]]}},{"type":"Feature","id":41169856,"properties":{"osmId":41169856,"category":"other","amenity":"parking","building":"yes","name":"Lowergate East Parking Deck","old_name":"Lowergate Parking Deck","operator":"Emory University","parking":"multi-storey"},"geometry":{"type":"Polygon","coordinates":[[[-84.3194232,33.7920911],[-84.3194245,33.7920571],[-84.3193666,33.7906683],[-84.3192861,33.7906683],[-84.3187202,33.7906873],[-84.3187886,33.7920872],[-84.3187913,33.792173],[-84.3194146,33.7921514],[-84.3194112,33.7922375],[-84.3194694,33.7922376],[-84.3195353,33.7922423],[-84.3195372,33.7921997],[-84.3195359,33.7921475],[-84.3195032,33.7921465],[-84.319499,33.7921148],[-84.3194584,33.7921146],[-84.319453,33.7920908],[-84.3194232,33.7920911]]]}},{"type":"Feature","id":41169860,"properties":{"osmId":41169860,"category":"medical","amenity":"clinic","building":"yes","healthcare":"clinic","name":"Clinic B"},"geometry":{"type":"Polygon","coordinates":[[[-84.3195248,33.791876],[-84.3195129,33.7915613],[-84.3195436,33.7915345],[-84.3195074,33.7915111],[-84.3195007,33.7914699],[-84.3195222,33.7914565],[-84.3195517,33.7914554],[-84.3195477,33.7914387],[-84.3195086,33.7914119],[-84.3194928,33.7911131],[-84.3195825,33.7911129],[-84.3195903,33.7911369],[-84.3201393,33.7911256],[-84.3201585,33.7916159],[-84.3201654,33.7917555],[-84.3201698,33.7918457],[-84.3201316,33.7918477],[-84.3200984,33.7918753],[-84.3200639,33.7918763],[-84.3199961,33.7918782],[-84.3199917,33.7918622],[-84.3195248,33.791876]]]}},{"type":"Feature","id":41169862,"properties":{"osmId":41169862,"category":"academic","addr:city":"Atlanta","addr:housenumber":"540","addr:postcode":"30322","addr:state":"GA","addr:street":"Asbury Circle","amenity":"library","building":"university","ele":"282","gnis:feature_id":"1687654","name":"Robert W. Woodruff Library","operator:type":"university","source":"http://web.library.emory.edu/","wheelchair":"yes"},"geometry":{"type":"Polygon","coordinates":[[[-84.3223107,33.7904131],[-84.3229839,33.7900063],[-84.3233433,33.7904109],[-84.3231837,33.7905112],[-84.3232199,33.790548],[-84.3232588,33.7905681],[-84.323295,33.7905948],[-84.3233232,33.7906271],[-84.32335,33.7906617],[-84.3233688,33.7906974],[-84.3233782,33.7907263],[-84.323413,33.7907665],[-84.3233795,33.7907865],[-84.3234023,33.7908133],[-84.3233581,33.79084],[-84.3233299,33.7908757],[-84.323291,33.7909102],[-84.3232669,33.7909258],[-84.3232427,33.7909392],[-84.3231918,33.7909615],[-84.3231408,33.7909715],[-84.3230939,33.7909994],[-84.3230697,33.7909771],[-84.3230375,33.7909927],[-84.3230067,33.7909593],[-84.3229732,33.7909437],[-84.3229437,33.7909192],[-84.3229101,33.7908946],[-84.3228847,33.7908623],[-84.3228699,33.7908322],[-84.3228632,33.790801],[-84.3228672,33.7907654],[-84.3228458,33.7907197],[-84.3226728,33.7908222],[-84.3223107,33.7904131]]]}},{"type":"Feature","id":41169863,"properties":{"osmId":41169863,"category":"academic","building":"university","gnis:feature_id":"1687157","name":"Harris Hall"},"geometry":{"type":"Polygon","coordinates":[[[-84.3216103,33.7913179],[-84.3213636,33.791319],[-84.3213663,33.791455],[-84.3212255,33.7914572],[-84.3212242,33.7912647],[-84.3212228,33.7910515],[-84.3213622,33.7910515],[-84.3213609,33.7911953],[-84.321601,33.7911919],[-84.3215996,33.7910504],[-84.3217471,33.7910493],[-84.3217579,33.7914572],[-84.3216117,33.791455],[-84.3216103,33.7913179]]]}},{"type":"Feature","id":41169864,"properties":{"osmId":41169864,"category":"other","amenity":"parking","building":"yes","name":"Gambrell Parking Deck","old_name":"Lowergate South Parking Deck","operator":"Emory University","parking":"multi-storey"},"geometry":{"type":"Polygon","coordinates":[[[-84.3194634,33.7905523],[-84.3192817,33.7905581],[-84.3184476,33.7905781],[-84.3184476,33.7905424],[-84.3184449,33.7904979],[-84.3184422,33.790353],[-84.3184382,33.7903073],[-84.3189214,33.790292],[-84.3194534,33.7902738],[-84.3194555,33.7903314],[-84.3194634,33.7905523]]]}},{"type":"Feature","id":41169867,"properties":{"osmId":41169867,"category":"academic","addr:housename":"Boisfeuillet Jones Center","addr:housenumber":"200","addr:postcode":"30322","addr:state":"GA","addr:street":"Dowman Drive","building":"university","ele":"276","gnis:feature_id":"1687618","name":"Boisfeuillet Jones Center","source":"USGS Geonames"},"geometry":{"type":"Polygon","coordinates":[[[-84.3261746,33.7900326],[-84.3260654,33.7899017],[-84.3260458,33.7899111],[-84.3259492,33.7897974],[-84.3259687,33.7897859],[-84.3258715,33.7896692],[-84.3259452,33.7896302],[-84.3259345,33.789618],[-84.3260525,33.7895466],[-84.3263596,33.7899211],[-84.3261746,33.7900326]]]}},{"type":"Feature","id":41380318,"properties":{"osmId":41380318,"category":"academic","building":"university","name":"Bowden Hall"},"geometry":{"type":"Polygon","coordinates":[[[-84.3236235,33.7909347],[-84.3238285,33.790814],[-84.3240355,33.7906922],[-84.3239411,33.7905709],[-84.3238381,33.7906351],[-84.3238209,33.7906137],[-84.3236235,33.790735],[-84.3236407,33.7907564],[-84.3235377,33.7908206],[-84.3236235,33.7909347]]]}},{"type":"Feature","id":41556695,"properties":{"osmId":41556695,"category":"other","amenity":"parking","building":"yes","name":"Fishburne Parking Deck","operator":"Emory University"},"geometry":{"type":"Polygon","coordinates":[[[-84.3223316,33.7894851],[-84.3221291,33.7887773],[-84.3227259,33.7886614],[-84.322805,33.7886436],[-84.3229743,33.7892402],[-84.3230049,33.789348],[-84.3225127,33.7894483],[-84.322396,33.7894728],[-84.3223316,33.7894851]]]}},{"type":"Feature","id":42562695,"properties":{"osmId":42562695,"category":"academic","addr:city":"Atlanta","addr:housenumber":"1510","addr:postcode":"30322","addr:state":"GA","addr:street":"Clifton Road Northeast","building":"office","building:levels":"5","name":"O. Wayne Rollins Research Building"},"geometry":{"type":"Polygon","coordinates":[[[-84.3232528,33.7966586],[-84.322906,33.7961348],[-84.3229403,33.7961191],[-84.3229739,33.7961037],[-84.3230082,33.796088],[-84.3230491,33.7961498],[-84.323164,33.7960973],[-84.3231259,33.7960397],[-84.3231796,33.7960151],[-84.3234901,33.7964841],[-84.3235073,33.7964762],[-84.3234904,33.7964506],[-84.3235312,33.7964319],[-84.3239422,33.7970526],[-84.3236717,33.7971763],[-84.323367,33.7967163],[-84.3233498,33.7967241],[-84.3233607,33.7967406],[-84.3233196,33.7967594],[-84.3232528,33.7966586]]]}},{"type":"Feature","id":42562735,"properties":{"osmId":42562735,"category":"academic","addr:city":"Atlanta","addr:housename":"Clifton Tower","addr:housenumber":"1501","addr:postcode":"30322","addr:state":"GA","addr:street":"Clifton Road","building":"university","ele":"307"},"geometry":{"type":"Polygon","coordinates":[[[-84.3222302,33.7975944],[-84.322187,33.7975574],[-84.3220366,33.7976788],[-84.3223302,33.7979301],[-84.3224803,33.7978091],[-84.3224354,33.7977706],[-84.3224136,33.7977882],[-84.3222081,33.7976122],[-84.3222302,33.7975944]]]}},{"type":"Feature","id":42614607,"properties":{"osmId":42614607,"category":"academic","addr:city":"Atlanta","addr:housenumber":"26","addr:postcode":"30322","addr:state":"GA","addr:street":"Eagle Row","building":"university","ele":"283","gnis:feature_id":"1687656","leisure":"sports_centre","loc_name":"WoodPEC","name":"Woodruff Physical Education Center","official_name":"Woodruff Physical Education Center","source":"USGS Geonames","sport":"multi","wheelchair":"yes"},"geometry":{"type":"Polygon","coordinates":[[[-84.3266571,33.7935547],[-84.3267286,33.7935541],[-84.3267278,33.7934852],[-84.3266546,33.7934858],[-84.3266545,33.7934759],[-84.3267751,33.7934751],[-84.3267746,33.7934264],[-84.3268476,33.7934259],[-84.3268447,33.7931081],[-84.3268441,33.7930383],[-84.3268813,33.7930381],[-84.3268804,33.7929261],[-84.3266925,33.7929272],[-84.326692,33.792874],[-84.3261137,33.7928772],[-84.3261147,33.7929972],[-84.3260108,33.7929978],[-84.3259598,33.7929309],[-84.325827,33.7929314],[-84.3254766,33.7929328],[-84.3254767,33.7929451],[-84.3252302,33.7929465],[-84.325231,33.7930451],[-84.3251304,33.7930457],[-84.3251055,33.7930458],[-84.3251073,33.7932636],[-84.3251086,33.7934178],[-84.3250823,33.793418],[-84.3250833,33.7935122],[-84.325133,33.7935119],[-84.3251737,33.7935115],[-84.3251747,33.7936013],[-84.3252207,33.7936009],[-84.3252217,33.7936758],[-84.3266585,33.7936631],[-84.3266571,33.7935547]]]}},{"type":"Feature","id":43317371,"properties":{"osmId":43317371,"category":"library","addr:city":"Atlanta","addr:housenumber":"550","addr:postcode":"30322","addr:state":"GA","addr:street":"Asbury Circle","amenity":"library","building":"yes","ele":"281","gnis:feature_id":"1687619","name":"Candler Library","operator:type":"university","source":"USGS Geonames","wheelchair":"yes"},"geometry":{"type":"Polygon","coordinates":[[[-84.3236238,33.7915473],[-84.3235701,33.7914793],[-84.3234695,33.7915395],[-84.3233508,33.7914013],[-84.3232349,33.7912664],[-84.3233314,33.791204],[-84.3232791,33.7911438],[-84.323373,33.7910866],[-84.3234182,33.791059],[-84.3235058,33.7910056],[-84.3236291,33.7911472],[-84.3236573,33.7911282],[-84.3237112,33.7911885],[-84.3237579,33.7912408],[-84.3237284,33.7912586],[-84.3238544,33.7914057],[-84.3236238,33.7915473]]]}},{"type":"Feature","id":43318133,"properties":{"osmId":43318133,"category":"other","amenity":"university","building":"yes","ele":"282","gnis:feature_id":"2463024","name":"Whitehead Biomedical Research Building","wheelchair":"yes"},"geometry":{"type":"Polygon","coordinates":[[[-84.3237267,33.7960817],[-84.3237002,33.796154],[-84.3235034,33.7961065],[-84.3235202,33.7960614],[-84.3234585,33.7960447],[-84.3234526,33.7960662],[-84.3233995,33.7960569],[-84.3233497,33.7960511],[-84.3232641,33.7960465],[-84.3232202,33.7960691],[-84.3231796,33.7960151],[-84.3231303,33.7960172],[-84.3229373,33.79605],[-84.3229739,33.7961037],[-84.3229403,33.7961191],[-84.3228965,33.7960593],[-84.3228046,33.7960768],[-84.3227893,33.7960134],[-84.3227218,33.7960258],[-84.322693,33.79588],[-84.3226997,33.7958458],[-84.322695,33.7958074],[-84.3227321,33.795801],[-84.3227292,33.7957861],[-84.322694,33.7957869],[-84.3226872,33.7957595],[-84.322955,33.7957035],[-84.3231426,33.7956846],[-84.3232967,33.7956846],[-84.3234337,33.7956964],[-84.3235371,33.7957103],[-84.3236776,33.7957407],[-84.3238817,33.7958027],[-84.3238248,33.7958325],[-84.3238058,33.7958774],[-84.3238746,33.795894],[-84.3238117,33.7960618],[-84.32378,33.7960569],[-84.3237709,33.7960902],[-84.3237267,33.7960817]]]}},{"type":"Feature","id":43318134,"properties":{"osmId":43318134,"category":"academic","addr:housename":"1462 Clifton Road Building","addr:housenumber":"1462","addr:postcode":"30322","addr:street":"Clifton Road","building":"university","name":"1462 Clifton Road Building","old_name":"Dental School Building"},"geometry":{"type":"Polygon","coordinates":[[[-84.3224183,33.7957988],[-84.3220153,33.7959825],[-84.3223647,33.7965117],[-84.3224344,33.79648],[-84.3226493,33.7968057],[-84.3229826,33.7966537],[-84.3224183,33.7957988]]]}},{"type":"Feature","id":43448661,"properties":{"osmId":43448661,"category":"residential","building":"residential","name":"Clairmont Building B","operator":"Emory University","residential":"university"},"geometry":{"type":"Polygon","coordinates":[[[-84.3101968,33.7966443],[-84.3101762,33.7966451],[-84.3101772,33.7966643],[-84.3100875,33.7966677],[-84.3100357,33.7966697],[-84.3100345,33.7966485],[-84.3100147,33.7966493],[-84.310017,33.7966691],[-84.3098801,33.7966727],[-84.3098789,33.7966526],[-84.3098588,33.7966534],[-84.3098599,33.7966727],[-84.3097214,33.796678],[-84.3097202,33.7966576],[-84.309702,33.7966583],[-84.309703,33.796677],[-84.3095624,33.7966824],[-84.3095613,33.7966633],[-84.3095452,33.7966639],[-84.3095462,33.7966822],[-84.3094057,33.7966876],[-84.3094046,33.7966684],[-84.3093892,33.7966689],[-84.3093902,33.7966873],[-84.3092476,33.7966927],[-84.3092466,33.7966736],[-84.3091293,33.796678],[-84.3091283,33.7966596],[-84.309105,33.7966604],[-84.3090981,33.7965339],[-84.3091208,33.796533],[-84.3091205,33.796515],[-84.3092412,33.7965113],[-84.3092414,33.7964917],[-84.3093777,33.7964894],[-84.3093826,33.7965051],[-84.3093983,33.7965045],[-84.3093984,33.7964878],[-84.3095333,33.7964853],[-84.3095741,33.7964827],[-84.309575,33.7965508],[-84.3096417,33.7965479],[-84.3096433,33.7965661],[-84.310192,33.7965548],[-84.3101968,33.7966443]]]}},{"type":"Feature","id":51278657,"properties":{"osmId":51278657,"category":"academic","DeKalb:id":"149358","addr:city":"Atlanta","addr:housenumber":"301","addr:postcode":"30322","addr:state":"GA","addr:street":"Facilities Management Drive","building":"university","name":"Campus Services Building C"},"geometry":{"type":"Polygon","coordinates":[[[-84.3264209,33.7957716],[-84.326463,33.7956323],[-84.3270017,33.7957481],[-84.3270396,33.7957563],[-84.3269935,33.795897],[-84.3269855,33.795895],[-84.326969,33.7958914],[-84.3264235,33.7957719],[-84.3264209,33.7957716]]]}},{"type":"Feature","id":51279260,"properties":{"osmId":51279260,"category":"medical","DeKalb:id":"142070;142077","addr:housenumber":"2165","addr:street":"North Decatur Road","building":"hospital"},"geometry":{"type":"Polygon","coordinates":[[[-84.3035381,33.7898614],[-84.3036081,33.789858],[-84.3037935,33.7898491],[-84.3037964,33.7899018],[-84.303806,33.7900785],[-84.3038075,33.7901047],[-84.3037972,33.7901253],[-84.3037784,33.7901403],[-84.3037538,33.7901486],[-84.303614,33.7901565],[-84.3035386,33.7901607],[-84.3034334,33.7901667],[-84.303393,33.7901689],[-84.3033707,33.7898695],[-84.3035121,33.7898627],[-84.3035381,33.7898614]]]}},{"type":"Feature","id":51280490,"properties":{"osmId":51280490,"category":"athletic","DeKalb:id":"139315","building":"yes","check_date":"2022-08-22","internet_access":"wlan","internet_access:fee":"customers","leisure":"sports_centre","name":"Decatur-DeKalb Family YMCA","sport":"multi","survey:date":"2020-12-30","wheelchair":"limited"},"geometry":{"type":"Polygon","coordinates":[[[-84.3072343,33.7876518],[-84.3072353,33.7874477],[-84.307223,33.7874477],[-84.3069649,33.7874468],[-84.3068553,33.7871325],[-84.3070362,33.7871086],[-84.3071882,33.7871338],[-84.3072294,33.7871871],[-84.3072296,33.7871414],[-84.3072297,33.7871269],[-84.3072447,33.787127],[-84.3072448,33.787099],[-84.3072449,33.7870861],[-84.3072606,33.7870861],[-84.3072931,33.7870862],[-84.3072931,33.7870999],[-84.3072929,33.7871303],[-84.3073026,33.7871304],[-84.3073026,33.7871398],[-84.3076536,33.7871409],[-84.3076536,33.7871565],[-84.3076531,33.7872558],[-84.3076621,33.7872558],[-84.3077099,33.787256],[-84.3077151,33.787256],[-84.307715,33.7872834],[-84.3078007,33.7872837],[-84.3078222,33.7872838],[-84.3078221,33.7873096],[-84.3078214,33.7874547],[-84.3077581,33.7874545],[-84.3077047,33.7874543],[-84.3077038,33.7876533],[-84.3073169,33.787652],[-84.3072343,33.7876518]]]}},{"type":"Feature","id":51282136,"properties":{"osmId":51282136,"category":"academic","DeKalb:id":"149983","addr:city":"Atlanta","addr:housenumber":"695","addr:postcode":"30322","addr:state":"GA","addr:street":"Peavine Creek Drive","building":"university","name":"Peavine Facility"},"geometry":{"type":"Polygon","coordinates":[[[-84.3277569,33.7964931],[-84.3278009,33.7964112],[-84.3278181,33.7964176],[-84.3278278,33.7963997],[-84.3278637,33.7963328],[-84.3278691,33.7963348],[-84.3281594,33.7964434],[-84.3281627,33.7964447],[-84.3282567,33.7964798],[-84.3282715,33.7964853],[-84.3282742,33.7964863],[-84.3282415,33.7965473],[-84.3282542,33.7965521],[-84.3281974,33.7966579],[-84.3277569,33.7964931]]]}},{"type":"Feature","id":51282222,"properties":{"osmId":51282222,"category":"academic","DeKalb:id":"148565","building":"university","name":"Emory University Center for Rehabilitation Medicine"},"geometry":{"type":"Polygon","coordinates":[[[-84.320125,33.7950499],[-84.320124,33.794903],[-84.3200607,33.7949033],[-84.3200606,33.7949002],[-84.3200606,33.7948973],[-84.32006,33.7948063],[-84.3205385,33.7948042],[-84.3205388,33.7948534],[-84.3205462,33.7948533],[-84.3206954,33.7948527],[-84.3207311,33.7948525],[-84.3207322,33.7950323],[-84.3206968,33.7950325],[-84.3206076,33.7950329],[-84.3205608,33.7950331],[-84.3203884,33.7950339],[-84.3203885,33.7950487],[-84.3202119,33.7950495],[-84.320125,33.7950499]]]}},{"type":"Feature","id":51283225,"properties":{"osmId":51283225,"category":"academic","DeKalb:id":"148813","addr:city":"Atlanta","addr:housenumber":"15","addr:postcode":"30322","addr:state":"GA","addr:street":"Eagle Row","alt_name":"Beta Theta Pi","building":"university","name":"ΒΘΠ"},"geometry":{"type":"Polygon","coordinates":[[[-84.3280566,33.7952778],[-84.3280407,33.7952204],[-84.3278921,33.7952491],[-84.3278118,33.7952647],[-84.3277703,33.7951151],[-84.3279436,33.7950815],[-84.3279417,33.7950747],[-84.3279441,33.7950742],[-84.3280016,33.7950631],[-84.3280058,33.7950623],[-84.3280079,33.7950697],[-84.3281005,33.7950518],[-84.3281159,33.7951073],[-84.3281674,33.7950973],[-84.328191,33.7951823],[-84.3281433,33.7951915],[-84.3281626,33.795261],[-84.3280576,33.7952813],[-84.3280566,33.7952778]]]}},{"type":"Feature","id":51283232,"properties":{"osmId":51283232,"category":"academic","DeKalb:id":"148954","addr:city":"Atlanta","addr:housenumber":"100","addr:postcode":"30322","addr:state":"GA","addr:street":"Facilities Management Drive","building":"university","name":"Campus Services Building H - Steam Plant"},"geometry":{"type":"Polygon","coordinates":[[[-84.3245516,33.7952637],[-84.324571,33.7952057],[-84.3248144,33.7952624],[-84.3247562,33.7954364],[-84.3245128,33.7953796],[-84.3245268,33.7953378],[-84.3245516,33.7952637]]]}},{"type":"Feature","id":51283241,"properties":{"osmId":51283241,"category":"academic","DeKalb:id":"149183","addr:city":"Atlanta","addr:housenumber":"150","addr:postcode":"30322","addr:state":"GA","addr:street":"Facilities Management Drive","building":"university","name":"Campus Services Building I - Boiler 9"},"geometry":{"type":"Polygon","coordinates":[[[-84.3251949,33.7956014],[-84.3252429,33.79549],[-84.3254626,33.795556],[-84.3254622,33.7955567],[-84.3254146,33.7956673],[-84.3252043,33.7956042],[-84.3251949,33.7956014]]]}},{"type":"Feature","id":51283496,"properties":{"osmId":51283496,"category":"religious","DeKalb:id":"131336","amenity":"place_of_worship","building":"yes","denomination":"lutheran","name":"Lutheran Church of the Messiah","religion":"christian"},"geometry":{"type":"Polygon","coordinates":[[[-84.2976055,33.7816202],[-84.2974964,33.7815278],[-84.2974161,33.7815939],[-84.2973092,33.7815034],[-84.2972988,33.781512],[-84.2972821,33.7815257],[-84.2972634,33.7815411],[-84.2971083,33.7814097],[-84.2973003,33.7812516],[-84.2973325,33.7812788],[-84.297454,33.7813817],[-84.2973854,33.7814384],[-84.2974095,33.7814588],[-84.2974236,33.7814708],[-84.2974382,33.7814831],[-84.297544,33.781396],[-84.2976016,33.7814448],[-84.2975842,33.7814592],[-84.2975699,33.7814709],[-84.2975667,33.7814735],[-84.2976736,33.781564],[-84.2976519,33.7815819],[-84.2976192,33.7816088],[-84.2976055,33.7816202]]]}},{"type":"Feature","id":51286211,"properties":{"osmId":51286211,"category":"religious","DeKalb:id":"143667","addr:city":"Atlanta","addr:housenumber":"515","addr:postcode":"30322","addr:state":"GA","addr:street":"North Kilgo Circle","amenity":"place_of_worship","building":"church","ele":"276","gnis:feature_id":"1687198","layer":"-1","name":"William R. Cannon Chapel","religion":"multifaith","wheelchair":"yes"},"geometry":{"type":"Polygon","coordinates":[[[-84.3249912,33.7914841],[-84.3248572,33.7913241],[-84.3248683,33.7913174],[-84.3248761,33.7913129],[-84.3248904,33.7913045],[-84.3249049,33.7912961],[-84.3249182,33.791312],[-84.325058,33.7912303],[-84.3253736,33.7910461],[-84.3254037,33.791082],[-84.3254301,33.7911135],[-84.3253153,33.7911806],[-84.3252544,33.7912161],[-84.3252835,33.7912509],[-84.3252482,33.7912715],[-84.3252547,33.7912792],[-84.3252031,33.7913094],[-84.3252436,33.7913577],[-84.3252797,33.7914008],[-84.3253119,33.7914393],[-84.3252612,33.7914689],[-84.325222,33.7914221],[-84.325024,33.7915377],[-84.324983,33.7914889],[-84.3249912,33.7914841]]]}},{"type":"Feature","id":51286262,"properties":{"osmId":51286262,"category":"academic","DeKalb:id":"146503","addr:city":"Atlanta","addr:housenumber":"22","addr:postcode":"30322","addr:state":"GA","addr:street":"Eagle Row","alt_name":"Pi Kappa Alpha","building":"university","name":"Black Student Alliance House"},"geometry":{"type":"Polygon","coordinates":[[[-84.326933,33.7939406],[-84.3269433,33.7938998],[-84.326961,33.7939029],[-84.3269761,33.7938431],[-84.3269243,33.793834],[-84.3269421,33.7937631],[-84.3269145,33.7937582],[-84.3269297,33.7936979],[-84.3269926,33.7937089],[-84.327005,33.7936598],[-84.3270684,33.793671],[-84.3270736,33.7936504],[-84.3271839,33.7936697],[-84.3271902,33.7936449],[-84.3273054,33.7936651],[-84.3272991,33.7936902],[-84.3273306,33.7936958],[-84.3273078,33.7937862],[-84.3272297,33.7937725],[-84.3272158,33.7938278],[-84.3271514,33.7938165],[-84.3271658,33.7937593],[-84.3271335,33.7937536],[-84.3271179,33.7938154],[-84.3270969,33.7938987],[-84.3270656,33.7938932],[-84.3270486,33.7939609],[-84.3270234,33.7939565],[-84.326933,33.7939406]]]}},{"type":"Feature","id":51287227,"properties":{"osmId":51287227,"category":"residential","DeKalb:id":"150302","building":"residential","name":"Building A","operator":"Emory University","residential":"university"},"geometry":{"type":"Polygon","coordinates":[[[-84.3104134,33.7970822],[-84.3104127,33.797064],[-84.3103859,33.7970647],[-84.3103842,33.797021],[-84.3103813,33.7969601],[-84.3103618,33.7969608],[-84.3103565,33.7968495],[-84.3103787,33.7968487],[-84.3103778,33.7968291],[-84.3103569,33.7968298],[-84.3103514,33.7967147],[-84.3103693,33.7967141],[-84.3103685,33.7966979],[-84.3103529,33.7966984],[-84.3103473,33.7965846],[-84.3103651,33.796584],[-84.3103648,33.7965769],[-84.3104323,33.7965747],[-84.3104318,33.7965647],[-84.3104481,33.7965641],[-84.3104472,33.796546],[-84.3104417,33.7964334],[-84.3104717,33.7964323],[-84.3104739,33.7964762],[-84.3104772,33.7965608],[-84.3105569,33.7965586],[-84.3105574,33.7965723],[-84.3105845,33.7965716],[-84.3105891,33.7966868],[-84.3105664,33.7966874],[-84.3105669,33.796702],[-84.3105887,33.7967015],[-84.3105932,33.7968171],[-84.3105725,33.7968176],[-84.3105731,33.7968331],[-84.3105958,33.7968325],[-84.3106006,33.7969574],[-84.3105786,33.796958],[-84.3105825,33.7970593],[-84.3105553,33.79706],[-84.310556,33.7970784],[-84.3104134,33.7970822]]]}},{"type":"Feature","id":51287229,"properties":{"osmId":51287229,"category":"academic","DeKalb:id":"150312","building":"university","name":"Student Activity & Academic Center"},"geometry":{"type":"Polygon","coordinates":[[[-84.3083047,33.7968268],[-84.3082279,33.7967057],[-84.3082659,33.7966889],[-84.3082679,33.796688],[-84.3082545,33.7966667],[-84.3083101,33.7966421],[-84.3083053,33.7966346],[-84.3082791,33.7965932],[-84.3083557,33.7965593],[-84.3083645,33.7965732],[-84.308605,33.7964669],[-84.3085811,33.7964292],[-84.3085931,33.7964239],[-84.3086413,33.7964026],[-84.308836,33.7967097],[-84.3088535,33.7967019],[-84.3088973,33.796771],[-84.3088808,33.7967783],[-84.3088853,33.7967854],[-84.308919,33.7968386],[-84.3087642,33.796907],[-84.3087832,33.796937],[-84.3087615,33.7969466],[-84.3086153,33.7970112],[-84.3085925,33.7970213],[-84.3085031,33.7970608],[-84.3084356,33.7970906],[-84.3084336,33.797096],[-84.3083516,33.7969869],[-84.3083426,33.7969647],[-84.3083794,33.7969445],[-84.3083513,33.7969003],[-84.3083341,33.7968732],[-84.3083047,33.7968268]]]}},{"type":"Feature","id":51287278,"properties":{"osmId":51287278,"category":"academic","DeKalb:id":"148249","addr:city":"Atlanta","addr:housenumber":"6","addr:postcode":"30322","addr:state":"GA","addr:street":"Eagle Row","alt_name":"Sigma Chi","building":"university","name":"ΣΧ"},"geometry":{"type":"Polygon","coordinates":[[[-84.3256517,33.794664],[-84.3256653,33.7945349],[-84.3256766,33.7945357],[-84.3258818,33.7945507],[-84.3258866,33.7945511],[-84.3258906,33.7945514],[-84.3258721,33.7947281],[-84.3256468,33.7947116],[-84.3256517,33.794664]]]}},{"type":"Feature","id":51287336,"properties":{"osmId":51287336,"category":"academic","DeKalb:id":"143919","addr:city":"Atlanta","addr:housenumber":"537","addr:postcode":"30322","addr:state":"GA","addr:street":"North Kilgo Circle","building":"university","name":"Callaway Memorial Center"},"geometry":{"type":"Polygon","coordinates":[[[-84.3239072,33.7915852],[-84.3240841,33.7914772],[-84.3240173,33.7914786],[-84.3239644,33.7914796],[-84.3239718,33.7914093],[-84.3239948,33.7914134],[-84.324056,33.7914245],[-84.3239576,33.7913096],[-84.3241385,33.7912004],[-84.3241568,33.7911893],[-84.3241812,33.7911746],[-84.3243605,33.7910664],[-84.3244703,33.7911932],[-84.3243575,33.7912614],[-84.3241502,33.7913866],[-84.3241575,33.791395],[-84.3242018,33.7913684],[-84.3242246,33.7913444],[-84.3242595,33.7913377],[-84.3242581,33.7913556],[-84.3242528,33.7913723],[-84.324246,33.7913912],[-84.3242901,33.7914456],[-84.3242322,33.7914804],[-84.324243,33.7914925],[-84.3243947,33.7913952],[-84.3244951,33.7915042],[-84.324309,33.7916237],[-84.324278,33.7916435],[-84.3242352,33.791671],[-84.3240576,33.791785],[-84.3239513,33.7916696],[-84.3239664,33.7916599],[-84.3239167,33.7915971],[-84.3239078,33.7915859],[-84.3239072,33.7915852]]]}},{"type":"Feature","id":51288404,"properties":{"osmId":51288404,"category":"academic","DeKalb:id":"149377","addr:city":"Atlanta","addr:housenumber":"200","addr:postcode":"30322","addr:state":"GA","addr:street":"Facilities Management Drive","building":"university","name":"Campus Services Building F - North Shop"},"geometry":{"type":"Polygon","coordinates":[[[-84.3262017,33.7959257],[-84.3259037,33.7958173],[-84.3258855,33.7958522],[-84.325786,33.7958161],[-84.3254088,33.7956789],[-84.3254664,33.7955685],[-84.3254805,33.7955736],[-84.326241,33.7958502],[-84.3262017,33.7959257]]]}},{"type":"Feature","id":51290398,"properties":{"osmId":51290398,"category":"academic","DeKalb:id":"143064","addr:state":"GA","building":"university","ele":"288","gnis:feature_id":"1687646","name":"Thomas Hall","source":"USGS Geonames"},"geometry":{"type":"Polygon","coordinates":[[[-84.3213092,33.7905617],[-84.3213119,33.790657],[-84.3213162,33.7909162],[-84.3211709,33.7909211],[-84.3211669,33.7905509],[-84.3213091,33.7905498],[-84.3213092,33.7905617]]]}},{"type":"Feature","id":51290850,"properties":{"osmId":51290850,"category":"academic","building":"school","building:levels":"3"},"geometry":{"type":"Polygon","coordinates":[[[-84.3157557,33.7934002],[-84.3155735,33.7933208],[-84.3155779,33.7933136],[-84.315616,33.7932537],[-84.3156208,33.7932434],[-84.3156305,33.7932292],[-84.315645,33.793235],[-84.3156882,33.7931643],[-84.3156787,33.7931597],[-84.3155113,33.7930866],[-84.3154969,33.7931098],[-84.3154155,33.7930743],[-84.3154775,33.7929723],[-84.3155375,33.7928776],[-84.3156186,33.7929137],[-84.3156064,33.7929326],[-84.3157781,33.7930077],[-84.3157849,33.7929989],[-84.3158771,33.7930392],[-84.3159517,33.7930718],[-84.315945,33.7930822],[-84.316117,33.7931592],[-84.3161305,33.793138],[-84.3162126,33.7931726],[-84.3161614,33.7932543],[-84.3161528,33.793268],[-84.3160897,33.7933686],[-84.3160024,33.7933304],[-84.3160162,33.7933091],[-84.3159027,33.7932583],[-84.3158649,33.7932414],[-84.3158452,33.7932326],[-84.3158208,33.7932713],[-84.3158016,33.7933017],[-84.3158159,33.7933082],[-84.3158076,33.7933209],[-84.315797,33.793337],[-84.3157597,33.7933942],[-84.3157557,33.7934002]]]}},{"type":"Feature","id":51294626,"properties":{"osmId":51294626,"category":"religious","DeKalb:id":"140670","addr:city":"Atlanta","addr:housenumber":"1652","addr:postcode":"30322","addr:state":"GA","addr:street":"North Decatur Road","building":"church","name":"Glenn Memorial United Methodist Church"},"geometry":{"type":"Polygon","coordinates":[[[-84.323894,33.7886001],[-84.3243352,33.7885266],[-84.3243486,33.7885767],[-84.3244506,33.7885611],[-84.3244828,33.7886848],[-84.3243822,33.7887015],[-84.3243956,33.7887524],[-84.323953,33.7888275],[-84.323894,33.7886001]]]}},{"type":"Feature","id":51295534,"properties":{"osmId":51295534,"category":"academic","DeKalb:id":"143808","addr:city":"Atlanta","addr:housenumber":"1521","addr:postcode":"30322","addr:state":"GA","addr:street":"Dickey Drive","building":"university","name":"Emerson Hall"},"geometry":{"type":"Polygon","coordinates":[[[-84.3263031,33.7916121],[-84.3263014,33.7916102],[-84.3262729,33.7916273],[-84.3262676,33.7916303],[-84.3259828,33.7912984],[-84.3259692,33.7912825],[-84.3260329,33.7912444],[-84.3261674,33.7911639],[-84.3262948,33.7910877],[-84.3264051,33.7912162],[-84.3264099,33.7912218],[-84.3263489,33.7912583],[-84.3265331,33.7914991],[-84.3266093,33.7914511],[-84.3266325,33.7914801],[-84.3265526,33.7915209],[-84.3265753,33.7915432],[-84.3263768,33.7916593],[-84.3263548,33.7916724],[-84.3263031,33.7916121]]]}},{"type":"Feature","id":51297673,"properties":{"osmId":51297673,"category":"academic","DeKalb:id":"150178","addr:city":"Atlanta","addr:housenumber":"700","addr:postcode":"30322","addr:state":"GA","addr:street":"Peavine Creek Drive","building":"university","name":"Visual Arts Building"},"geometry":{"type":"Polygon","coordinates":[[[-84.3283891,33.7967261],[-84.3284586,33.7966064],[-84.3285099,33.7966271],[-84.3285576,33.796545],[-84.3288752,33.7966737],[-84.3288581,33.7967031],[-84.3288192,33.7967701],[-84.3287511,33.7968872],[-84.3284412,33.7967617],[-84.3284481,33.79675],[-84.3283891,33.7967261]]]}},{"type":"Feature","id":51297730,"properties":{"osmId":51297730,"category":"academic","DeKalb:id":"148251","addr:city":"Atlanta","addr:housenumber":"14","addr:postcode":"30322","addr:state":"GA","addr:street":"Eagle Row","alt_name":"Kappa Alpha","building":"university","name":"ΚA"},"geometry":{"type":"Polygon","coordinates":[[[-84.3273935,33.7947164],[-84.3273971,33.7946901],[-84.3273279,33.7946834],[-84.3273401,33.7945961],[-84.3273174,33.7945939],[-84.3273211,33.7945679],[-84.3273561,33.7945713],[-84.327383,33.7943786],[-84.3275105,33.794391],[-84.3274994,33.7944709],[-84.3274841,33.7945802],[-84.3275865,33.7945901],[-84.327581,33.7946293],[-84.3275701,33.7947073],[-84.3274995,33.7947004],[-84.3274958,33.7947263],[-84.3273935,33.7947164]]]}},{"type":"Feature","id":51300189,"properties":{"osmId":51300189,"category":"religious","DeKalb:id":"142278","building":"church"},"geometry":{"type":"Polygon","coordinates":[[[-84.3024236,33.7903483],[-84.3024073,33.7901859],[-84.3024256,33.7901846],[-84.3026009,33.7901723],[-84.3026101,33.7902643],[-84.3026234,33.7902634],[-84.3026264,33.7902934],[-84.302612,33.7902944],[-84.302616,33.7903349],[-84.3024432,33.7903469],[-84.3024236,33.7903483]]]}},{"type":"Feature","id":51300212,"properties":{"osmId":51300212,"category":"academic","DeKalb:id":"142391","building":"university","name":"Macmillan - Gambrell Hall"},"geometry":{"type":"Polygon","coordinates":[[[-84.3197771,33.7903323],[-84.319784,33.7902158],[-84.3197847,33.7902029],[-84.3197859,33.7901829],[-84.319788,33.7901465],[-84.3197905,33.7901041],[-84.3197205,33.7901016],[-84.3197201,33.790076],[-84.3197192,33.7900152],[-84.3197123,33.7895491],[-84.3200747,33.7895436],[-84.3201368,33.7895426],[-84.3201922,33.7895418],[-84.3206128,33.7895354],[-84.3206226,33.7900839],[-84.3206227,33.7900861],[-84.3204069,33.7900914],[-84.3204001,33.7900546],[-84.3203804,33.7900547],[-84.3199963,33.7900571],[-84.3200159,33.790174],[-84.3200186,33.7901902],[-84.3201104,33.7901897],[-84.320233,33.7901919],[-84.3203865,33.7902096],[-84.3204128,33.7902126],[-84.3204448,33.7902197],[-84.320614,33.7902573],[-84.3206025,33.7902885],[-84.3205288,33.7902878],[-84.320527,33.7903234],[-84.3204802,33.7903242],[-84.3204794,33.7903372],[-84.3203892,33.7903389],[-84.320389,33.7903495],[-84.3199898,33.7903558],[-84.3199941,33.7903911],[-84.3199471,33.7903972],[-84.3199333,33.7903524],[-84.3198403,33.7903508],[-84.31984,33.7903331],[-84.3197771,33.7903323]]]}},{"type":"Feature","id":51301571,"properties":{"osmId":51301571,"category":"academic","DeKalb:id":"146703","addr:city":"Atlanta","addr:housenumber":"20","addr:postcode":"30322","addr:state":"GA","addr:street":"Eagle Row","alt_name":"Kappa Sigma","building":"university","name":"ΚΣ"},"geometry":{"type":"Polygon","coordinates":[[[-84.3278639,33.7939799],[-84.3278382,33.793968],[-84.3278153,33.7940027],[-84.3277521,33.7939735],[-84.327748,33.7939716],[-84.3275657,33.7938876],[-84.3275768,33.7938707],[-84.327588,33.7938538],[-84.3276437,33.7937696],[-84.3277129,33.7938015],[-84.3277283,33.7937782],[-84.3277717,33.7937982],[-84.3277911,33.7938071],[-84.3278406,33.7938299],[-84.3278266,33.793851],[-84.3278841,33.7938776],[-84.3278921,33.7938813],[-84.3278549,33.7939376],[-84.3278824,33.7939503],[-84.3278968,33.7939285],[-84.3279055,33.7939325],[-84.3279655,33.7939601],[-84.3280121,33.7939816],[-84.3279021,33.7941478],[-84.3277877,33.7940951],[-84.3278639,33.7939799]]]}},{"type":"Feature","id":51301581,"properties":{"osmId":51301581,"category":"academic","addr:city":"Atlanta","addr:housenumber":"623","addr:postcode":"30322","addr:state":"GA","addr:street":"Pierce Promenade","building":"university","name":"Hamilton Holmes Hall"},"geometry":{"type":"Polygon","coordinates":[[[-84.3232118,33.7942518],[-84.3236456,33.7942459],[-84.3236487,33.7944056],[-84.323458,33.7944094],[-84.323215,33.7944115],[-84.3232118,33.7942518]]]}},{"type":"Feature","id":51302619,"properties":{"osmId":51302619,"category":"medical","DeKalb:id":"144442","addr:city":"Atlanta","addr:housenumber":"1365","addr:postcode":"30322","addr:state":"GA","addr:street":"Clifton Road Northeast","amenity":"clinic","building":"yes","ele":"290","gnis:feature_id":"1687644","healthcare":"clinic","name":"Emory Clinic Building A","source":"USGS Geonames"},"geometry":{"type":"Polygon","coordinates":[[[-84.3206936,33.7929424],[-84.3204401,33.792945],[-84.3204382,33.7926704],[-84.3199464,33.7926735],[-84.319942,33.7925048],[-84.3200501,33.7925024],[-84.3200468,33.7924584],[-84.3200926,33.792415],[-84.3201201,33.792365],[-84.3201222,33.7922998],[-84.3201162,33.7922439],[-84.3200891,33.7922051],[-84.3200446,33.7921661],[-84.3199561,33.7921363],[-84.3199536,33.7920594],[-84.3200642,33.7920302],[-84.3201668,33.7920032],[-84.3201704,33.7919852],[-84.3202103,33.7919829],[-84.3202429,33.7919869],[-84.3203053,33.7920052],[-84.3203073,33.792156],[-84.3202318,33.7921538],[-84.3202312,33.7922143],[-84.3202582,33.7922648],[-84.3203131,33.7922648],[-84.3203145,33.792277],[-84.3203815,33.7922748],[-84.3203829,33.7922603],[-84.3203963,33.7922603],[-84.3203945,33.7921282],[-84.3206769,33.7921291],[-84.3206814,33.7924502],[-84.3206966,33.7924507],[-84.3206984,33.7924808],[-84.3207418,33.7924808],[-84.3207417,33.792612],[-84.320686,33.7926152],[-84.3206936,33.7929424]]]}},{"type":"Feature","id":51303664,"properties":{"osmId":51303664,"category":"academic","DeKalb:id":"148947","building":"university"},"geometry":{"type":"Polygon","coordinates":[[[-84.3248634,33.7952561],[-84.3248649,33.7952514],[-84.3250458,33.7952901],[-84.3250428,33.7952997],[-84.3250033,33.7954285],[-84.3248224,33.7953898],[-84.3248634,33.7952561]]]}},{"type":"Feature","id":51304281,"properties":{"osmId":51304281,"category":"academic","DeKalb:id":"142229","building":"university","name":"Goizueta Business School Building","website":"http://www.goizueta.emory.edu/"},"geometry":{"type":"Polygon","coordinates":[[[-84.3215839,33.7895808],[-84.3215869,33.7898128],[-84.3213936,33.7898739],[-84.3214044,33.7900427],[-84.3214267,33.7900631],[-84.3217203,33.7900621],[-84.3217955,33.7902995],[-84.32111,33.7903],[-84.3211042,33.789708],[-84.3215839,33.7895808]]]}},{"type":"Feature","id":51305052,"properties":{"osmId":51305052,"category":"academic","DeKalb:id":"144713","addr:state":"GA","building":"university","ele":"277","gnis:feature_id":"1687624","name":"Cox Hall","source":"USGS Geonames"},"geometry":{"type":"Polygon","coordinates":[[[-84.3227381,33.7924776],[-84.3227689,33.7924626],[-84.3228187,33.7924313],[-84.3228154,33.7924253],[-84.3232933,33.7921322],[-84.3233027,33.79214],[-84.3233429,33.7921088],[-84.3233577,33.7921289],[-84.3233697,33.7921211],[-84.3235454,33.7923183],[-84.3234971,33.7923473],[-84.3235065,33.7923629],[-84.3235278,33.7923544],[-84.3235199,33.7923462],[-84.3235696,33.7923206],[-84.3236138,33.7923707],[-84.3235615,33.7924008],[-84.3235435,33.7923716],[-84.3235049,33.7923949],[-84.3235149,33.7924086],[-84.323127,33.7926449],[-84.3231391,33.7926638],[-84.3230532,33.7927106],[-84.3228803,33.7925025],[-84.3228039,33.7925516],[-84.3227381,33.7924776]]]}},{"type":"Feature","id":51305078,"properties":{"osmId":51305078,"category":"religious","DeKalb:id":"145083","addr:city":"Atlanta","addr:housenumber":"1886","addr:postcode":"30307","addr:street":"North Decatur Road Northeast","amenity":"place_of_worship","building":"yes","denomination":"presbyterian","name":"Emory Presbyterian Church","phone":"+1-404-325-4551","religion":"christian","website":"https://www.emorypresbyterian.org/"},"geometry":{"type":"Polygon","coordinates":[[[-84.314433,33.7929042],[-84.3144321,33.792887],[-84.3143982,33.7928882],[-84.3143928,33.7927856],[-84.3144647,33.792783],[-84.3144568,33.7926345],[-84.3144329,33.7926353],[-84.3144311,33.792602],[-84.3145861,33.7925963],[-84.3145881,33.7926323],[-84.314557,33.7926335],[-84.3145652,33.7927874],[-84.3146248,33.7927852],[-84.314627,33.7928274],[-84.3146813,33.7928254],[-84.3146786,33.7927762],[-84.3147367,33.792774],[-84.314732,33.7926845],[-84.3149033,33.7926782],[-84.314907,33.7927488],[-84.3149081,33.7927691],[-84.3149408,33.7927679],[-84.3149645,33.792767],[-84.314971,33.7928892],[-84.3149575,33.7928897],[-84.3149404,33.7928903],[-84.3146823,33.7928999],[-84.3146806,33.7928689],[-84.3146758,33.7928691],[-84.3146417,33.7928703],[-84.3146261,33.7928709],[-84.3146275,33.792897],[-84.314433,33.7929042]]]}},{"type":"Feature","id":51306546,"properties":{"osmId":51306546,"category":"residential","DeKalb:id":"149723","building":"residential","name":"Building D","operator":"Emory University","residential":"university"},"geometry":{"type":"Polygon","coordinates":[[[-84.3094813,33.7963917],[-84.3094802,33.7963667],[-84.3094628,33.7963673],[-84.309462,33.7963473],[-84.3094397,33.7963479],[-84.3094344,33.796226],[-84.3094587,33.7962252],[-84.3094581,33.7962105],[-84.3094359,33.7962111],[-84.3094309,33.7960968],[-84.3094509,33.7960962],[-84.3094503,33.7960808],[-84.309429,33.7960815],[-84.3094239,33.795964],[-84.3094474,33.7959633],[-84.3094468,33.7959487],[-84.3094241,33.7959494],[-84.3094193,33.7958381],[-84.3094393,33.7958375],[-84.3094393,33.7958359],[-84.3094367,33.7957755],[-84.3094351,33.7957405],[-84.3094606,33.7957397],[-84.3094598,33.7957217],[-84.3095989,33.7957175],[-84.3095996,33.7957333],[-84.3096237,33.7957326],[-84.309628,33.79583],[-84.3096523,33.7958293],[-84.3096574,33.7959451],[-84.3096359,33.7959457],[-84.3096364,33.7959563],[-84.3096566,33.7959557],[-84.3096618,33.7960744],[-84.3096434,33.796075],[-84.3096441,33.7960911],[-84.3096632,33.7960905],[-84.3096682,33.7962052],[-84.3096439,33.7962059],[-84.3096446,33.7962223],[-84.3095719,33.7962245],[-84.3095746,33.7962844],[-84.3096529,33.796282],[-84.309654,33.7963073],[-84.3096275,33.7963081],[-84.3096306,33.7963783],[-84.3095713,33.7963801],[-84.3095744,33.7964821],[-84.3095349,33.7964846],[-84.309527,33.7963903],[-84.3094813,33.7963917]]]}},{"type":"Feature","id":51306610,"properties":{"osmId":51306610,"category":"academic","DeKalb:id":"148230","addr:city":"Atlanta","addr:housenumber":"10","addr:postcode":"30322","addr:state":"GA","addr:street":"Eagle Row","alt_name":"Delt","building":"university","name":"ΔΤΔ"},"geometry":{"type":"Polygon","coordinates":[[[-84.3264819,33.7947146],[-84.3264754,33.7946993],[-84.3264396,33.7947098],[-84.3264336,33.7946957],[-84.3263913,33.7947082],[-84.3263562,33.7946253],[-84.3264035,33.7946114],[-84.3264019,33.7946075],[-84.3264,33.794603],[-84.3264215,33.7945966],[-84.3264066,33.7945614],[-84.3265537,33.794518],[-84.3265676,33.7945509],[-84.3265877,33.794545],[-84.3265893,33.7945488],[-84.3265913,33.7945535],[-84.3266385,33.7945396],[-84.3266735,33.7946224],[-84.3266288,33.7946356],[-84.3266342,33.7946483],[-84.3266034,33.7946574],[-84.3266115,33.7946764],[-84.3264819,33.7947146]]]}},{"type":"Feature","id":51306614,"properties":{"osmId":51306614,"category":"academic","DeKalb:id":"148292","addr:city":"Atlanta","addr:housenumber":"8","addr:postcode":"30322","addr:state":"GA","addr:street":"Eagle Row","alt_name":"Sigma Alpha Mu","building":"university","name":"ΣAM"},"geometry":{"type":"Polygon","coordinates":[[[-84.3260717,33.7944824],[-84.3260708,33.7944511],[-84.3261604,33.7944493],[-84.326161,33.7944714],[-84.3262331,33.79447],[-84.3262416,33.7947623],[-84.3260516,33.7947661],[-84.3260433,33.794483],[-84.3260717,33.7944824]]]}},{"type":"Feature","id":51307755,"properties":{"osmId":51307755,"category":"academic","DeKalb:id":"149567","addr:city":"Atlanta","addr:housenumber":"310","addr:postcode":"30322","addr:state":"GA","addr:street":"Facilities Management Drive","building":"university","name":"Campus Services Building E"},"geometry":{"type":"Polygon","coordinates":[[[-84.3263684,33.7959847],[-84.3264374,33.795852],[-84.3267895,33.7959797],[-84.3266953,33.796161],[-84.3266911,33.7961595],[-84.3264489,33.7960717],[-84.3264742,33.796023],[-84.3263792,33.7959886],[-84.3263684,33.7959847]]]}},{"type":"Feature","id":51310019,"properties":{"osmId":51310019,"category":"athletic","DeKalb:id":"134337","building":"roof"},"geometry":{"type":"Polygon","coordinates":[[[-84.3067207,33.7836433],[-84.306745,33.7836131],[-84.3067786,33.7836319],[-84.3067543,33.7836622],[-84.3067207,33.7836433]]]}},{"type":"Feature","id":51310163,"properties":{"osmId":51310163,"category":"academic","DeKalb:id":"148024","addr:city":"Atlanta","addr:housenumber":"18","addr:postcode":"30322","addr:state":"GA","addr:street":"Eagle Row","alt_name":"Sigma Alpha Epsilon","building":"university","name":"ΣΑΕ"},"geometry":{"type":"Polygon","coordinates":[[[-84.3278391,33.7945249],[-84.3278342,33.7944354],[-84.327987,33.7944296],[-84.3280019,33.7944291],[-84.3280029,33.7944465],[-84.3280202,33.7944458],[-84.3280139,33.7943304],[-84.3280336,33.7943296],[-84.3280318,33.7942954],[-84.3280315,33.7942897],[-84.3280594,33.7942886],[-84.3280735,33.7942881],[-84.328106,33.7942869],[-84.3281081,33.7943259],[-84.3281233,33.7943253],[-84.3281254,33.7943645],[-84.328161,33.7943632],[-84.3281615,33.7943719],[-84.3281641,33.7944218],[-84.3281644,33.794427],[-84.3281275,33.7944284],[-84.3281321,33.7945139],[-84.3278391,33.7945249]]]}},{"type":"Feature","id":51310965,"properties":{"osmId":51310965,"category":"academic","DeKalb:id":"148171","addr:city":"Atlanta","addr:housenumber":"12","addr:postcode":"30322","addr:state":"GA","addr:street":"Eagle Row","alt_name":"Alpha Tau Omega","building":"university","name":"ΑΤΩ"},"geometry":{"type":"Polygon","coordinates":[[[-84.3269946,33.7946398],[-84.3269974,33.7946195],[-84.32693,33.7946131],[-84.3269311,33.7946052],[-84.3268715,33.7945995],[-84.3268976,33.794409],[-84.326941,33.7944131],[-84.3270091,33.7944196],[-84.3270119,33.7944199],[-84.3269983,33.7945195],[-84.3270782,33.7945271],[-84.3271644,33.7945354],[-84.327165,33.7945354],[-84.3271518,33.7946316],[-84.327053,33.7946221],[-84.3270498,33.7946451],[-84.3269946,33.7946398]]]}},{"type":"Feature","id":51310984,"properties":{"osmId":51310984,"category":"academic","addr:city":"Atlanta","addr:housenumber":"646","addr:postcode":"30322","addr:state":"GA","addr:street":"Means Drive","building":"university","name":"Eagle Hall"},"geometry":{"type":"Polygon","coordinates":[[[-84.3230276,33.7944131],[-84.322745,33.7944156],[-84.3227458,33.7944761],[-84.3227994,33.7944756],[-84.3228044,33.7948727],[-84.3227879,33.7948729],[-84.3227882,33.7948982],[-84.3230916,33.7948956],[-84.3230927,33.7950553],[-84.3226081,33.7950576],[-84.322607,33.7948985],[-84.3226177,33.7948984],[-84.3226174,33.7948494],[-84.3226147,33.7944769],[-84.3226523,33.7944767],[-84.3226518,33.7944062],[-84.3225964,33.7944064],[-84.3225954,33.7942574],[-84.3230265,33.7942553],[-84.3230276,33.7944131]]]}},{"type":"Feature","id":51310997,"properties":{"osmId":51310997,"category":"academic","DeKalb:id":"148663","addr:city":"Atlanta","addr:housenumber":"13","addr:postcode":"30322","addr:state":"GA","addr:street":"Eagle Row","alt_name":"Chi Phi","building":"university","name":"ΧΦ"},"geometry":{"type":"Polygon","coordinates":[[[-84.3271042,33.7950932],[-84.327118,33.794992],[-84.3272189,33.7950016],[-84.3272203,33.7949914],[-84.3272254,33.7949919],[-84.3272952,33.7949985],[-84.3272981,33.7949988],[-84.3272967,33.7950089],[-84.3273932,33.7950181],[-84.3273794,33.7951195],[-84.3273372,33.7951154],[-84.3271126,33.7950941],[-84.3271042,33.7950932]]]}},{"type":"Feature","id":51312708,"properties":{"osmId":51312708,"category":"academic","DeKalb:id":"148938","addr:city":"Atlanta","addr:housenumber":"11","addr:postcode":"30322","addr:state":"GA","addr:street":"Eagle Row","building":"university","name":"Sorority Complex"},"geometry":{"type":"Polygon","coordinates":[[[-84.3263981,33.795219],[-84.3264129,33.795262],[-84.3265721,33.7952311],[-84.3265829,33.7952632],[-84.3269106,33.7951965],[-84.3268995,33.7951646],[-84.3270656,33.7951334],[-84.327129,33.7953393],[-84.3269668,33.7953717],[-84.3269761,33.795404],[-84.3266449,33.7954697],[-84.3266356,33.7954385],[-84.3264717,33.7954681],[-84.3264545,33.7954028],[-84.3262839,33.7954382],[-84.3262206,33.7952517],[-84.3263981,33.795219]]]}},{"type":"Feature","id":51313248,"properties":{"osmId":51313248,"category":"medical","DeKalb:id":"145929;148100;145928","building":"hospital"},"geometry":{"type":"Polygon","coordinates":[[[-84.3206955,33.7939166],[-84.3207003,33.7940342],[-84.3206792,33.7940656],[-84.3206465,33.7941141],[-84.3207599,33.7941132],[-84.3207624,33.7942025],[-84.3206381,33.7941966],[-84.3206712,33.7942425],[-84.3207373,33.7943341],[-84.3207521,33.7943293],[-84.3207885,33.7943797],[-84.3208149,33.7944161],[-84.3207755,33.7944375],[-84.3207931,33.7944656],[-84.320775,33.7944733],[-84.3207888,33.7944933],[-84.3207613,33.7945064],[-84.3207655,33.7945133],[-84.3206943,33.7945489],[-84.3206902,33.7945432],[-84.3206658,33.7945551],[-84.3206601,33.7945579],[-84.320658,33.7945552],[-84.3206454,33.794539],[-84.3206281,33.7945486],[-84.3206065,33.794522],[-84.3205672,33.7945413],[-84.3205638,33.794543],[-84.3204552,33.794413],[-84.3203025,33.794417],[-84.3203078,33.7945338],[-84.3202363,33.7945357],[-84.3202356,33.7945585],[-84.3201514,33.794558],[-84.3201499,33.7945348],[-84.3199452,33.7945483],[-84.3199429,33.7945239],[-84.3198547,33.7945302],[-84.3198538,33.7945703],[-84.3191589,33.7945952],[-84.3190677,33.79448],[-84.3190672,33.7944557],[-84.3190488,33.7944536],[-84.3190458,33.7944017],[-84.3190449,33.794387],[-84.3190445,33.7943802],[-84.3190148,33.7943782],[-84.3190129,33.7943536],[-84.3190121,33.7943445],[-84.3190068,33.7942763],[-84.3190059,33.794265],[-84.3190053,33.7942567],[-84.3190048,33.7942502],[-84.3198362,33.7942207],[-84.3198446,33.7942204],[-84.319885,33.794219],[-84.3198798,33.7941605],[-84.3198795,33.7941575],[-84.3199041,33.7941545],[-84.3199047,33.7941118],[-84.3198731,33.7940984],[-84.3199324,33.7940156],[-84.3198654,33.7940189],[-84.3198734,33.7939164],[-84.3206955,33.7939166]]]}},{"type":"Feature","id":51313455,"properties":{"osmId":51313455,"category":"academic","DeKalb:id":"140997","building":"school","name":"Glenn Church School Building"},"geometry":{"type":"Polygon","coordinates":[[[-84.3232972,33.7890939],[-84.3232717,33.7889924],[-84.3233456,33.7889765],[-84.3232677,33.7886915],[-84.3232932,33.7886871],[-84.3232865,33.7886614],[-84.3231899,33.7886759],[-84.3231591,33.7885756],[-84.3233267,33.7885444],[-84.3234823,33.788521],[-84.3235064,33.7886235],[-84.3234367,33.7886369],[-84.3235236,33.7889461],[-84.3235921,33.7889343],[-84.3235922,33.7889349],[-84.3236176,33.7890374],[-84.3232972,33.7890939]]]}},{"type":"Feature","id":51315226,"properties":{"osmId":51315226,"category":"academic","DeKalb:id":"149645","addr:city":"Atlanta","addr:housenumber":"350","addr:postcode":"30322","addr:state":"GA","addr:street":"Facilities Management Drive","building":"university","name":"Campus Services Building D"},"geometry":{"type":"Polygon","coordinates":[[[-84.3267653,33.7961543],[-84.3268701,33.7959517],[-84.3269234,33.7959709],[-84.327168,33.7960591],[-84.3271753,33.7960617],[-84.3270705,33.7962644],[-84.3267653,33.7961543]]]}},{"type":"Feature","id":51315359,"properties":{"osmId":51315359,"category":"academic","DeKalb:id":"148735","addr:city":"Atlanta","addr:housenumber":"17","addr:postcode":"30322","addr:state":"GA","addr:street":"Eagle Row","alt_name":"Alpha Epsilon Pi","building":"university","loc_name":"AEPi","name":"ΑΕΠ"},"geometry":{"type":"Polygon","coordinates":[[[-84.3283646,33.7950896],[-84.3284482,33.7950113],[-84.3284616,33.7950213],[-84.3284725,33.7950112],[-84.3285699,33.7950838],[-84.3284585,33.7951879],[-84.3283632,33.7951169],[-84.32838,33.7951011],[-84.3283646,33.7950896]]]}},{"type":"Feature","id":51343459,"properties":{"osmId":51343459,"category":"academic","DeKalb:id":"134324","addr:housenumber":"758","addr:postcode":"30030","addr:street":"Scott Boulevard","building":"school","check_date":"2025-08-02","internet_access":"no","name":"Westchester Elementary School","office":"government","payment:cards":"no","payment:credit_cards":"no","payment:debit_cards":"no","website":"http://westchester.csdecatur.net/","wheelchair":"yes"},"geometry":{"type":"Polygon","coordinates":[[[-84.3065797,33.7836511],[-84.306267,33.7834724],[-84.3062414,33.7834577],[-84.3062265,33.7834757],[-84.3062432,33.7834853],[-84.3062176,33.7835167],[-84.3061889,33.7835003],[-84.3061493,33.7834777],[-84.3061583,33.7834667],[-84.3061592,33.7834656],[-84.3061387,33.7834539],[-84.3061137,33.7834396],[-84.3061149,33.7834382],[-84.3061317,33.7834176],[-84.3059973,33.7833408],[-84.3060568,33.783268],[-84.3060394,33.7832582],[-84.3060241,33.7832494],[-84.3061885,33.7830488],[-84.3061969,33.7830536],[-84.3062917,33.7831078],[-84.3063028,33.7831142],[-84.306331,33.7830798],[-84.3063334,33.7830769],[-84.3063186,33.7830684],[-84.3064711,33.7828823],[-84.3066009,33.7829565],[-84.3064478,33.7831432],[-84.3064324,33.7831344],[-84.3064093,33.7831627],[-84.3064221,33.78317],[-84.3064095,33.7831853],[-84.3067643,33.7833881],[-84.306844,33.7834336],[-84.3067779,33.7835142],[-84.3067548,33.7835424],[-84.3067456,33.7835536],[-84.3066871,33.7835201],[-84.3066833,33.7835249],[-84.3066726,33.7835379],[-84.3065797,33.7836511]]]}},{"type":"Feature","id":61494982,"properties":{"osmId":61494982,"category":"medical","addr:city":"Atlanta","addr:housenumber":"1364","addr:postcode":"30322","addr:street":"Clifton Road Northeast","amenity":"hospital","building":"hospital","check_date":"2025-05-06","emergency":"yes","gnis:feature_id":"1687149","healthcare":"hospital","name":"Emory University Hospital","opening_hours":"24/7","operator":"Emory Healthcare","phone":"+1 404 712 2000","website":"https://www.emoryhealthcare.org/locations/hospitals/emory-university-hospital/","wheelchair":"yes","wikidata":"Q5373728","wikipedia":"en:Emory University Hospital"},"geometry":{"type":"Polygon","coordinates":[[[-84.3211678,33.7918718],[-84.3212067,33.7919342],[-84.3213672,33.7921957],[-84.3214454,33.7923232],[-84.3214293,33.7923299],[-84.3214777,33.7924082],[-84.3215285,33.7924904],[-84.3215674,33.792613],[-84.3215822,33.7926074],[-84.3217538,33.7928972],[-84.3218839,33.7928381],[-84.3218745,33.7928147],[-84.3218839,33.792808],[-84.3219362,33.7927924],[-84.3219644,33.7928359],[-84.321955,33.7928437],[-84.32201,33.7929206],[-84.322246,33.79274],[-84.3222943,33.7926899],[-84.3222729,33.7926375],[-84.3223332,33.7926052],[-84.3223493,33.7926297],[-84.3223359,33.7926341],[-84.3223466,33.7926598],[-84.3223708,33.792652],[-84.3223894,33.7926609],[-84.3224573,33.7926118],[-84.322419,33.7925818],[-84.3224713,33.7925528],[-84.3224499,33.7925182],[-84.322584,33.7924647],[-84.3225652,33.7924391],[-84.3225826,33.7924001],[-84.3227972,33.7923087],[-84.3227288,33.7921894],[-84.3229206,33.7921137],[-84.3229568,33.7921883],[-84.3231794,33.792049],[-84.3231258,33.7919966],[-84.3231593,33.7919844],[-84.3230507,33.7918094],[-84.3230266,33.7918183],[-84.3230373,33.7917871],[-84.3230279,33.791757],[-84.3230024,33.7917336],[-84.3229689,33.7917135],[-84.3227704,33.7913691],[-84.3227476,33.7913814],[-84.3227261,33.7913547],[-84.3225531,33.7914204],[-84.3225894,33.7914917],[-84.3223694,33.791582],[-84.3223029,33.7916097],[-84.3222697,33.7916236],[-84.321955,33.7917548],[-84.3219188,33.7916801],[-84.3219564,33.7916634],[-84.3219349,33.7916299],[-84.3217431,33.791708],[-84.3217606,33.7917347],[-84.3216962,33.7917626],[-84.3217458,33.7918417],[-84.3215648,33.7919119],[-84.3215098,33.791854],[-84.3214829,33.7918573],[-84.3214373,33.7917904],[-84.3214145,33.7918016],[-84.3214078,33.7917916],[-84.3213626,33.7918101],[-84.3213287,33.7918239],[-84.3213166,33.7918094],[-84.3212715,33.7918283],[-84.3211936,33.791861],[-84.3211678,33.7918718]]]}},{"type":"Feature","id":65956875,"properties":{"osmId":65956875,"category":"academic","building":"university","name":"Goizueta Foundation Building"},"geometry":{"type":"Polygon","coordinates":[[[-84.3217955,33.7902995],[-84.322157,33.7903068],[-84.3228446,33.7898829],[-84.3225889,33.7897249],[-84.3224535,33.7898079],[-84.3224724,33.7898269],[-84.3223606,33.7898955],[-84.3220839,33.7900654],[-84.3217693,33.7900625],[-84.3217203,33.7900621],[-84.3217955,33.7902995]]]}},{"type":"Feature","id":95475030,"properties":{"osmId":95475030,"category":"academic","DeKalb:id":"149180","addr:city":"Atlanta","addr:housenumber":"201","addr:postcode":"30322","addr:state":"GA","addr:street":"F. M. Drive","building":"university","name":"Campus Services Building B"},"geometry":{"type":"Polygon","coordinates":[[[-84.3256643,33.7953641],[-84.3261473,33.7955317],[-84.3260775,33.7956647],[-84.32553,33.7954676],[-84.3255989,33.7953236],[-84.3256565,33.7953416],[-84.32565,33.7953581],[-84.3256643,33.7953641]]]}},{"type":"Feature","id":95475041,"properties":{"osmId":95475041,"category":"academic","DeKalb:id":"149180","addr:city":"Atlanta","addr:housenumber":"100","addr:postcode":"30322","addr:state":"GA","addr:street":"Water Tower Place","building":"university","name":"Campus Services Building A - Campus Services Administration"},"geometry":{"type":"Polygon","coordinates":[[[-84.3256565,33.7953416],[-84.3257165,33.7952168],[-84.3257419,33.7952258],[-84.3257514,33.7952069],[-84.3261846,33.7953622],[-84.3261179,33.7954931],[-84.3256794,33.7953381],[-84.3256643,33.7953641],[-84.32565,33.7953581],[-84.3256565,33.7953416]]]}},{"type":"Feature","id":96774356,"properties":{"osmId":96774356,"category":"residential","building":"residential","name":"Building C","operator":"Emory University","residential":"university"},"geometry":{"type":"Polygon","coordinates":[[[-84.3110607,33.7964174],[-84.3110618,33.7964379],[-84.3109449,33.7964425],[-84.310946,33.7964613],[-84.310801,33.796467],[-84.3107999,33.7964483],[-84.310783,33.7964489],[-84.3107839,33.7964651],[-84.3106462,33.7964705],[-84.3106451,33.7964513],[-84.310625,33.7964521],[-84.310626,33.7964702],[-84.3104739,33.7964762],[-84.3104717,33.7964323],[-84.3104417,33.7964334],[-84.3104356,33.7963266],[-84.3104637,33.7963254],[-84.3104611,33.7962793],[-84.3106176,33.7962731],[-84.3106187,33.7962938],[-84.3106318,33.7962933],[-84.3106308,33.7962752],[-84.3107746,33.7962696],[-84.3107758,33.7962894],[-84.3107965,33.7962886],[-84.3107954,33.7962709],[-84.3109334,33.7962655],[-84.3109346,33.7962862],[-84.3110509,33.7962817],[-84.3110521,33.7963019],[-84.3110745,33.796301],[-84.3110811,33.7964166],[-84.3110607,33.7964174]]]}},{"type":"Feature","id":98280771,"properties":{"osmId":98280771,"category":"medical","addr:housename":"1525 Building","addr:housenumber":"1525","addr:postcode":"30322","addr:street":"Clifton Road","amenity":"clinic","building":"yes","healthcare":"clinic","name":"The Emory Clinic","website":"http://www.emoryhealthcare.org/locations/the-emory-clinic/emory-clinic-1525-clifton-rd.html","wikidata":"Q30282333"},"geometry":{"type":"Polygon","coordinates":[[[-84.3230041,33.7981325],[-84.3228354,33.7979892],[-84.3228962,33.7979398],[-84.3226925,33.7977669],[-84.3223068,33.7980806],[-84.3223349,33.7981043],[-84.3225131,33.7982558],[-84.3225282,33.7982435],[-84.3225974,33.7983023],[-84.3227216,33.7982013],[-84.3228185,33.7982835],[-84.3230041,33.7981325]]]}},{"type":"Feature","id":98280772,"properties":{"osmId":98280772,"category":"other","addr:housename":"1525 Deck","addr:housenumber":"1525","addr:postcode":"30322","addr:street":"Clifton Road","amenity":"parking","building":"yes","operator":"Emory University"},"geometry":{"type":"Polygon","coordinates":[[[-84.3226502,33.7983472],[-84.3225974,33.7983023],[-84.3225282,33.7982435],[-84.3225131,33.7982558],[-84.3223349,33.7981043],[-84.3219945,33.7983808],[-84.322062,33.7984382],[-84.3224921,33.7988037],[-84.3225499,33.7988529],[-84.322598,33.7988138],[-84.3225769,33.7987959],[-84.3228369,33.7985847],[-84.3226028,33.7983857],[-84.3226502,33.7983472]]]}},{"type":"Feature","id":112912641,"properties":{"osmId":112912641,"category":"academic","addr:city":"Atlanta","addr:housenumber":"555","addr:postcode":"30322","addr:street":"Asbury Circle","building":"university","name":"Telecommunications"},"geometry":{"type":"Polygon","coordinates":[[[-84.3227381,33.7924776],[-84.3228039,33.7925516],[-84.322828,33.7925828],[-84.3226765,33.7926809],[-84.3226509,33.7926522],[-84.3226161,33.7926207],[-84.3225352,33.7926811],[-84.3224573,33.7926118],[-84.3227381,33.7924776]]]}},{"type":"Feature","id":112921497,"properties":{"osmId":112921497,"category":"medical","addr:city":"Atlanta","addr:housenumber":"1701","addr:postcode":"30322","addr:state":"GA","addr:street":"Uppergate Drive","amenity":"clinic","building":"yes","healthcare":"clinic","name":"Winship Cancer Institute Clinic C"},"geometry":{"type":"Polygon","coordinates":[[[-84.318966,33.7930438],[-84.3189433,33.792678],[-84.3195982,33.7926499],[-84.3195929,33.7925653],[-84.3195783,33.7925659],[-84.3195741,33.7924982],[-84.3196132,33.7924965],[-84.3196565,33.7924947],[-84.3196607,33.7925623],[-84.3196384,33.7925632],[-84.3196439,33.7926513],[-84.3198943,33.7926406],[-84.3199004,33.7927376],[-84.3200067,33.7927331],[-84.3200174,33.792905],[-84.3199098,33.7929097],[-84.3199116,33.7929386],[-84.3196871,33.7929482],[-84.3196852,33.792917],[-84.3196477,33.7929186],[-84.3196496,33.7929487],[-84.319506,33.7929548],[-84.319504,33.7929228],[-84.3192197,33.792935],[-84.3192258,33.7930326],[-84.318966,33.7930438]]]}},{"type":"Feature","id":122487428,"properties":{"osmId":122487428,"category":"medical","building":"hospital"},"geometry":{"type":"Polygon","coordinates":[[[-84.319919,33.7932722],[-84.3198734,33.7933625],[-84.3198734,33.7939164],[-84.3198654,33.7940189],[-84.3198667,33.7940724],[-84.3198278,33.7941059],[-84.3198278,33.7941549],[-84.3190822,33.7941605],[-84.3190728,33.7939677],[-84.3188542,33.7939677],[-84.3188462,33.7938216],[-84.3191519,33.7938205],[-84.3191559,33.7934059],[-84.3192954,33.7934015],[-84.3192914,33.7933658],[-84.3195757,33.7933558],[-84.319565,33.7933268],[-84.3196106,33.7933045],[-84.3196025,33.7932822],[-84.3196347,33.7932688],[-84.3196669,33.793261],[-84.3197045,33.7932544],[-84.3197514,33.793251],[-84.3197943,33.793251],[-84.3198319,33.793251],[-84.3198721,33.7932588],[-84.319919,33.7932722]]]}},{"type":"Feature","id":167773028,"properties":{"osmId":167773028,"category":"academic","addr:state":"GA","building":"university","ele":"302","name":"Health Sciences Research Building I"},"geometry":{"type":"Polygon","coordinates":[[[-84.3181883,33.7942125],[-84.3179999,33.7944269],[-84.3179793,33.7944504],[-84.317877,33.7945668],[-84.3177348,33.7944844],[-84.3178287,33.7943796],[-84.3177482,33.7943278],[-84.3177331,33.7943204],[-84.3177059,33.79435],[-84.3173813,33.7947319],[-84.3173431,33.7947099],[-84.3173143,33.7947466],[-84.3170935,33.7946143],[-84.3171265,33.7945808],[-84.3170914,33.7945585],[-84.3173953,33.7942085],[-84.3173419,33.7941703],[-84.3174446,33.7940452],[-84.3174783,33.794062],[-84.3175901,33.7939351],[-84.3175628,33.7939196],[-84.3176366,33.7938284],[-84.3179499,33.7940187],[-84.3177702,33.7942209],[-84.3178163,33.794258],[-84.3177749,33.7942986],[-84.3178566,33.7943507],[-84.3179955,33.7941955],[-84.3179595,33.7941745],[-84.3180242,33.7941088],[-84.3180656,33.7941389],[-84.3181565,33.7941934],[-84.3181883,33.7942125]]]}},{"type":"Feature","id":167776112,"properties":{"osmId":167776112,"category":"academic","building":"school","building:levels":"1"},"geometry":{"type":"Polygon","coordinates":[[[-84.3164317,33.7936334],[-84.3162465,33.7935524],[-84.3163141,33.7934457],[-84.3162127,33.7934014],[-84.3162302,33.7933737],[-84.3162251,33.7933715],[-84.3162497,33.7933343],[-84.316261,33.7933172],[-84.3162708,33.7933022],[-84.3163289,33.793214],[-84.3166273,33.7933463],[-84.316527,33.7935048],[-84.3165162,33.7935001],[-84.3164317,33.7936334]]]}},{"type":"Feature","id":167776113,"properties":{"osmId":167776113,"category":"academic","building":"school","building:levels":"2"},"geometry":{"type":"Polygon","coordinates":[[[-84.3168894,33.7937508],[-84.3168773,33.7937454],[-84.3167025,33.7936685],[-84.3166813,33.7937018],[-84.3165767,33.7936557],[-84.3167416,33.793397],[-84.3168821,33.7934594],[-84.316857,33.7934985],[-84.3171042,33.7936081],[-84.3171155,33.7935904],[-84.3171906,33.7936237],[-84.3172436,33.7936465],[-84.3171638,33.7937717],[-84.3171561,33.7937838],[-84.3171669,33.7937886],[-84.3168292,33.7943185],[-84.3165937,33.7942149],[-84.3167881,33.7939098],[-84.3168359,33.7938351],[-84.3168432,33.7938234],[-84.3168894,33.7937508]]]}},{"type":"Feature","id":167782415,"properties":{"osmId":167782415,"category":"academic","addr:city":"Atlanta","addr:housenumber":"1518","addr:postcode":"30322","addr:state":"GA","addr:street":"Clifton Road Northeast","building":"university","building:levels":"9","name":"Claudia Nance Rollins Building"},"geometry":{"type":"Polygon","coordinates":[[[-84.3243131,33.7978335],[-84.3242514,33.7977778],[-84.3242702,33.7977666],[-84.3241951,33.7977065],[-84.3240958,33.797644],[-84.3239697,33.797595],[-84.3238195,33.7975527],[-84.323849,33.797439],[-84.3238651,33.7973989],[-84.3239027,33.7972785],[-84.3240019,33.7972986],[-84.3241441,33.7973454],[-84.3242883,33.7974136],[-84.3243882,33.7974769],[-84.3244928,33.7975549],[-84.3245974,33.797644],[-84.3243131,33.7978335]]]}},{"type":"Feature","id":167837141,"properties":{"osmId":167837141,"category":"academic","addr:city":"Atlanta","addr:housenumber":"4","addr:postcode":"30322","addr:state":"GA","addr:street":"Eagle Row","alt_name":"Few Hall","building":"university","name":"Ignatius Few Hall","official_name":"Ignatius Few Hall"},"geometry":{"type":"Polygon","coordinates":[[[-84.3246272,33.7942985],[-84.3244591,33.7943182],[-84.3244934,33.7944759],[-84.3245303,33.794645],[-84.3246107,33.7946338],[-84.3246483,33.7946427],[-84.3246322,33.7946762],[-84.3247314,33.7947051],[-84.3247261,33.794723],[-84.324879,33.7947676],[-84.3248843,33.794752],[-84.3250104,33.7947898],[-84.325064,33.7946628],[-84.3247046,33.7945491],[-84.3246898,33.7945794],[-84.3246423,33.7945659],[-84.324637,33.7945376],[-84.3246724,33.7945357],[-84.3246272,33.7942985]]]}},{"type":"Feature","id":167837142,"properties":{"osmId":167837142,"category":"academic","addr:city":"Atlanta","addr:housenumber":"1380","addr:postcode":"30322","addr:state":"GA","addr:street":"Oxford Road Northeast","building":"university","name":"Oxford Road Building"},"geometry":{"type":"Polygon","coordinates":[[[-84.3272659,33.7896164],[-84.3269571,33.7897748],[-84.3268456,33.7896424],[-84.3267844,33.7896757],[-84.3267397,33.7897016],[-84.3265901,33.7895273],[-84.3265429,33.7894698],[-84.326508,33.7894857],[-84.326409,33.789365],[-84.3264433,33.7893458],[-84.3264366,33.7893374],[-84.326546,33.7892779],[-84.3265527,33.7892867],[-84.3266443,33.7892323],[-84.3266577,33.7891711],[-84.326707,33.7891374],[-84.3267404,33.7891144],[-84.3271454,33.7894708],[-84.3272659,33.7896164]]]}},{"type":"Feature","id":167837145,"properties":{"osmId":167837145,"category":"academic","addr:city":"Atlanta","addr:housenumber":"1515","addr:postcode":"30322","addr:state":"GA","addr:street":"Dickey Drive","building":"university","name":"Atwood Chemistry Center"},"geometry":{"type":"Polygon","coordinates":[[[-84.3269163,33.7907593],[-84.3270523,33.79092],[-84.3270908,33.7908975],[-84.327288,33.7911304],[-84.327156,33.7912076],[-84.327183,33.7912396],[-84.3271192,33.7912769],[-84.3271035,33.7912584],[-84.3270743,33.7912754],[-84.3271161,33.7913247],[-84.3268431,33.7914841],[-84.3268121,33.7914474],[-84.3267261,33.7914976],[-84.3266767,33.7915265],[-84.3265513,33.7913784],[-84.3267608,33.7912558],[-84.3266205,33.7910902],[-84.3264766,33.7909204],[-84.3266363,33.790827],[-84.3268123,33.790724],[-84.3268667,33.7907883],[-84.3269163,33.7907593]]]}},{"type":"Feature","id":167837151,"properties":{"osmId":167837151,"category":"academic","addr:city":"Atlanta","addr:housenumber":"1531","addr:postcode":"30322","addr:state":"GA","addr:street":"Dickey Drive","building":"university","name":"Candler School of Theology"},"geometry":{"type":"Polygon","coordinates":[[[-84.3258629,33.7913862],[-84.3256818,33.7915095],[-84.325791,33.7916281],[-84.3257743,33.7916449],[-84.3257518,33.7916266],[-84.3257192,33.7916515],[-84.3255655,33.7917846],[-84.325555,33.7917941],[-84.325693,33.7919036],[-84.3257144,33.7918844],[-84.3257469,33.7919096],[-84.3259223,33.7917611],[-84.3259806,33.7918195],[-84.3261651,33.7916959],[-84.3258856,33.7914094],[-84.3258629,33.7913862]]]}},{"type":"Feature","id":167837152,"properties":{"osmId":167837152,"category":"academic","addr:city":"Atlanta","addr:housenumber":"4","addr:postcode":"30322","addr:state":"GA","addr:street":"Eagle Row","alt_name":"Evans Hall","building":"university","name":"Lettie Pate Whitehead Evans Hall","official_name":"Lettie Pate Whitehead Evans Hall"},"geometry":{"type":"Polygon","coordinates":[[[-84.3253043,33.7946857],[-84.3251139,33.7946701],[-84.3250925,33.794808],[-84.3251842,33.7948141],[-84.3251823,33.7948367],[-84.3253397,33.794847],[-84.3253422,33.7948343],[-84.3254235,33.7948393],[-84.3254438,33.7946968],[-84.3254787,33.7946411],[-84.3255055,33.7946522],[-84.3255833,33.7945363],[-84.3255711,33.7945283],[-84.3256208,33.7944561],[-84.325476,33.7943825],[-84.3252936,33.7946277],[-84.3253073,33.7946342],[-84.3253043,33.7946857]]]}},{"type":"Feature","id":167837153,"properties":{"osmId":167837153,"category":"academic","addr:city":"Atlanta","addr:housenumber":"36","addr:postcode":"30322","addr:state":"GA","addr:street":"Eagle Row","alt_name":"PAIS","building":"university","name":"Psychology and Interdisciplinary Sciences"},"geometry":{"type":"Polygon","coordinates":[[[-84.3274,33.7907358],[-84.3274208,33.7907331],[-84.3274187,33.7907016],[-84.3276714,33.7906836],[-84.3277206,33.7910771],[-84.3274844,33.7915324],[-84.3273066,33.7914868],[-84.3273139,33.7914689],[-84.3272516,33.7914537],[-84.3272612,33.7914246],[-84.3272455,33.7914207],[-84.3274364,33.7910431],[-84.3274059,33.7909948],[-84.3274291,33.7909784],[-84.3274,33.7907358]]]}},{"type":"Feature","id":190480051,"properties":{"osmId":190480051,"category":"academic","addr:city":"Atlanta","addr:housenumber":"1534","addr:postcode":"30322","addr:state":"GA","addr:street":"Clifton Road Northeast","building":"university","building:levels":"9","name":"Grace Crum Rollins Building"},"geometry":{"type":"Polygon","coordinates":[[[-84.3234953,33.797202],[-84.3233625,33.797246],[-84.3231807,33.7973771],[-84.3232405,33.7974427],[-84.3234551,33.7977503],[-84.3234953,33.7978239],[-84.3236455,33.7977325],[-84.3237421,33.7977035],[-84.3237367,33.7976923],[-84.3238065,33.7976389],[-84.3237582,33.7975831],[-84.3237045,33.7974472],[-84.3236482,33.7973491],[-84.3236241,33.7973602],[-84.3235356,33.7972934],[-84.3234953,33.797202]]]}},{"type":"Feature","id":210681576,"properties":{"osmId":210681576,"category":"academic","building":"yes"},"geometry":{"type":"Polygon","coordinates":[[[-84.3221199,33.7979299],[-84.3220207,33.7980168],[-84.3218946,33.7979188],[-84.3219938,33.7978318],[-84.3221199,33.7979299]]]}},{"type":"Feature","id":210681578,"properties":{"osmId":210681578,"category":"academic","building":"yes"},"geometry":{"type":"Polygon","coordinates":[[[-84.3216639,33.7982553],[-84.3215996,33.7983244],[-84.3215218,33.7982687],[-84.3215915,33.7982063],[-84.3216639,33.7982553]]]}},{"type":"Feature","id":210770476,"properties":{"osmId":210770476,"category":"academic","building":"university","name":"EPS Neuroscience Building"},"geometry":{"type":"Polygon","coordinates":[[[-84.3183348,33.8031489],[-84.3183529,33.8027266],[-84.3180601,33.8027179],[-84.3180531,33.8028818],[-84.3176542,33.80287],[-84.3176431,33.8031285],[-84.3183348,33.8031489]]]}},{"type":"Feature","id":210770575,"properties":{"osmId":210770575,"category":"academic","building":"university"},"geometry":{"type":"Polygon","coordinates":[[[-84.3192401,33.8028228],[-84.3190768,33.8028163],[-84.3190805,33.8027689],[-84.3190267,33.8027673],[-84.3190238,33.8028148],[-84.3188041,33.8028087],[-84.318813,33.802657],[-84.319032,33.8026625],[-84.3190303,33.80271],[-84.3190826,33.8027126],[-84.3190834,33.8026926],[-84.3192451,33.8026993],[-84.3192401,33.8028228]]]}},{"type":"Feature","id":210770588,"properties":{"osmId":210770588,"category":"academic","building":"university","name":"Cid"},"geometry":{"type":"Polygon","coordinates":[[[-84.3190625,33.8025014],[-84.3188881,33.802497],[-84.3188935,33.8024123],[-84.3190678,33.8024167],[-84.3190625,33.8025014]]]}},{"type":"Feature","id":216261215,"properties":{"osmId":216261215,"category":"residential","addr:city":"Atlanta","addr:housenumber":"640","addr:postcode":"30322","addr:state":"GA","addr:street":"Means Drive","building":"residential","name":"Turman Hall","operator":"Emory University","residential":"university"},"geometry":{"type":"Polygon","coordinates":[[[-84.3232504,33.7940979],[-84.3231903,33.7940986],[-84.3225519,33.7941061],[-84.3225496,33.7939722],[-84.3232481,33.793964],[-84.3232504,33.7940979]]]}},{"type":"Feature","id":236930964,"properties":{"osmId":236930964,"category":"other","addr:city":"Atlanta","addr:housenumber":"550","addr:postcode":"30322","addr:state":"GA","addr:street":"Houston Mill Road","amenity":"parking","building":"yes","covered":"yes","fee":"yes","name":"Michael Street Parking Deck","operator":"Emory University Parking & Transportation","operator:type":"university","parking":"multi-storey","payment:credit_cards":"yes","payment:debit_cards":"yes","website":"https://transportation.emory.edu/parking-maps"},"geometry":{"type":"Polygon","coordinates":[[[-84.3251943,33.7960837],[-84.3247215,33.7959656],[-84.3246789,33.795955],[-84.3246647,33.7959969],[-84.3245528,33.7959695],[-84.3245692,33.7959277],[-84.3240504,33.7958018],[-84.3240361,33.7958447],[-84.3239809,33.7958344],[-84.323809,33.7963201],[-84.3238644,33.7963346],[-84.3238504,33.7963757],[-84.323892,33.796386],[-84.3243655,33.7965029],[-84.3243849,33.7964607],[-84.3244314,33.7964751],[-84.3243341,33.79675],[-84.3242287,33.7970478],[-84.3242783,33.7970585],[-84.3242636,33.7971025],[-84.3243162,33.7971166],[-84.3247897,33.7972284],[-84.3248023,33.7971887],[-84.3248583,33.7972006],[-84.3249724,33.7968774],[-84.3250095,33.7967722],[-84.3250284,33.7967187],[-84.3249669,33.7967025],[-84.3250042,33.7966055],[-84.3250616,33.7966192],[-84.3250703,33.7965947],[-84.3252108,33.7962013],[-84.3252332,33.7961384],[-84.3251799,33.7961254],[-84.3251943,33.7960837]]]}},{"type":"Feature","id":239890974,"properties":{"osmId":239890974,"category":"residential","building":"residential","name":"Building E","operator":"Emory University","residential":"university"},"geometry":{"type":"Polygon","coordinates":[[[-84.3088178,33.798044],[-84.3088687,33.7981283],[-84.3087696,33.798171],[-84.3087959,33.7982133],[-84.3088215,33.7982543],[-84.3090037,33.798538],[-84.3090955,33.7986865],[-84.3085361,33.7989307],[-84.3084283,33.7987645],[-84.3088614,33.7985734],[-84.3087106,33.7983349],[-84.3081138,33.7985917],[-84.3080085,33.798424],[-84.3085817,33.798174],[-84.3085663,33.7981517],[-84.3088178,33.798044]]]}},{"type":"Feature","id":239890975,"properties":{"osmId":239890975,"category":"residential","building":"residential","name":"Building F","operator":"Emory University","residential":"university"},"geometry":{"type":"Polygon","coordinates":[[[-84.3097125,33.7978658],[-84.309685,33.7978241],[-84.3096653,33.7977942],[-84.309567,33.7978364],[-84.3095163,33.7977555],[-84.3097712,33.7976457],[-84.3097834,33.7976656],[-84.3102508,33.7974572],[-84.3103608,33.7976255],[-84.3098733,33.79784],[-84.3100188,33.7980635],[-84.3102507,33.79796],[-84.3103581,33.7981287],[-84.3099967,33.7982886],[-84.3099049,33.7981403],[-84.3097125,33.7978658]]]}},{"type":"Feature","id":239890980,"properties":{"osmId":239890980,"category":"residential","building":"residential","name":"Building H","operator":"Emory University","residential":"university"},"geometry":{"type":"Polygon","coordinates":[[[-84.3089443,33.798083],[-84.3090023,33.7981755],[-84.3095238,33.7979481],[-84.3094631,33.7978556],[-84.3092057,33.7979684],[-84.3089443,33.798083]]]}},{"type":"Feature","id":239890981,"properties":{"osmId":239890981,"category":"residential","building":"residential","name":"Building G","operator":"Emory University","residential":"university"},"geometry":{"type":"Polygon","coordinates":[[[-84.3097146,33.7983539],[-84.3096541,33.7982575],[-84.309232,33.7984388],[-84.3092954,33.7985378],[-84.3097146,33.7983539]]]}},{"type":"Feature","id":239890982,"properties":{"osmId":239890982,"category":"academic","building":"university","building:levels":"3","name":"Autism Resource center"},"geometry":{"type":"Polygon","coordinates":[[[-84.3091062,33.7995017],[-84.3089292,33.7995747],[-84.3087212,33.7992294],[-84.308897,33.7991534],[-84.3089053,33.7991673],[-84.3091062,33.7995017]]]}},{"type":"Feature","id":239890984,"properties":{"osmId":239890984,"category":"academic","building":"university","name":"Mason Guest House"},"geometry":{"type":"Polygon","coordinates":[[[-84.3099779,33.799524],[-84.3099302,33.7995069],[-84.3099491,33.7994694],[-84.3098559,33.7994371],[-84.3098331,33.7994777],[-84.3098457,33.7994834],[-84.3097492,33.7996839],[-84.3097987,33.7997041],[-84.3097794,33.799743],[-84.3098538,33.7997664],[-84.3099074,33.7996707],[-84.3099229,33.7996777],[-84.3099699,33.799587],[-84.3099536,33.7995815],[-84.3099779,33.799524]]]}},{"type":"Feature","id":286360476,"properties":{"osmId":286360476,"category":"academic","addr:city":"Atlanta","addr:housenumber":"2","addr:postcode":"30322","addr:state":"GA","addr:street":"Eagle Row","building":"university","layer":"1","name":"Raoul Hall"},"geometry":{"type":"Polygon","coordinates":[[[-84.3243111,33.7947892],[-84.3243575,33.7949565],[-84.3238868,33.795046],[-84.3238748,33.7949978],[-84.3237664,33.7949997],[-84.323766,33.7950473],[-84.3233518,33.7950492],[-84.3233463,33.7949135],[-84.323346,33.7948922],[-84.3233783,33.7948919],[-84.3233737,33.7945299],[-84.3234595,33.7945291],[-84.3235631,33.7945279],[-84.3235701,33.7948911],[-84.3237676,33.7948882],[-84.3237662,33.7949128],[-84.3238524,33.7949121],[-84.3238499,33.7948778],[-84.3241767,33.794813],[-84.3243111,33.7947892]]]}},{"type":"Feature","id":287210916,"properties":{"osmId":287210916,"category":"academic","DeKalb:id":"143064","addr:state":"GA","building":"university","ele":"283","gnis:feature_id":"1687645","name":"Smith Hall","source":"USGS Geonames"},"geometry":{"type":"Polygon","coordinates":[[[-84.3217303,33.7907203],[-84.3218544,33.7907212],[-84.321898,33.7907209],[-84.322156,33.7907189],[-84.3221667,33.7907188],[-84.3221669,33.7907302],[-84.3221675,33.7907848],[-84.3221681,33.7908388],[-84.3221644,33.7908389],[-84.3217256,33.7908422],[-84.3217176,33.7908422],[-84.3217167,33.7907639],[-84.3217162,33.7907204],[-84.3217303,33.7907203]]]}},{"type":"Feature","id":287210917,"properties":{"osmId":287210917,"category":"academic","DeKalb:id":"143064","addr:state":"GA","building":"university","ele":"286","gnis:feature_id":"1687635","name":"Hopkins Hall","source":"USGS Geonames"},"geometry":{"type":"Polygon","coordinates":[[[-84.3218544,33.7907212],[-84.3217162,33.7907204],[-84.3217143,33.7906727],[-84.3214022,33.7906768],[-84.3213995,33.7906568],[-84.3213119,33.790657],[-84.3213092,33.7905617],[-84.3213646,33.7905613],[-84.3214248,33.7905609],[-84.3214246,33.7905487],[-84.3214264,33.7905487],[-84.3218702,33.7905454],[-84.3218708,33.7906016],[-84.3218715,33.7906647],[-84.3218538,33.7906648],[-84.3218544,33.7907212]]]}},{"type":"Feature","id":288252107,"properties":{"osmId":288252107,"category":"academic","DeKalb:id":"142699","addr:city":"Atlanta","addr:postcode":"30322","addr:state":"GA","addr:street":"South Kilgo Circle","building":"university","ele":"280","gnis:feature_id":"1687166","name":"Michael C. Carlos Hall","source":"USGS Geonames"},"geometry":{"type":"Polygon","coordinates":[[[-84.3244348,33.7903873],[-84.3243489,33.7902772],[-84.324337,33.7902635],[-84.3243359,33.7902623],[-84.3245545,33.79013],[-84.3245456,33.7901197],[-84.3245397,33.7901129],[-84.3245863,33.7900847],[-84.3245932,33.7900927],[-84.3245986,33.7900989],[-84.3247273,33.790021],[-84.3248436,33.790155],[-84.3246706,33.7902596],[-84.3246448,33.7902752],[-84.3246223,33.7902888],[-84.3244434,33.7903971],[-84.3244348,33.7903873]]]}},{"type":"Feature","id":294784067,"properties":{"osmId":294784067,"category":"academic","building":"university","name":"Pitts Theology Library"},"geometry":{"type":"Polygon","coordinates":[[[-84.3256923,33.7911588],[-84.3255232,33.791269],[-84.3253541,33.7913793],[-84.3253095,33.7913972],[-84.3255124,33.7917337],[-84.325528,33.7917268],[-84.3255655,33.7917846],[-84.3257192,33.7916515],[-84.3257518,33.7916266],[-84.3257743,33.7916449],[-84.325791,33.7916281],[-84.3256818,33.7915095],[-84.3258629,33.7913862],[-84.3258569,33.7913796],[-84.3258898,33.7913479],[-84.3258825,33.7913383],[-84.3258708,33.7913478],[-84.3256923,33.7911588]]]}},{"type":"Feature","id":761840928,"properties":{"osmId":761840928,"category":"academic","building":"university","name":"Emory Student Center"},"geometry":{"type":"Polygon","coordinates":[[[-84.3241943,33.794049],[-84.3241263,33.794032],[-84.3237223,33.7939309],[-84.3237303,33.7939131],[-84.3236874,33.7939086],[-84.3237142,33.793757],[-84.3237598,33.7937526],[-84.3237679,33.79365],[-84.3237947,33.7936567],[-84.3237801,33.7935454],[-84.3237652,33.7934316],[-84.3237437,33.7934316],[-84.3237089,33.7933224],[-84.3240629,33.7931953],[-84.3241246,33.793387],[-84.324142,33.7934972],[-84.3241541,33.7935742],[-84.3242265,33.7935765],[-84.3242212,33.7937749],[-84.3241863,33.793922],[-84.3242239,33.7939309],[-84.3241943,33.794049]]]}},{"type":"Feature","id":775044182,"properties":{"osmId":775044182,"category":"academic","building":"yes","layer":"-1","location":"underground","name":"Emory University Biochemistry Connector"},"geometry":{"type":"Polygon","coordinates":[[[-84.3230081,33.7963333],[-84.322895,33.7964028],[-84.323471,33.7971592],[-84.3235955,33.7971112],[-84.3233755,33.7967791],[-84.3233138,33.7968036],[-84.3230081,33.7963333]]]}},{"type":"Feature","id":775075435,"properties":{"osmId":775075435,"category":"medical","building":"hospital","name":"VA Medical Center","operator":"Veterans Health Administration"},"geometry":{"type":"Polygon","coordinates":[[[-84.3118565,33.8028749],[-84.3126182,33.8024381],[-84.3124036,33.802135],[-84.3126182,33.8020503],[-84.3125217,33.8017784],[-84.3123446,33.8015332],[-84.3119691,33.800976],[-84.3117921,33.800976],[-84.311438,33.8005614],[-84.3109392,33.8008645],[-84.310907,33.8011231],[-84.3109821,33.8012836],[-84.3106173,33.8014173],[-84.3112557,33.802135],[-84.3111001,33.8023712],[-84.3115722,33.8028749],[-84.3118565,33.8028749]]]}},{"type":"Feature","id":870475717,"properties":{"osmId":870475717,"category":"academic","building":"school","building:levels":"2"},"geometry":{"type":"Polygon","coordinates":[[[-84.3171906,33.7936237],[-84.3171155,33.7935904],[-84.3171042,33.7936081],[-84.316857,33.7934985],[-84.3168821,33.7934594],[-84.3167416,33.793397],[-84.316699,33.7933781],[-84.3166273,33.7933463],[-84.3163289,33.793214],[-84.3163369,33.7932015],[-84.3163403,33.7931963],[-84.316334,33.7931935],[-84.3163759,33.7931284],[-84.3164111,33.7931429],[-84.3164159,33.7931348],[-84.3166143,33.7932199],[-84.3166084,33.7932283],[-84.3166408,33.7932424],[-84.3166673,33.7932539],[-84.3166954,33.7932101],[-84.3167066,33.7931926],[-84.3169048,33.7932881],[-84.3170877,33.7933878],[-84.3172421,33.7934778],[-84.317237,33.7934837],[-84.3172252,33.7934784],[-84.3172217,33.7934838],[-84.3172615,33.7935015],[-84.3172434,33.7935296],[-84.317248,33.7935316],[-84.3172168,33.79358],[-84.3172119,33.7935778],[-84.317207,33.7935854],[-84.3172021,33.793593],[-84.3172085,33.7935959],[-84.3171906,33.7936237]]]}},{"type":"Feature","id":870475718,"properties":{"osmId":870475718,"category":"academic","building":"school","building:levels":"3"},"geometry":{"type":"Polygon","coordinates":[[[-84.315551,33.7932723],[-84.3155363,33.7932954],[-84.3154023,33.793507],[-84.3153873,33.7935313],[-84.3150574,33.7933897],[-84.3150597,33.7933861],[-84.3150223,33.7933699],[-84.3150441,33.7933276],[-84.315016,33.793315],[-84.3150385,33.7932554],[-84.3150273,33.793251],[-84.3150514,33.7931907],[-84.3150363,33.7931868],[-84.3150654,33.7931091],[-84.3150763,33.7931133],[-84.3150834,33.7931025],[-84.3151364,33.793126],[-84.3152047,33.7931563],[-84.3152218,33.7931271],[-84.3155074,33.7932531],[-84.315551,33.7932723]]]}},{"type":"Feature","id":870475719,"properties":{"osmId":870475719,"category":"academic","building":"school","building:levels":"3"},"geometry":{"type":"Polygon","coordinates":[[[-84.3155363,33.7932954],[-84.3155779,33.7933136],[-84.3155735,33.7933208],[-84.3157557,33.7934002],[-84.3157597,33.7933942],[-84.315801,33.7934122],[-84.3157411,33.7935069],[-84.3156679,33.7936228],[-84.3154023,33.793507],[-84.3155363,33.7932954]]]}},{"type":"Feature","id":870475753,"properties":{"osmId":870475753,"category":"academic","building":"school","building:levels":"1"},"geometry":{"type":"Polygon","coordinates":[[[-84.315616,33.7932537],[-84.3155308,33.7932163],[-84.3155074,33.7932531],[-84.315551,33.7932723],[-84.3155363,33.7932954],[-84.3155779,33.7933136],[-84.315616,33.7932537]]]}},{"type":"Feature","id":887239234,"properties":{"osmId":887239234,"category":"academic","addr:city":"Atlanta","addr:housenumber":"1599","addr:postcode":"30322","addr:state":"GA","addr:street":"Clifton Road Northeast","building":"university","building:levels":"6","name":"The 1599 Building"},"geometry":{"type":"Polygon","coordinates":[[[-84.3242081,33.7999988],[-84.3239375,33.7999644],[-84.3239616,33.7998337],[-84.3240015,33.799606],[-84.3248259,33.7997059],[-84.3247734,33.8000048],[-84.324222,33.799938],[-84.3242081,33.7999988]]]}},{"type":"Feature","id":890862210,"properties":{"osmId":890862210,"category":"athletic","building":"shed"},"geometry":{"type":"Polygon","coordinates":[[[-84.306864,33.7836428],[-84.3068407,33.7836679],[-84.3068219,33.7836574],[-84.3068435,33.7836311],[-84.306864,33.7836428]]]}},{"type":"Feature","id":945411720,"properties":{"osmId":945411720,"category":"academic","building":"university","name":"EPS Dual Function Facility"},"geometry":{"type":"Polygon","coordinates":[[[-84.3201421,33.8036766],[-84.3200783,33.8037559],[-84.3200081,33.8037186],[-84.319972,33.8037625],[-84.3199795,33.8037662],[-84.3199737,33.8037739],[-84.3196119,33.8035799],[-84.3196287,33.8035568],[-84.3196375,33.8035598],[-84.319722,33.8034491],[-84.3200912,33.803649],[-84.3201421,33.8036766]]]}},{"type":"Feature","id":945411721,"properties":{"osmId":945411721,"category":"academic","amenity":"office","building":"university"},"geometry":{"type":"Polygon","coordinates":[[[-84.3198781,33.8040094],[-84.3196485,33.8039501],[-84.3197061,33.8038007],[-84.3199335,33.8038617],[-84.3198781,33.8040094]]]}},{"type":"Feature","id":945411726,"properties":{"osmId":945411726,"category":"academic","building":"university"},"geometry":{"type":"Polygon","coordinates":[[[-84.3194176,33.8037382],[-84.3192425,33.803734],[-84.3192428,33.803698],[-84.3192201,33.8036969],[-84.3192198,33.8037199],[-84.3191917,33.8037191],[-84.3191913,33.8037301],[-84.3190348,33.8037267],[-84.3190389,33.8036481],[-84.3190216,33.8036467],[-84.3190236,33.8035555],[-84.3190189,33.8035558],[-84.3190185,33.8035482],[-84.319211,33.8035513],[-84.3192096,33.8035921],[-84.3191988,33.8035918],[-84.3191981,33.803602],[-84.3192199,33.8036021],[-84.3192203,33.8035875],[-84.3192508,33.8035879],[-84.3192519,33.8035649],[-84.3194173,33.8035683],[-84.3194155,33.8036063],[-84.3194224,33.8036063],[-84.3194209,33.8036515],[-84.3194176,33.8037382]]]}},{"type":"Feature","id":945411727,"properties":{"osmId":945411727,"category":"academic","building":"university","name":"EPS - T-14"},"geometry":{"type":"Polygon","coordinates":[[[-84.3190862,33.8038857],[-84.3190012,33.8038843],[-84.3190041,33.8037734],[-84.3190892,33.8037755],[-84.3190862,33.8038857]]]}},{"type":"Feature","id":945411728,"properties":{"osmId":945411728,"category":"academic","building":"university","name":"EPS T-12"},"geometry":{"type":"Polygon","coordinates":[[[-84.3192839,33.8039079],[-84.3192881,33.8038206],[-84.3191188,33.8038133],[-84.3191146,33.8039013],[-84.3192839,33.8039079]]]}},{"type":"Feature","id":945411729,"properties":{"osmId":945411729,"category":"academic","building":"university","name":"Repe C"},"geometry":{"type":"Polygon","coordinates":[[[-84.3194983,33.8039142],[-84.3193319,33.8039083],[-84.3193361,33.8037786],[-84.3195029,33.8037825],[-84.3194983,33.8039142]]]}},{"type":"Feature","id":945411730,"properties":{"osmId":945411730,"category":"academic","building":"university","name":"Idb"},"geometry":{"type":"Polygon","coordinates":[[[-84.3203069,33.8037037],[-84.3201402,33.8036081],[-84.3202241,33.8035037],[-84.3203908,33.8036011],[-84.3203069,33.8037037]]]}},{"type":"Feature","id":945411731,"properties":{"osmId":945411731,"category":"academic","building":"university","name":"Specimen Storage"},"geometry":{"type":"Polygon","coordinates":[[[-84.3201705,33.8035451],[-84.3200908,33.8035018],[-84.3201509,33.8034289],[-84.3202276,33.803477],[-84.3201705,33.8035451]]]}},{"type":"Feature","id":945411732,"properties":{"osmId":945411732,"category":"academic","building":"university"},"geometry":{"type":"Polygon","coordinates":[[[-84.3198719,33.8033317],[-84.3198062,33.8034031],[-84.3192972,33.8030879],[-84.3187834,33.8030714],[-84.3186533,33.8030674],[-84.318471,33.8030616],[-84.3184729,33.8029839],[-84.3184832,33.8029844],[-84.3184874,33.802913],[-84.3184772,33.8029126],[-84.3184923,33.8025772],[-84.3185764,33.8025813],[-84.3185625,33.8029147],[-84.318511,33.8029139],[-84.3185076,33.8029857],[-84.3190229,33.8030006],[-84.319297,33.8030059],[-84.319297,33.8029922],[-84.319333,33.8029943],[-84.3194367,33.8030589],[-84.3196694,33.8032066],[-84.3198719,33.8033317]]]}},{"type":"Feature","id":945411733,"properties":{"osmId":945411733,"category":"academic","building":"university","name":"Repe D"},"geometry":{"type":"Polygon","coordinates":[[[-84.3198257,33.8037976],[-84.3196737,33.8037541],[-84.3196994,33.8036845],[-84.3198519,33.8037293],[-84.3198257,33.8037976]]]}},{"type":"Feature","id":1118927410,"properties":{"osmId":1118927410,"category":"academic","architect":"The S/L/A/M Collaborative","building":"university","building:levels":"10","name":"R. Randall Rollins Building","operator":"Emory University"},"geometry":{"type":"Polygon","coordinates":[[[-84.3234179,33.7971868],[-84.3233143,33.7972606],[-84.3231302,33.7973933],[-84.3227083,33.7970356],[-84.3228414,33.7969443],[-84.3229865,33.7968007],[-84.3230021,33.7967901],[-84.3230845,33.7968317],[-84.3231658,33.796896],[-84.3232312,33.7969681],[-84.3232824,33.7970325],[-84.3233189,33.7970794],[-84.3233491,33.7971172],[-84.323364,33.7971356],[-84.3234179,33.7971868]]]}},{"type":"Feature","id":1268449466,"properties":{"osmId":1268449466,"category":"academic","building":"university","name":"Health Sciences Research Building II"},"geometry":{"type":"Polygon","coordinates":[[[-84.3178206,33.7948269],[-84.3178899,33.794687],[-84.3180844,33.7947155],[-84.3181424,33.794724],[-84.3181399,33.7945544],[-84.3179793,33.7944504],[-84.3179999,33.7944269],[-84.3181475,33.7945242],[-84.3181631,33.7945145],[-84.318317,33.794343],[-84.3187296,33.7945953],[-84.3189733,33.7948875],[-84.3186149,33.7950972],[-84.3182095,33.7950297],[-84.3178206,33.7948269]]]}},{"type":"Feature","id":1268449467,"properties":{"osmId":1268449467,"category":"academic","building":"university","name":"Emory Graduate Housing"},"geometry":{"type":"Polygon","coordinates":[[[-84.3155513,33.7920636],[-84.3155121,33.792103],[-84.3154312,33.7920433],[-84.3154468,33.792025],[-84.3153954,33.7919348],[-84.3159575,33.7916948],[-84.316012,33.7917838],[-84.3160034,33.7917939],[-84.3161852,33.7919078],[-84.3163739,33.7917099],[-84.3162762,33.7915508],[-84.3164547,33.7914734],[-84.31663,33.7917523],[-84.3165371,33.7917929],[-84.316545,33.79181],[-84.3161638,33.7922231],[-84.316073,33.7921743],[-84.3160849,33.792152],[-84.3160315,33.7921168],[-84.3160812,33.7920634],[-84.3158694,33.7919264],[-84.3155513,33.7920636]]]}},{"type":"Feature","id":1268449468,"properties":{"osmId":1268449468,"category":"academic","building":"university","name":"Emory Graduate Housing"},"geometry":{"type":"Polygon","coordinates":[[[-84.3162867,33.7923088],[-84.3166044,33.7919612],[-84.3165867,33.7919449],[-84.3166809,33.7918469],[-84.31678,33.7919118],[-84.3167719,33.7919244],[-84.3169242,33.7920235],[-84.3168103,33.7921495],[-84.3167352,33.7921011],[-84.3166414,33.7922003],[-84.3168213,33.7923156],[-84.3169165,33.792221],[-84.3168442,33.7921708],[-84.316958,33.7920482],[-84.3171106,33.7921433],[-84.3171313,33.7921195],[-84.3172385,33.7921923],[-84.3171387,33.7923008],[-84.3171153,33.792287],[-84.3167089,33.7927269],[-84.3165492,33.7926238],[-84.3167189,33.7924359],[-84.3167062,33.7924228],[-84.316683,33.7924496],[-84.3164848,33.792322],[-84.3164296,33.792382],[-84.3163873,33.792354],[-84.3163708,33.7923635],[-84.3162867,33.7923088]]]}}]}