{"type":"FeatureCollection","features":[{"type":"Feature","id":62602973,"properties":{"osmId":62602973,"category":"academic","addr:city":"Honolulu","addr:housenumber":"1111","addr:postcode":"96814","addr:state":"HI","addr:street":"Victoria Street","building":"school","museum":"art","name":"Honolulu Museum of Art School","office":"educational_institution","old_name":"Academy Art Center at Linekona;Linekona School","wikidata":"Q15242415","wikipedia":"en:Honolulu Museum of Art School"},"geometry":{"type":"Polygon","coordinates":[[[-157.8477954,21.3029653],[-157.8478635,21.3027925],[-157.8478828,21.3027926],[-157.8478981,21.3027886],[-157.8479118,21.3027811],[-157.8479231,21.3027708],[-157.8479313,21.3027581],[-157.8479358,21.302744],[-157.8479365,21.3027292],[-157.8479332,21.3027148],[-157.8479262,21.3027016],[-157.8479094,21.3026854],[-157.8479786,21.30251],[-157.8478051,21.3024505],[-157.8477967,21.3024718],[-157.8477403,21.3026144],[-157.8477165,21.3026063],[-157.8476053,21.3025682],[-157.8475583,21.3026871],[-157.8476927,21.3027331],[-157.8476242,21.3029067],[-157.8477954,21.3029653]]]}},{"type":"Feature","id":63058429,"properties":{"osmId":63058429,"category":"athletic","addr:city":"Honolulu","addr:housenumber":"777","addr:postcode":"96814","addr:state":"HI","addr:street":"Ward Avenue","air_conditioning":"yes","architect":"Merrill, Simms, Roehrig","building":"yes","building:year_built":"1964","contractor":"Hawaiian Dredging Construction Company","fax":"+1 808 768 5433","height":"9","leisure":"sports_centre","name":"Neil S. Blaisdell Arena","operator:type":"government","phone":"+1 808 768 5400","roof:shape":"dome","smoking":"no","website":"https://blaisdellcenter.com/venues/the-arena/","wheelchair":"yes","wikidata":"Q6984182","wikipedia":"en:Neal S. Blaisdell Center","year_of_construction":"1964"},"geometry":{"type":"Polygon","coordinates":[[[-157.851459,21.2994105],[-157.8515368,21.2993705],[-157.8516307,21.2993605],[-157.8516977,21.2992981],[-157.8517916,21.2992506],[-157.8518238,21.2991606],[-157.8518828,21.2990957],[-157.8518882,21.2990057],[-157.851907,21.2989207],[-157.8518775,21.2988283],[-157.8518587,21.2987358],[-157.8517889,21.2986733],[-157.851746,21.2985884],[-157.8516521,21.2985584],[-157.851577,21.2985034],[-157.8514858,21.2985084],[-157.8513732,21.2984784],[-157.8512927,21.2985134],[-157.8511881,21.2985259],[-157.8511157,21.2986008],[-157.8511054,21.2986071],[-157.8510379,21.2986483],[-157.8510084,21.2987258],[-157.8509521,21.2987908],[-157.8509494,21.2988732],[-157.8509404,21.2989096],[-157.8509253,21.2989707],[-157.8509628,21.2990557],[-157.8509682,21.2991406],[-157.8510433,21.2992131],[-157.8510916,21.2992881],[-157.8511747,21.2993306],[-157.8512552,21.299383],[-157.8513571,21.2993805],[-157.851459,21.2994105]]]}},{"type":"Feature","id":142219242,"properties":{"osmId":142219242,"category":"religious","addr:city":"Honolulu","addr:housenumber":"957","addr:postcode":"96813","addr:state":"HI","addr:street":"Punchbowl Street","amenity":"place_of_worship","boundary":"protected_area","building":"church","check_date":"2023-08-12","height":"18","heritage":"2","heritage:operator":"nrhp","name":"Kawaiaha'o Church","nrhp:criteria":"(A)","nrhp:inscription_date":"*","nrhp:nhl":"yes","protection_title":"protected_site","ref:nrhp":"66000294","religion":"christian","start_date":"1842-07-21","wikidata":"Q6379539","wikipedia":"en:Kawaiahaʻo Church"},"geometry":{"type":"Polygon","coordinates":[[[-157.8578951,21.304562],[-157.8580552,21.3043961],[-157.8577362,21.3041291],[-157.8575762,21.304295],[-157.8578951,21.304562]]]}},{"type":"Feature","id":146458586,"properties":{"osmId":146458586,"category":"academic","addr:city":"Honolulu","addr:housenumber":"1039","addr:postcode":"96814","addr:state":"HI","addr:street":"South King Street","building":"school","name":"McKinley Community School for Adults Building 857"},"geometry":{"type":"Polygon","coordinates":[[[-157.8479598,21.2971203],[-157.8477735,21.2975728],[-157.847375,21.2974304],[-157.8475613,21.2969779],[-157.8479598,21.2971203]]]}},{"type":"Feature","id":146458592,"properties":{"osmId":146458592,"category":"academic","building":"college","building:levels":"1","ref":"14"},"geometry":{"type":"Polygon","coordinates":[[[-157.8686642,21.3203201],[-157.8682013,21.3205753],[-157.8680959,21.3204126],[-157.8682561,21.3203226],[-157.8682111,21.3202532],[-157.8681244,21.3203019],[-157.8679551,21.3200405],[-157.8680408,21.3199923],[-157.8680037,21.319936],[-157.8678487,21.3200226],[-157.8677592,21.3198823],[-157.8682235,21.3196206],[-157.868318,21.319765],[-157.8681621,21.319851],[-157.8681846,21.3198919],[-157.8681903,21.3199006],[-157.8682861,21.3198468],[-157.8684633,21.3201204],[-157.8683694,21.3201731],[-157.8683788,21.3201876],[-157.8684091,21.3202344],[-157.8685459,21.3201526],[-157.8686642,21.3203201]]]}},{"type":"Feature","id":146458601,"properties":{"osmId":146458601,"category":"academic","building":"college","building:levels":"2","ref":"27"},"geometry":{"type":"Polygon","coordinates":[[[-157.8695862,21.3203908],[-157.8693952,21.3206719],[-157.8690628,21.320476],[-157.8692308,21.3202287],[-157.8692538,21.3201949],[-157.8695862,21.3203908]]]}},{"type":"Feature","id":146458613,"properties":{"osmId":146458613,"category":"academic","building":"school","name":"Administration","ref":"A"},"geometry":{"type":"Polygon","coordinates":[[[-157.8483348,21.2990155],[-157.8485385,21.2990835],[-157.8484631,21.2992794],[-157.8481889,21.2991812],[-157.8481836,21.2991945],[-157.8480978,21.2991651],[-157.8479938,21.2991289],[-157.848,21.2991135],[-157.8477469,21.2990229],[-157.8478074,21.298847],[-157.8480263,21.298909],[-157.8483348,21.2990155]]]}},{"type":"Feature","id":146458631,"properties":{"osmId":146458631,"category":"academic","building":"school","ref":"T"},"geometry":{"type":"Polygon","coordinates":[[[-157.8480578,21.2983087],[-157.8478769,21.2987583],[-157.8476777,21.2986888],[-157.8477053,21.29862],[-157.8477144,21.2986232],[-157.847841,21.2983087],[-157.8478314,21.2983053],[-157.8478581,21.298239],[-157.8480578,21.2983087]]]}},{"type":"Feature","id":240877229,"properties":{"osmId":240877229,"category":"religious","amenity":"place_of_worship","building":"church","name":"Kuan Yin Temple"},"geometry":{"type":"Polygon","coordinates":[[[-157.8591113,21.3165031],[-157.8589423,21.3166198],[-157.8588236,21.3164707],[-157.8589926,21.316354],[-157.8591113,21.3165031]]]}},{"type":"Feature","id":282759623,"properties":{"osmId":282759623,"category":"academic","building":"school"},"geometry":{"type":"Polygon","coordinates":[[[-157.8599302,21.3199503],[-157.8597654,21.3197691],[-157.8599627,21.3196134],[-157.8601275,21.3197946],[-157.8599302,21.3199503]]]}},{"type":"Feature","id":282759626,"properties":{"osmId":282759626,"category":"academic","building":"school"},"geometry":{"type":"Polygon","coordinates":[[[-157.8598176,21.3196725],[-157.8596216,21.3198239],[-157.8594,21.3195706],[-157.8595949,21.3194181],[-157.8598176,21.3196725]]]}},{"type":"Feature","id":282759631,"properties":{"osmId":282759631,"category":"academic","building":"school"},"geometry":{"type":"Polygon","coordinates":[[[-157.8594988,21.3199746],[-157.8595746,21.3199163],[-157.8592414,21.3195419],[-157.8591698,21.319598],[-157.8592454,21.3196817],[-157.859214,21.3197064],[-157.8594476,21.3199658],[-157.8594741,21.3199448],[-157.8594988,21.3199746]]]}},{"type":"Feature","id":282759633,"properties":{"osmId":282759633,"category":"academic","building":"school"},"geometry":{"type":"Polygon","coordinates":[[[-157.8603026,21.3200996],[-157.8603,21.3200524],[-157.8603405,21.3200514],[-157.8603381,21.3199744],[-157.8596196,21.3200011],[-157.8596226,21.320078],[-157.8596625,21.3200761],[-157.8596643,21.3201233],[-157.8603026,21.3200996]]]}},{"type":"Feature","id":285099505,"properties":{"osmId":285099505,"category":"academic","amenity":"school","building":"school","building:levels":"2","height":"9","name":"Kawaiaha'o Church School","operator":"Kawaiahaʻo Church","religion":"christian"},"geometry":{"type":"Polygon","coordinates":[[[-157.8577796,21.303363],[-157.8579188,21.3035555],[-157.8580073,21.3035077],[-157.8579303,21.3033893],[-157.8579926,21.3033513],[-157.8580778,21.3034719],[-157.8581576,21.303428],[-157.8580203,21.3032266],[-157.8577796,21.303363]]]}},{"type":"Feature","id":285099509,"properties":{"osmId":285099509,"category":"academic","access":"private","building":"school","building:levels":"1","fixme":"name","height":"11","leisure":"sports_hall","operator":"Kawaiaha'o Church School"},"geometry":{"type":"Polygon","coordinates":[[[-157.8583566,21.3033482],[-157.8581785,21.3034602],[-157.8581576,21.303428],[-157.8580203,21.3032266],[-157.8579979,21.3031923],[-157.8581775,21.3030855],[-157.8583566,21.3033482]]]}},{"type":"Feature","id":286832367,"properties":{"osmId":286832367,"category":"medical","addr:city":"Honolulu","addr:housenumber":"510","addr:postcode":"96813","addr:state":"HI","addr:street":"Punchbowl Street","amenity":"events_venue","building":"hospital","heritage":"2","heritage:operator":"nrhp","name":"The Queen’s Conference Center","old_name:1941-2000":"Mabel Smyth Memorial Building","ref:nrhp":"93001558","roof:shape":"hipped","start_date":"1941","wikidata":"Q108597694","wikipedia":"en:Mabel Smyth Memorial Building"},"geometry":{"type":"Polygon","coordinates":[[[-157.8552596,21.3071067],[-157.8553966,21.3070443],[-157.8551636,21.3066007],[-157.8550266,21.306663],[-157.8550591,21.3067249],[-157.8551208,21.3068425],[-157.8552045,21.3070019],[-157.8552526,21.3070934],[-157.8552596,21.3071067]]]}},{"type":"Feature","id":293593314,"properties":{"osmId":293593314,"category":"academic","addr:city":"Honolulu","addr:housenumber":"1302","addr:state":"HI","addr:street":"Queen Emma Street","building":"school","building:levels":"2","height":"8","name":"Classroom","old_name":"Keelikolani School"},"geometry":{"type":"Polygon","coordinates":[[[-157.8571687,21.3115542],[-157.8573573,21.311465],[-157.8572391,21.3112481],[-157.8571808,21.311141],[-157.8570853,21.3111861],[-157.8569922,21.3112302],[-157.8570519,21.3113399],[-157.8571687,21.3115542]]]}},{"type":"Feature","id":293593315,"properties":{"osmId":293593315,"category":"academic","addr:city":"Honolulu","addr:housenumber":"1302","addr:state":"HI","addr:street":"Queen Emma Street","amenity":"fast_food","building":"school","building:levels":"1","fast_food":"cafeteria","height":"3","name":"Cafeteria"},"geometry":{"type":"Polygon","coordinates":[[[-157.85723,21.3117988],[-157.8571197,21.3116053],[-157.8570356,21.311647],[-157.8568632,21.3117321],[-157.8567815,21.3117726],[-157.8568917,21.3119661],[-157.85723,21.3117988]]]}},{"type":"Feature","id":293593316,"properties":{"osmId":293593316,"category":"academic","addr:city":"Honolulu","addr:housenumber":"1302","addr:state":"HI","addr:street":"Queen Emma Street","building":"school","building:levels":"2","height":"8","name":"Administration & Classroom"},"geometry":{"type":"Polygon","coordinates":[[[-157.8569378,21.3114749],[-157.8569763,21.3114559],[-157.8569416,21.3113949],[-157.8569074,21.3113347],[-157.8568479,21.3113641],[-157.8568307,21.3113339],[-157.8567731,21.3113623],[-157.8566961,21.3114003],[-157.8567144,21.3114324],[-157.8566577,21.3114603],[-157.8566898,21.3115168],[-157.8567241,21.3115771],[-157.8567639,21.3115574],[-157.8568632,21.3117321],[-157.8570356,21.311647],[-157.8569378,21.3114749]]]}},{"type":"Feature","id":293593319,"properties":{"osmId":293593319,"category":"academic","addr:city":"Honolulu","addr:housenumber":"1302","addr:state":"HI","addr:street":"Queen Emma Street","building":"school","building:levels":"2","height":"8","name":"Classroom"},"geometry":{"type":"Polygon","coordinates":[[[-157.8567534,21.3118832],[-157.8565785,21.3115718],[-157.856519,21.3114659],[-157.8564289,21.3115099],[-157.8563384,21.311554],[-157.8563984,21.3116608],[-157.8564535,21.311759],[-157.8565728,21.3119713],[-157.8567534,21.3118832]]]}},{"type":"Feature","id":293593323,"properties":{"osmId":293593323,"category":"academic","addr:city":"Honolulu","addr:housenumber":"1302","addr:state":"HI","addr:street":"Queen Emma Street","building":"school","building:levels":"1","height":"3","name":"Shop"},"geometry":{"type":"Polygon","coordinates":[[[-157.8569377,21.312193],[-157.8568606,21.3120608],[-157.8567134,21.3121353],[-157.8567039,21.3121189],[-157.8566554,21.3121434],[-157.8566643,21.3121585],[-157.8565168,21.3122332],[-157.8565976,21.3123717],[-157.8566486,21.3123459],[-157.8566555,21.3123578],[-157.8567349,21.3123176],[-157.8567265,21.3123031],[-157.8568135,21.3122591],[-157.8568211,21.3122722],[-157.8568953,21.3122346],[-157.8568862,21.312219],[-157.8569377,21.312193]]]}},{"type":"Feature","id":293593327,"properties":{"osmId":293593327,"category":"academic","addr:city":"Honolulu","addr:housenumber":"1302","addr:state":"HI","addr:street":"Queen Emma Street","building":"school","building:levels":"1","height":"3","name":"Music"},"geometry":{"type":"Polygon","coordinates":[[[-157.8560724,21.3119374],[-157.8561867,21.3118703],[-157.8559704,21.3115507],[-157.8558562,21.3116178],[-157.8560724,21.3119374]]]}},{"type":"Feature","id":303875815,"properties":{"osmId":303875815,"category":"academic","building":"school","contractor":"Hawaiian Dredging Construction Company","height":"23","name":"UH John A Burns School of Medicine"},"geometry":{"type":"Polygon","coordinates":[[[-157.8627776,21.2958266],[-157.8624886,21.2955228],[-157.8627885,21.2952752],[-157.8630733,21.2955782],[-157.8629942,21.295646],[-157.863046,21.2956837],[-157.86308,21.2956498],[-157.8630956,21.2956622],[-157.8631344,21.2956189],[-157.8631623,21.2956794],[-157.863217,21.2957589],[-157.8633109,21.2958337],[-157.8630572,21.2961198],[-157.8628241,21.2959363],[-157.8628826,21.2958704],[-157.862811,21.2957975],[-157.8627776,21.2958266]]]}},{"type":"Feature","id":303876702,"properties":{"osmId":303876702,"category":"academic","building":"school","contractor":"Hawaiian Dredging Construction Company","height":"23","name":"UH John A Burns School of Medicine"},"geometry":{"type":"Polygon","coordinates":[[[-157.8643556,21.2962961],[-157.8642016,21.2961371],[-157.8641148,21.2960474],[-157.8639861,21.2961534],[-157.864008,21.2961764],[-157.8637311,21.2964044],[-157.8634861,21.296146],[-157.8635098,21.2961265],[-157.8633985,21.296009],[-157.8631307,21.2962295],[-157.863144,21.2962436],[-157.8631104,21.2962713],[-157.8634895,21.2966711],[-157.8635089,21.2966552],[-157.8637046,21.2968615],[-157.8639743,21.2966395],[-157.8639822,21.2966479],[-157.8642862,21.2963976],[-157.8642626,21.2963728],[-157.8643556,21.2962961]]]}},{"type":"Feature","id":303876703,"properties":{"osmId":303876703,"category":"academic","building":"school","height":"12"},"geometry":{"type":"Polygon","coordinates":[[[-157.8646657,21.2960422],[-157.8645395,21.2961543],[-157.8643794,21.2959879],[-157.8642016,21.2961371],[-157.8641148,21.2960474],[-157.8640825,21.296014],[-157.8640782,21.2960335],[-157.8640612,21.2960772],[-157.8639832,21.2960422],[-157.8640018,21.2959823],[-157.8640098,21.2959398],[-157.8640138,21.2958879],[-157.8640092,21.2958398],[-157.8640011,21.2957929],[-157.8640789,21.2957723],[-157.8640977,21.2957979],[-157.8641258,21.2957817],[-157.8641976,21.2958717],[-157.8642385,21.2958404],[-157.8641914,21.295789],[-157.8643206,21.2956828],[-157.8646657,21.2960422]]]}},{"type":"Feature","id":305088795,"properties":{"osmId":305088795,"category":"religious","addr:city":"Honolulu","addr:housenumber":"229","addr:postcode":"96813","addr:street":"Queen Emma Street","amenity":"place_of_worship","building":"church","name":"St Andrew's Cathedral","ref:dove":"14371","religion":"christian","wikidata":"Q5052213","wikipedia":"en:Cathedral Church of Saint Andrew (Honolulu)"},"geometry":{"type":"Polygon","coordinates":[[[-157.8574775,21.3100162],[-157.8574942,21.3100418],[-157.8575116,21.3100322],[-157.8575257,21.3100544],[-157.8575084,21.3100639],[-157.8575234,21.3100869],[-157.8574125,21.3101492],[-157.8574718,21.3102429],[-157.8574523,21.3102536],[-157.8574613,21.3102677],[-157.8574578,21.3102907],[-157.8574495,21.3103051],[-157.8574398,21.3103101],[-157.8574212,21.3103117],[-157.8574011,21.3103035],[-157.8573321,21.3101944],[-157.8572836,21.3102217],[-157.8572378,21.310151],[-157.8572926,21.3101202],[-157.8572637,21.3100744],[-157.8573143,21.3100466],[-157.8572703,21.309977],[-157.8572375,21.3099949],[-157.8572469,21.3100098],[-157.8571896,21.3100413],[-157.8571515,21.3099809],[-157.8571069,21.3100053],[-157.8570524,21.3100157],[-157.8569993,21.3099931],[-157.8569752,21.3099526],[-157.8569799,21.3098982],[-157.8570147,21.3098605],[-157.8573809,21.3096563],[-157.857405,21.3096938],[-157.8574234,21.3096836],[-157.8574677,21.3097527],[-157.8574469,21.3097642],[-157.8574687,21.3097983],[-157.8572638,21.3099118],[-157.8573692,21.3100771],[-157.8574775,21.3100162]]]}},{"type":"Feature","id":320866819,"properties":{"osmId":320866819,"category":"medical","addr:city":"Honolulu","addr:housenumber":"839","addr:postcode":"96813","addr:state":"HI","addr:street":"South Beretania Street","amenity":"clinic","branch":"Honolulu Health Center","building":"commercial","healthcare":"counselling","healthcare:counselling":"antenatal;sexual","healthcare:speciality":"venereology;abortion;fertility","lgbtq":"welcome","name":"Planned Parenthood","official_name":"Planned Parenthood Great Northwest, Hawai'i, Alaska, Indiana, Kentucky","opening_hours":"Mo-Fr 08:30-17:00;Mo-We, Fr-Sa 08:00-16:00;Th 09:00-18:00","operator":"Planned Parenthood","operator:type":"ngo","operator:wikidata":"Q2553262","phone":"+1 800 769 0045","website":"https://www.plannedparenthood.org/health-center/hawaii/honolulu/96813/centro-de-salud-honolulu-2951-91810"},"geometry":{"type":"Polygon","coordinates":[[[-157.8503698,21.3040677],[-157.8504071,21.3039767],[-157.8505211,21.3036987],[-157.8504634,21.3036793],[-157.8502801,21.3036133],[-157.8501452,21.3039418],[-157.8501284,21.3039826],[-157.8503123,21.3040484],[-157.8503388,21.3040573],[-157.8503698,21.3040677]]]}},{"type":"Feature","id":329355495,"properties":{"osmId":329355495,"category":"academic","building":"school","building:levels":"1","height":"3"},"geometry":{"type":"Polygon","coordinates":[[[-157.8557725,21.3123482],[-157.8554961,21.31196],[-157.8553428,21.3120547],[-157.8553593,21.3120778],[-157.8553365,21.3120919],[-157.8553513,21.3121126],[-157.8553736,21.3120989],[-157.8554895,21.3122618],[-157.8555396,21.3122308],[-157.8556688,21.3124122],[-157.8557725,21.3123482]]]}},{"type":"Feature","id":393507712,"properties":{"osmId":393507712,"category":"academic","building":"college","ref":"72A"},"geometry":{"type":"Polygon","coordinates":[[[-157.8699116,21.322756],[-157.869711,21.3224936],[-157.8699607,21.3223306],[-157.8701548,21.322603],[-157.8699116,21.322756]]]}},{"type":"Feature","id":395362233,"properties":{"osmId":395362233,"category":"academic","building":"college","building:levels":"1","name":"Kokea Training Center","ref":"45A"},"geometry":{"type":"Polygon","coordinates":[[[-157.8694831,21.3224235],[-157.8695689,21.3224035],[-157.8695287,21.3222648],[-157.8694428,21.322286],[-157.8694831,21.3224235]]]}},{"type":"Feature","id":395362234,"properties":{"osmId":395362234,"category":"academic","building":"college","name":"Kokea Training Center","ref":"45B"},"geometry":{"type":"Polygon","coordinates":[[[-157.8694768,21.3222639],[-157.869522,21.32225],[-157.8694812,21.3221347],[-157.869436,21.3221486],[-157.8694768,21.3222639]]]}},{"type":"Feature","id":395412840,"properties":{"osmId":395412840,"category":"academic","building":"college","building:levels":"1","ref":"10"},"geometry":{"type":"Polygon","coordinates":[[[-157.8698342,21.322187],[-157.8696382,21.3220682],[-157.8696924,21.3219905],[-157.8698885,21.3221094],[-157.8698342,21.322187]]]}},{"type":"Feature","id":395412842,"properties":{"osmId":395412842,"category":"academic","building":"college","building:levels":"6","ref":"7"},"geometry":{"type":"Polygon","coordinates":[[[-157.870999,21.3221535],[-157.871066,21.3221926],[-157.8711,21.3221416],[-157.871038,21.3221057],[-157.871107,21.3220024],[-157.871045,21.3219661],[-157.871084,21.3219079],[-157.870945,21.3218268],[-157.870901,21.3218912],[-157.870757,21.3218069],[-157.87071,21.3218758],[-157.870642,21.3218359],[-157.870571,21.3219419],[-157.87064,21.3219825],[-157.870558,21.3221056],[-157.870898,21.3223036],[-157.870999,21.3221535]]]}},{"type":"Feature","id":395412844,"properties":{"osmId":395412844,"category":"academic","building":"college","building:levels":"6","ref":"2"},"geometry":{"type":"Polygon","coordinates":[[[-157.8703527,21.3216317],[-157.8703737,21.3216017],[-157.8702977,21.3215563],[-157.8702747,21.3215892],[-157.8702017,21.3215456],[-157.8701687,21.3215946],[-157.8702047,21.3216161],[-157.8701257,21.3217298],[-157.8701017,21.3217151],[-157.8699657,21.3219115],[-157.8700077,21.3219367],[-157.8699867,21.3219675],[-157.8700317,21.3219945],[-157.8700527,21.321964],[-157.8701607,21.3220286],[-157.8702997,21.3218274],[-157.8703607,21.3218638],[-157.8703727,21.321846],[-157.8704487,21.3217345],[-157.8703987,21.3217042],[-157.8703857,21.3217232],[-157.8703727,21.3217153],[-157.8704077,21.3216645],[-157.8703527,21.3216317]]]}},{"type":"Feature","id":395412848,"properties":{"osmId":395412848,"category":"academic","building":"college","building:levels":"1","ref":"4B"},"geometry":{"type":"Polygon","coordinates":[[[-157.8711889,21.3213028],[-157.8713067,21.3211192],[-157.8709429,21.3209393],[-157.8708442,21.3211018],[-157.8709379,21.3211563],[-157.8709472,21.3211617],[-157.8711889,21.3213028]]]}},{"type":"Feature","id":398975115,"properties":{"osmId":398975115,"category":"academic","building":"college","building:levels":"1","note":"ele Ramp Access","ref":"72B"},"geometry":{"type":"Polygon","coordinates":[[[-157.8702889,21.3226896],[-157.8701346,21.3224754],[-157.8704296,21.3222865],[-157.8705832,21.3225051],[-157.8702889,21.3226896]]]}},{"type":"Feature","id":398975118,"properties":{"osmId":398975118,"category":"academic","building":"college","building:levels":"1","ref":"11A"},"geometry":{"type":"Polygon","coordinates":[[[-157.8699278,21.3216898],[-157.8698486,21.3217312],[-157.8697347,21.3215425],[-157.869812,21.3215006],[-157.8698586,21.3215696],[-157.8699278,21.3216898]]]}},{"type":"Feature","id":398975119,"properties":{"osmId":398975119,"category":"academic","building":"college","building:levels":"1","ref":"11B"},"geometry":{"type":"Polygon","coordinates":[[[-157.869812,21.3215006],[-157.8698586,21.3215696],[-157.8700496,21.3214577],[-157.8700031,21.3213887],[-157.869812,21.3215006]]]}},{"type":"Feature","id":398975122,"properties":{"osmId":398975122,"category":"academic","building":"college","building:levels":"1","ref":"4A"},"geometry":{"type":"Polygon","coordinates":[[[-157.8709379,21.3211563],[-157.8708678,21.3212609],[-157.8708923,21.3212751],[-157.8708103,21.3213975],[-157.8707858,21.3213832],[-157.8707279,21.3214714],[-157.8706897,21.3214518],[-157.8707128,21.3214153],[-157.8706927,21.3214059],[-157.8706716,21.3213945],[-157.8706517,21.321424],[-157.8705661,21.3213741],[-157.8705843,21.321347],[-157.8705418,21.3213222],[-157.8707333,21.3210372],[-157.8708156,21.3210851],[-157.8708442,21.3211018],[-157.8709379,21.3211563]]]}},{"type":"Feature","id":398975123,"properties":{"osmId":398975123,"category":"academic","building":"college","building:levels":"2","ref":"5"},"geometry":{"type":"Polygon","coordinates":[[[-157.8706015,21.3208871],[-157.8706701,21.3207826],[-157.8704851,21.3206772],[-157.8701968,21.320513],[-157.8700677,21.3207097],[-157.869919,21.3209363],[-157.8700039,21.3209847],[-157.8703794,21.3211986],[-157.8704459,21.3210973],[-157.8701025,21.3209017],[-157.8701546,21.3208223],[-157.8701992,21.3208463],[-157.8702387,21.3207853],[-157.870193,21.320762],[-157.8702452,21.3206842],[-157.8706015,21.3208871]]]}},{"type":"Feature","id":398975124,"properties":{"osmId":398975124,"category":"academic","building":"college","building:levels":"1","ref":"71D"},"geometry":{"type":"Polygon","coordinates":[[[-157.8720464,21.3222917],[-157.8721056,21.3222033],[-157.8718404,21.3220493],[-157.8717812,21.3221378],[-157.8720464,21.3222917]]]}},{"type":"Feature","id":398975128,"properties":{"osmId":398975128,"category":"academic","building":"college","building:levels":"1","ref":"3"},"geometry":{"type":"Polygon","coordinates":[[[-157.8720154,21.3219246],[-157.8721537,21.3217207],[-157.8719458,21.3215983],[-157.8719619,21.3215747],[-157.8717445,21.3214467],[-157.8714049,21.3219473],[-157.8717074,21.3221254],[-157.8718555,21.3219071],[-157.8717873,21.321867],[-157.8718245,21.3218122],[-157.8720154,21.3219246]]]}},{"type":"Feature","id":398975129,"properties":{"osmId":398975129,"category":"academic","building":"college","building:levels":"1","ref":"18"},"geometry":{"type":"Polygon","coordinates":[[[-157.8697308,21.321059],[-157.869659,21.3209526],[-157.8696473,21.3209605],[-157.8693059,21.321159],[-157.8693506,21.3212263],[-157.8693741,21.3212129],[-157.8694006,21.3212522],[-157.8697308,21.321059]]]}},{"type":"Feature","id":398975130,"properties":{"osmId":398975130,"category":"academic","building":"college","ref":"16"},"geometry":{"type":"Polygon","coordinates":[[[-157.8693506,21.3212263],[-157.8693059,21.321159],[-157.8689899,21.3213415],[-157.8690573,21.3214427],[-157.8693455,21.3212763],[-157.8693229,21.3212423],[-157.8693506,21.3212263]]]}},{"type":"Feature","id":398975131,"properties":{"osmId":398975131,"category":"academic","building":"college","building:levels":"1","ref":"24"},"geometry":{"type":"Polygon","coordinates":[[[-157.8690714,21.3210484],[-157.869101,21.3210313],[-157.8689276,21.3207564],[-157.8687265,21.3208838],[-157.8688753,21.3211161],[-157.8690488,21.3210144],[-157.8690714,21.3210484]]]}},{"type":"Feature","id":398975132,"properties":{"osmId":398975132,"category":"academic","building":"college","building:levels":"1","ref":"20"},"geometry":{"type":"Polygon","coordinates":[[[-157.8689276,21.3207564],[-157.8689194,21.320744],[-157.8687315,21.3204469],[-157.8685226,21.3205616],[-157.8687187,21.3208714],[-157.8687265,21.3208838],[-157.8689276,21.3207564]]]}},{"type":"Feature","id":398975133,"properties":{"osmId":398975133,"category":"academic","building":"college","building:levels":"1","ref":"8"},"geometry":{"type":"Polygon","coordinates":[[[-157.8689293,21.3215091],[-157.8687768,21.3215947],[-157.8687386,21.3215368],[-157.8688921,21.3214498],[-157.8689293,21.3215091]]]}},{"type":"Feature","id":398975134,"properties":{"osmId":398975134,"category":"academic","building":"college","building:levels":"1","ref":"9"},"geometry":{"type":"Polygon","coordinates":[[[-157.8688921,21.3214498],[-157.868855,21.321393],[-157.8687015,21.3214801],[-157.8687386,21.3215368],[-157.8688921,21.3214498]]]}},{"type":"Feature","id":398975135,"properties":{"osmId":398975135,"category":"academic","building":"college","building:levels":"1","ref":"13"},"geometry":{"type":"Polygon","coordinates":[[[-157.8686368,21.3209531],[-157.868499,21.3210304],[-157.8687068,21.3213498],[-157.8688589,21.3212617],[-157.8686628,21.320968],[-157.8686531,21.3209736],[-157.8686368,21.3209531]]]}},{"type":"Feature","id":398975136,"properties":{"osmId":398975136,"category":"academic","building":"college","building:levels":"1","ref":"12"},"geometry":{"type":"Polygon","coordinates":[[[-157.8686368,21.3209531],[-157.868499,21.3210304],[-157.8682861,21.3207009],[-157.8684364,21.3206166],[-157.8686344,21.3209231],[-157.8686219,21.3209301],[-157.8686368,21.3209531]]]}},{"type":"Feature","id":398975137,"properties":{"osmId":398975137,"category":"academic","building":"college","building:levels":"2","ref":"6"},"geometry":{"type":"Polygon","coordinates":[[[-157.8697307,21.3208056],[-157.8695949,21.32073],[-157.8696138,21.3207005],[-157.8695713,21.3206769],[-157.8695588,21.3206964],[-157.8695212,21.3206755],[-157.8694932,21.3206599],[-157.8695252,21.3206099],[-157.8694945,21.3205928],[-157.8695343,21.3205308],[-157.8695663,21.3205486],[-157.869586,21.3205179],[-157.8695619,21.3205045],[-157.8695906,21.3204597],[-157.8696166,21.3204741],[-157.86964,21.3204375],[-157.8696803,21.32046],[-157.8696637,21.320486],[-157.8696848,21.3204977],[-157.8697063,21.3204642],[-157.8698887,21.3205656],[-157.8698676,21.3205985],[-157.8698914,21.3206118],[-157.8699096,21.3205834],[-157.8699589,21.3206108],[-157.8699446,21.320633],[-157.8699608,21.3206421],[-157.8699213,21.3207038],[-157.8698954,21.3206894],[-157.8698761,21.3207194],[-157.8698561,21.3207506],[-157.8698793,21.3207635],[-157.8698591,21.320795],[-157.8698404,21.3207846],[-157.8698108,21.3208307],[-157.8697704,21.3208082],[-157.8697888,21.3207796],[-157.8697583,21.3207626],[-157.8697307,21.3208056]]]}},{"type":"Feature","id":399313980,"properties":{"osmId":399313980,"category":"academic","building":"college","ref":"28"},"geometry":{"type":"Polygon","coordinates":[[[-157.8678164,21.3225517],[-157.8679067,21.3225027],[-157.8679192,21.3225227],[-157.8679686,21.3224959],[-157.8679215,21.3224264],[-157.8678156,21.3222544],[-157.867758,21.3222874],[-157.86777,21.3223066],[-157.8676903,21.3223498],[-157.8678164,21.3225517]]]}},{"type":"Feature","id":421680495,"properties":{"osmId":421680495,"category":"religious","building":"chapel"},"geometry":{"type":"Polygon","coordinates":[[[-157.847932,21.3137102],[-157.8479609,21.3136753],[-157.848,21.3137034],[-157.8480715,21.3136988],[-157.8480766,21.313769],[-157.8480251,21.3137723],[-157.8480348,21.3139045],[-157.8479935,21.3139464],[-157.8479735,21.3139499],[-157.8479168,21.3140158],[-157.8479287,21.3140246],[-157.8479001,21.314058],[-157.8477713,21.3140734],[-157.8477666,21.3141114],[-157.8476867,21.3141165],[-157.8476839,21.3140781],[-157.8476406,21.3140461],[-157.8476698,21.3140118],[-157.8477012,21.314035],[-157.8478719,21.314023],[-157.8478924,21.3139982],[-157.8478768,21.313987],[-157.8479355,21.3139161],[-157.8479529,21.3139286],[-157.8479867,21.3138879],[-157.8479693,21.3137393],[-157.847932,21.3137102]]]}},{"type":"Feature","id":430143958,"properties":{"osmId":430143958,"category":"religious","addr:city":"Honolulu","addr:housenumber":"1184","addr:postcode":"96813","addr:state":"HI","addr:street":"Bishop Street","amenity":"place_of_worship","basilica":"minor","building":"cathedral","building:levels":"2","denomination":"roman_catholic","diocese":"Honolulu","fax":"+1 808-585-3383","height":"8","name":"Cathedral Basilica of Our Lady of Peace","phone":"+1 808-536-7036","religion":"christian","roof:shape":"gabled","website":"https://honolulucathedral.org/","wikidata":"Q5052335"},"geometry":{"type":"Polygon","coordinates":[[[-157.8596805,21.3109386],[-157.8595701,21.3108123],[-157.8593835,21.3105988],[-157.8595077,21.3105046],[-157.8598048,21.3108443],[-157.8596805,21.3109386]]]}},{"type":"Feature","id":445295427,"properties":{"osmId":445295427,"category":"athletic","brand":"YMCA","brand:wikidata":"Q157169","building":"yes","leisure":"sports_centre","name":"YMCA of Honolulu"},"geometry":{"type":"Polygon","coordinates":[[[-157.8551426,21.3136383],[-157.8550156,21.3137552],[-157.854687,21.3134515],[-157.8553379,21.3128684],[-157.8556312,21.3131749],[-157.8555681,21.3132329],[-157.8551426,21.3136383]]]}},{"type":"Feature","id":452622384,"properties":{"osmId":452622384,"category":"academic","addr:city":"Honolulu","addr:housenumber":"20","addr:postcode":"96813","addr:state":"HI","addr:street":"South Vineyard Boulevard","amenity":"kindergarten","building":"school","name":"Harris Preschool","operator":"Harris Mehodist Church","operator:type":"religious","phone":"+1 808 532 4175","preschool":"yes"},"geometry":{"type":"Polygon","coordinates":[[[-157.8572591,21.3142178],[-157.8569336,21.3138255],[-157.8568549,21.3138812],[-157.8569943,21.3140523],[-157.8568354,21.3141647],[-157.8567695,21.3140838],[-157.8566971,21.314135],[-157.8569473,21.3144422],[-157.8569728,21.3144241],[-157.8570214,21.3143898],[-157.8569336,21.3142837],[-157.857097,21.3141662],[-157.8571843,21.3142716],[-157.8572591,21.3142178]]]}},{"type":"Feature","id":452622385,"properties":{"osmId":452622385,"category":"religious","amenity":"place_of_worship","building":"church","denomination":"methodist","name":"Harris United Methodist Church","religion":"christian"},"geometry":{"type":"Polygon","coordinates":[[[-157.8574319,21.314543],[-157.857258,21.3146704],[-157.8571023,21.314486],[-157.8570504,21.3144238],[-157.8572249,21.3142975],[-157.8572338,21.3143082],[-157.8574319,21.314543]]]}},{"type":"Feature","id":481720963,"properties":{"osmId":481720963,"category":"religious","addr:city":"Honolulu","addr:country":"US","addr:housenumber":"1317","addr:postcode":"96813","addr:state":"HI","addr:street":"Queen Emma Street","amenity":"place_of_worship","building":"church","name":"Saint Peter's Episcopal Church","religion":"christian","wikidata":"Q112678556"},"geometry":{"type":"Polygon","coordinates":[[[-157.8564635,21.3108412],[-157.8564111,21.3108698],[-157.8564007,21.3108534],[-157.8563561,21.3108778],[-157.856365,21.310892],[-157.8563166,21.3109185],[-157.856171,21.3106877],[-157.8563164,21.3106081],[-157.8564635,21.3108412]]]}},{"type":"Feature","id":483523835,"properties":{"osmId":483523835,"category":"religious","amenity":"place_of_worship","building":"church","religion":"christian"},"geometry":{"type":"Polygon","coordinates":[[[-157.8544642,21.3021171],[-157.8544259,21.3020561],[-157.8543788,21.3020238],[-157.854303,21.3021146],[-157.8543983,21.3021866],[-157.8544642,21.3021171]]]}},{"type":"Feature","id":491949266,"properties":{"osmId":491949266,"category":"academic","amenity":"fast_food","building":"school","fast_food":"cafeteria","ref":"V"},"geometry":{"type":"Polygon","coordinates":[[[-157.8486223,21.2984876],[-157.8485006,21.2984434],[-157.8485174,21.2984032],[-157.8484694,21.2983858],[-157.848466,21.2983939],[-157.8481999,21.2982972],[-157.8482328,21.2982185],[-157.8482706,21.2981283],[-157.8483027,21.2980515],[-157.8484308,21.298098],[-157.8485452,21.2981396],[-157.8487386,21.2982098],[-157.8486849,21.298338],[-157.8486223,21.2984876]]]}},{"type":"Feature","id":491949268,"properties":{"osmId":491949268,"category":"academic","addr:city":"Honolulu","addr:housenumber":"1039","addr:postcode":"96814","addr:state":"HI","addr:street":"South King Street","building":"school","name":"Athletic Training Room"},"geometry":{"type":"Polygon","coordinates":[[[-157.8480972,21.2981711],[-157.8481338,21.2980804],[-157.8482706,21.2981283],[-157.8482328,21.2982185],[-157.8480972,21.2981711]]]}},{"type":"Feature","id":491949274,"properties":{"osmId":491949274,"category":"academic","addr:city":"Honolulu","addr:housenumber":"1039","addr:postcode":"96814","addr:state":"HI","addr:street":"South King Street","building":"school","ref":"P-6"},"geometry":{"type":"Polygon","coordinates":[[[-157.8484977,21.3004297],[-157.848389,21.3003951],[-157.848511,21.3000869],[-157.8486205,21.3001228],[-157.8484977,21.3004297]]]}},{"type":"Feature","id":491949277,"properties":{"osmId":491949277,"category":"academic","building":"school","ref":"N"},"geometry":{"type":"Polygon","coordinates":[[[-157.8494469,21.298054],[-157.849266,21.2979924],[-157.8493696,21.2977324],[-157.8495512,21.2977961],[-157.849551,21.2977966],[-157.8495621,21.2978007],[-157.8495056,21.2979341],[-157.8494967,21.2979308],[-157.8494469,21.298054]]]}},{"type":"Feature","id":491949279,"properties":{"osmId":491949279,"category":"academic","building":"school","ref":"Q"},"geometry":{"type":"Polygon","coordinates":[[[-157.8485857,21.2977185],[-157.8484534,21.2976722],[-157.848526,21.2974951],[-157.8484789,21.2974797],[-157.8486024,21.2971711],[-157.848649,21.2971871],[-157.8486516,21.2971806],[-157.8487718,21.2972234],[-157.8487882,21.2972293],[-157.8487863,21.2972342],[-157.8485857,21.2977185]]]}},{"type":"Feature","id":491949280,"properties":{"osmId":491949280,"category":"academic","building":"school"},"geometry":{"type":"Polygon","coordinates":[[[-157.8483079,21.2976387],[-157.8482137,21.2976053],[-157.8482817,21.2974388],[-157.8483759,21.2974722],[-157.8483079,21.2976387]]]}},{"type":"Feature","id":496676912,"properties":{"osmId":496676912,"category":"academic","addr:city":"Honolulu","addr:housenumber":"988","addr:postcode":"96813","addr:state":"HI","addr:street":"Fort Street Mall","amenity":"bank","branch":"Fort Street","brand":"Aloha Pacific Federal Credit Union","building":"yes","building:levels":"5","fax":"+1 808 539 0226","height":"20","name":"Aloha Pacific Federal Credit Union","opening_hours:covid19":"Mo-Fr 07:30-17:30","phone":"+1 808 531 7111","website":"alohapacific.com"},"geometry":{"type":"Polygon","coordinates":[[[-157.8625147,21.3093321],[-157.8623733,21.3094002],[-157.8622629,21.3092183],[-157.8624034,21.3091474],[-157.8625147,21.3093321]]]}},{"type":"Feature","id":496676915,"properties":{"osmId":496676915,"category":"academic","building":"yes","building:levels":"21","height":"81","name":"Pioneer Plaza"},"geometry":{"type":"Polygon","coordinates":[[[-157.8629519,21.3091305],[-157.8625298,21.3093507],[-157.8625147,21.3093321],[-157.8624034,21.3091474],[-157.8623799,21.3091006],[-157.8628201,21.3088886],[-157.8629519,21.3091305]]]}},{"type":"Feature","id":583035887,"properties":{"osmId":583035887,"category":"religious","addr:city":"Honolulu","addr:housenumber":"215","addr:postcode":"96817","addr:state":"HI","addr:street":"North Kukui Street","amenity":"place_of_worship","building":"yes","name":"Izumo Taishakyo Mission of Hawaii","name:ja":"ハワイ出雲大社","religion":"shinto","wikidata":"Q6102414"},"geometry":{"type":"Polygon","coordinates":[[[-157.8610837,21.3157027],[-157.8609643,21.3157793],[-157.8608727,21.3156555],[-157.8609004,21.3156378],[-157.8609332,21.3156167],[-157.860963,21.3155975],[-157.8609921,21.3155789],[-157.8610837,21.3157027]]]}},{"type":"Feature","id":804829890,"properties":{"osmId":804829890,"category":"academic","addr:city":"Honolulu","building":"school","building:levels":"1"},"geometry":{"type":"Polygon","coordinates":[[[-157.8564626,21.3112812],[-157.8564263,21.3112168],[-157.8563152,21.3112724],[-157.8563525,21.311335],[-157.8564626,21.3112812]]]}},{"type":"Feature","id":804829899,"properties":{"osmId":804829899,"category":"academic","addr:city":"Honolulu","building":"school","building:levels":"1"},"geometry":{"type":"Polygon","coordinates":[[[-157.8563405,21.3113729],[-157.8562288,21.3114282],[-157.8562652,21.3114917],[-157.8563762,21.3114369],[-157.8563405,21.3113729]]]}},{"type":"Feature","id":804829901,"properties":{"osmId":804829901,"category":"academic","addr:city":"Honolulu","building":"school","building:levels":"1"},"geometry":{"type":"Polygon","coordinates":[[[-157.8562897,21.311284],[-157.8561785,21.3113387],[-157.8562173,21.3114044],[-157.8563278,21.3113494],[-157.8562897,21.311284]]]}},{"type":"Feature","id":804829902,"properties":{"osmId":804829902,"category":"academic","building":"school"},"geometry":{"type":"Polygon","coordinates":[[[-157.8487052,21.2991752],[-157.8486399,21.2991511],[-157.848721,21.2989525],[-157.8487838,21.2989722],[-157.8487052,21.2991752]]]}},{"type":"Feature","id":804829903,"properties":{"osmId":804829903,"category":"academic","addr:city":"Honolulu","building":"school","building:levels":"1"},"geometry":{"type":"Polygon","coordinates":[[[-157.8564754,21.3113045],[-157.8563624,21.3113593],[-157.8563979,21.3114226],[-157.8565112,21.3113684],[-157.8564754,21.3113045]]]}},{"type":"Feature","id":807672713,"properties":{"osmId":807672713,"category":"medical","addr:city":"Honolulu","addr:housenumber":"888","addr:postcode":"96813","addr:state":"HI","addr:street":"South King Street","amenity":"hospital","building":"hospital","building:levels":"6","emergency":"yes","healthcare":"hospital","name":"Straub Clinic and Hospital","opening_hours":"24/7","phone":"+1 808 522 4000","website":"https://www.hawaiipacifichealth.org/straub/","wikidata":"Q7622305"},"geometry":{"type":"Polygon","coordinates":[[[-157.8509068,21.3031453],[-157.8509241,21.3030767],[-157.8509557,21.3030007],[-157.8511538,21.3025522],[-157.8511712,21.3025104],[-157.8509264,21.3024219],[-157.8507705,21.3023656],[-157.8502822,21.3021891],[-157.8502521,21.3022615],[-157.85023,21.3022535],[-157.8502102,21.3023012],[-157.8502321,21.3023091],[-157.8501914,21.3024069],[-157.8501739,21.3024006],[-157.8500316,21.3027427],[-157.8500181,21.3027379],[-157.8499687,21.3028566],[-157.8502739,21.3029669],[-157.8503327,21.3028255],[-157.8503564,21.302834],[-157.8503337,21.3028886],[-157.8505063,21.302951],[-157.8504877,21.3029955],[-157.8505417,21.303015],[-157.8505321,21.3030379],[-157.8505861,21.3030575],[-157.8505708,21.3030943],[-157.850747,21.303158],[-157.8507725,21.3030968],[-157.8509068,21.3031453]]]}},{"type":"Feature","id":816439413,"properties":{"osmId":816439413,"category":"academic","building":"school","ref":"P-9"},"geometry":{"type":"Polygon","coordinates":[[[-157.8486752,21.300493],[-157.8485673,21.3004557],[-157.8486904,21.3001463],[-157.8487983,21.3001836],[-157.8486752,21.300493]]]}},{"type":"Feature","id":816439414,"properties":{"osmId":816439414,"category":"academic","building":"school","ref":"H"},"geometry":{"type":"Polygon","coordinates":[[[-157.8491415,21.299317],[-157.8491505,21.2992732],[-157.8492206,21.2991564],[-157.8488498,21.2990262],[-157.8488213,21.2991583],[-157.8487992,21.2991948],[-157.8488933,21.2992284],[-157.8489714,21.2992564],[-157.8490482,21.2992837],[-157.8491415,21.299317]]]}},{"type":"Feature","id":816439441,"properties":{"osmId":816439441,"category":"academic","building":"school","ref":"C"},"geometry":{"type":"Polygon","coordinates":[[[-157.8481552,21.3006737],[-157.8481035,21.3008032],[-157.8480412,21.3007816],[-157.8480398,21.3007851],[-157.8479677,21.3007595],[-157.8479689,21.3007565],[-157.8479105,21.3007362],[-157.8480505,21.3003859],[-157.8482435,21.3004528],[-157.8481906,21.3005852],[-157.8482731,21.3006125],[-157.8482392,21.3007014],[-157.8481552,21.3006737]]]}},{"type":"Feature","id":816439442,"properties":{"osmId":816439442,"category":"academic","building":"school","ref":"B"},"geometry":{"type":"Polygon","coordinates":[[[-157.8482426,21.2998899],[-157.8484377,21.2999573],[-157.8482892,21.3003301],[-157.8480941,21.3002627],[-157.8482426,21.2998899]]]}},{"type":"Feature","id":816439443,"properties":{"osmId":816439443,"category":"academic","building":"school","ref":"W"},"geometry":{"type":"Polygon","coordinates":[[[-157.8487612,21.2999476],[-157.8484726,21.299848],[-157.8485198,21.2997294],[-157.8488057,21.2998305],[-157.848889,21.299629],[-157.8486024,21.2995302],[-157.8486496,21.2994115],[-157.8489365,21.2995105],[-157.8489429,21.2994945],[-157.849065,21.299537],[-157.8488776,21.3000042],[-157.8487556,21.2999617],[-157.8487612,21.2999476]]]}},{"type":"Feature","id":820511144,"properties":{"osmId":820511144,"category":"academic","building":"school"},"geometry":{"type":"Polygon","coordinates":[[[-157.8523747,21.3190456],[-157.8523955,21.3190649],[-157.852339,21.3191179],[-157.8524089,21.3191844],[-157.8526504,21.3189594],[-157.8525809,21.3188922],[-157.8525582,21.3189142],[-157.852536,21.3188939],[-157.8523747,21.3190456]]]}},{"type":"Feature","id":820511145,"properties":{"osmId":820511145,"category":"academic","building":"school"},"geometry":{"type":"Polygon","coordinates":[[[-157.8522358,21.3189619],[-157.8522552,21.3189814],[-157.852417,21.3188317],[-157.852397,21.3188123],[-157.8524208,21.3187905],[-157.8523506,21.318723],[-157.8521084,21.3189481],[-157.8521777,21.3190151],[-157.8522358,21.3189619]]]}},{"type":"Feature","id":820529827,"properties":{"osmId":820529827,"category":"academic","building":"school"},"geometry":{"type":"Polygon","coordinates":[[[-157.8512711,21.3192444],[-157.8513053,21.3192448],[-157.8513059,21.3192087],[-157.8514341,21.3192104],[-157.8514282,21.3196077],[-157.8512996,21.3196061],[-157.8513001,21.3195708],[-157.8512662,21.3195704],[-157.8512668,21.3195305],[-157.85129,21.3195308],[-157.8512937,21.3192837],[-157.8512705,21.3192834],[-157.8512711,21.3192444]]]}},{"type":"Feature","id":820529828,"properties":{"osmId":820529828,"category":"academic","building":"school"},"geometry":{"type":"Polygon","coordinates":[[[-157.8513246,21.3197231],[-157.8512763,21.3197225],[-157.8512769,21.3196517],[-157.851168,21.3196514],[-157.8511676,21.3197471],[-157.8511734,21.3197471],[-157.8511728,21.3198401],[-157.8511671,21.3198402],[-157.8511653,21.3199718],[-157.8512949,21.3199715],[-157.8512956,21.319843],[-157.8513239,21.3198433],[-157.8513246,21.3197231]]]}},{"type":"Feature","id":820529829,"properties":{"osmId":820529829,"category":"academic","building":"school"},"geometry":{"type":"Polygon","coordinates":[[[-157.8520384,21.3190411],[-157.8520386,21.3191368],[-157.8518376,21.3191355],[-157.8518378,21.319138],[-157.8517214,21.3191375],[-157.8517212,21.3191448],[-157.8516658,21.3191443],[-157.8516657,21.3191373],[-157.8515513,21.3191363],[-157.8515507,21.3191338],[-157.8513509,21.3191331],[-157.851351,21.319038],[-157.851366,21.3190383],[-157.851366,21.3190164],[-157.8515485,21.319017],[-157.8515489,21.3189812],[-157.8518409,21.3189829],[-157.8518401,21.3190191],[-157.8520222,21.3190195],[-157.8520244,21.3190413],[-157.8520384,21.3190411]]]}},{"type":"Feature","id":820529830,"properties":{"osmId":820529830,"category":"academic","building":"school"},"geometry":{"type":"Polygon","coordinates":[[[-157.851546,21.319214],[-157.8516424,21.3192156],[-157.8516411,21.3192519],[-157.851684,21.3192523],[-157.8516773,21.3197633],[-157.8516337,21.3197624],[-157.851634,21.3197989],[-157.8515388,21.3197973],[-157.851546,21.319214]]]}},{"type":"Feature","id":820529831,"properties":{"osmId":820529831,"category":"academic","building":"school"},"geometry":{"type":"Polygon","coordinates":[[[-157.8519104,21.3196902],[-157.8518706,21.3196898],[-157.8518712,21.3197263],[-157.8517719,21.3197256],[-157.8517786,21.3192075],[-157.8518779,21.3192095],[-157.851877,21.3192457],[-157.851915,21.3192463],[-157.8519104,21.3196902]]]}},{"type":"Feature","id":820529832,"properties":{"osmId":820529832,"category":"academic","building":"school"},"geometry":{"type":"Polygon","coordinates":[[[-157.8514955,21.3185774],[-157.8518093,21.3185807],[-157.8518083,21.3188938],[-157.8514932,21.3188908],[-157.8514955,21.3185774]]]}},{"type":"Feature","id":820529833,"properties":{"osmId":820529833,"category":"academic","building":"school"},"geometry":{"type":"Polygon","coordinates":[[[-157.8522913,21.318497],[-157.8522576,21.3184643],[-157.8522212,21.3184973],[-157.8518253,21.3181226],[-157.8518607,21.3180882],[-157.8518266,21.3180564],[-157.8519069,21.3179818],[-157.8523718,21.3184219],[-157.8522913,21.318497]]]}},{"type":"Feature","id":820529834,"properties":{"osmId":820529834,"category":"academic","building":"school"},"geometry":{"type":"Polygon","coordinates":[[[-157.8518178,21.3200741],[-157.8518469,21.3200742],[-157.8518415,21.3200515],[-157.8518602,21.3200523],[-157.851869,21.3200526],[-157.8518709,21.3199177],[-157.8518418,21.3199172],[-157.8518472,21.3198935],[-157.8518311,21.3198925],[-157.8518297,21.3198634],[-157.8517823,21.3198636],[-157.8514309,21.319865],[-157.85143,21.3198019],[-157.8513488,21.3198007],[-157.8513468,21.3199052],[-157.8513474,21.3199651],[-157.8513478,21.3200939],[-157.8513888,21.3200944],[-157.8513887,21.3200998],[-157.8518172,21.3201036],[-157.8518178,21.3200741]]]}},{"type":"Feature","id":822471768,"properties":{"osmId":822471768,"category":"library","addr:city":"Honolulu","addr:housenumber":"1515","addr:postcode":"96817","addr:state":"HI","addr:street":"Liliha Street","amenity":"library","building":"yes","building:levels":"1","ele":"10","gnis:feature_id":"1904795","layer":"-1","level":"0","name":"Liliha Public Library","operator":"Hawaii State Public Library System","operator:short":"HSPLS","operator:type":"public","operator:wikidata":"Q5684409","parking":"rooftop","rental":"book","source":"USGS Geonames","website":"https://www.librarieshawaii.org/branch/liliha-public-library/","wikidata":"Q57893861"},"geometry":{"type":"Polygon","coordinates":[[[-157.8601895,21.3205895],[-157.8601888,21.3205911],[-157.8601884,21.3205939],[-157.860188,21.3205985],[-157.8601884,21.3206034],[-157.8601899,21.3206082],[-157.8601922,21.3206126],[-157.8601951,21.3206164],[-157.8604313,21.3208649],[-157.8604353,21.3208692],[-157.860439,21.320872],[-157.8604433,21.3208747],[-157.8604491,21.3208768],[-157.8604559,21.3208777],[-157.860461,21.3208777],[-157.860465,21.3208769],[-157.8604708,21.3208749],[-157.8604739,21.3208733],[-157.8605919,21.3207747],[-157.8606418,21.3207338],[-157.8606606,21.3207175],[-157.8606657,21.3207086],[-157.8606665,21.3207006],[-157.8606658,21.3206936],[-157.8606622,21.3206862],[-157.8604169,21.3204453],[-157.8602967,21.3205298],[-157.8602817,21.3205172],[-157.8602522,21.3204877],[-157.8601939,21.3205384],[-157.860193,21.3205395],[-157.8601911,21.3205418],[-157.8601903,21.3205432],[-157.8601886,21.3205457],[-157.8601875,21.320548],[-157.8601866,21.3205521],[-157.8601865,21.3205572],[-157.8601864,21.3205607],[-157.8601867,21.3205627],[-157.8601877,21.3205659],[-157.8601888,21.3205689],[-157.8601926,21.3205747],[-157.8601965,21.3205788],[-157.8601923,21.3205835],[-157.8601909,21.3205865],[-157.8601895,21.3205895]]]}},{"type":"Feature","id":822471771,"properties":{"osmId":822471771,"category":"academic","building":"school"},"geometry":{"type":"Polygon","coordinates":[[[-157.8588528,21.3191066],[-157.8587203,21.3189472],[-157.8587829,21.318902],[-157.8588197,21.3189463],[-157.8589249,21.3188704],[-157.8589921,21.3189513],[-157.8588891,21.3190256],[-157.8589177,21.3190599],[-157.8588528,21.3191066]]]}},{"type":"Feature","id":822471772,"properties":{"osmId":822471772,"category":"academic","building":"school"},"geometry":{"type":"Polygon","coordinates":[[[-157.8591903,21.3193602],[-157.8591722,21.3193764],[-157.8591904,21.3193945],[-157.8591612,21.3194208],[-157.8591687,21.3194285],[-157.8592402,21.3193638],[-157.8593047,21.3194287],[-157.8592151,21.3195078],[-157.8591982,21.3194908],[-157.8591893,21.3194979],[-157.8591968,21.3195051],[-157.8591407,21.3195541],[-157.8591328,21.319547],[-157.8591211,21.3195572],[-157.8591205,21.3195566],[-157.8591079,21.3195676],[-157.85909,21.3195499],[-157.859081,21.3195573],[-157.8590296,21.3195062],[-157.8590352,21.3195013],[-157.8589785,21.3194446],[-157.8589824,21.3194412],[-157.8589461,21.3194045],[-157.8589511,21.3194005],[-157.8589471,21.3193961],[-157.8589561,21.3193876],[-157.858931,21.3193598],[-157.858907,21.3193346],[-157.8588721,21.3193011],[-157.8589927,21.3191958],[-157.8590274,21.3192306],[-157.8590445,21.3192149],[-157.8591903,21.3193602]]]}},{"type":"Feature","id":831399771,"properties":{"osmId":831399771,"category":"medical","amenity":"clinic","building":"office","healthcare":"clinic","healthcare:speciality":"general","name":"Physicians Office Building 3","website":"https://www.queens.org/","wheelchair":"yes"},"geometry":{"type":"Polygon","coordinates":[[[-157.8542196,21.3068962],[-157.8540489,21.3066069],[-157.8543448,21.3064464],[-157.8544309,21.3065933],[-157.8546926,21.3064661],[-157.8547788,21.3066221],[-157.8546894,21.306666],[-157.8546747,21.3066463],[-157.8545414,21.306713],[-157.8545561,21.3067357],[-157.8544894,21.306769],[-157.8544764,21.3067432],[-157.8543041,21.3068296],[-157.8543171,21.3068493],[-157.8542196,21.3068962]]]}},{"type":"Feature","id":831399772,"properties":{"osmId":831399772,"category":"medical","building":"hospital","name":"Aurthur A Ushijima Building"},"geometry":{"type":"Polygon","coordinates":[[[-157.8547057,21.3071497],[-157.8545921,21.3069377],[-157.8546579,21.3069071],[-157.8546465,21.306886],[-157.8547135,21.3068548],[-157.8546953,21.3068207],[-157.8547668,21.3067874],[-157.854783,21.3068178],[-157.8548783,21.3067735],[-157.854872,21.3067618],[-157.8548899,21.3067535],[-157.8550038,21.3069661],[-157.8549612,21.3069859],[-157.8549805,21.3070219],[-157.8547057,21.3071497]]]}},{"type":"Feature","id":831399773,"properties":{"osmId":831399773,"category":"medical","building":"hospital","name":"Harkness"},"geometry":{"type":"Polygon","coordinates":[[[-157.8538566,21.3072518],[-157.8538874,21.307237],[-157.8539164,21.3072256],[-157.8539276,21.3072478],[-157.8545734,21.3069649],[-157.8546348,21.3070865],[-157.8545996,21.3071019],[-157.8547081,21.3073169],[-157.8546167,21.3073569],[-157.8546026,21.3073289],[-157.8545842,21.307337],[-157.8544882,21.3071464],[-157.8543288,21.3072161],[-157.854404,21.3073655],[-157.8542959,21.3074128],[-157.8542279,21.3072777],[-157.8539343,21.3074061],[-157.8538566,21.3072518]]]}},{"type":"Feature","id":831399777,"properties":{"osmId":831399777,"category":"medical","building":"hospital"},"geometry":{"type":"Polygon","coordinates":[[[-157.8538874,21.307237],[-157.8537663,21.3069978],[-157.8538483,21.3069618],[-157.8538722,21.3069513],[-157.853972,21.3071486],[-157.8539932,21.3071905],[-157.8538874,21.307237]]]}},{"type":"Feature","id":831399778,"properties":{"osmId":831399778,"category":"medical","building":"hospital","name":"Harkness Dining Room"},"geometry":{"type":"Polygon","coordinates":[[[-157.853972,21.3071486],[-157.8540402,21.3071185],[-157.8540345,21.3071064],[-157.8540678,21.3070913],[-157.8540012,21.3069588],[-157.8540134,21.3069535],[-157.8539727,21.3068762],[-157.8538386,21.3069436],[-157.8538483,21.3069618],[-157.8538722,21.3069513],[-157.853972,21.3071486]]]}},{"type":"Feature","id":832082967,"properties":{"osmId":832082967,"category":"religious","building":"church"},"geometry":{"type":"Polygon","coordinates":[[[-157.8520597,21.3161373],[-157.8519736,21.3162461],[-157.8519486,21.3162288],[-157.851993,21.3161727],[-157.8518269,21.3160585],[-157.8520017,21.3158377],[-157.8520452,21.3158676],[-157.8521011,21.315797],[-157.8522427,21.3158943],[-157.8521908,21.3159598],[-157.8522346,21.31599],[-157.8522912,21.3159186],[-157.8523936,21.315989],[-157.8523389,21.316058],[-157.8523223,21.3160465],[-157.8522761,21.3161048],[-157.852322,21.3161363],[-157.8522821,21.3161867],[-157.8522451,21.3161613],[-157.8522125,21.3162025],[-157.8522264,21.316212],[-157.8521544,21.3163029],[-157.8520486,21.3162302],[-157.8521002,21.3161651],[-157.8520597,21.3161373]]]}},{"type":"Feature","id":832082968,"properties":{"osmId":832082968,"category":"religious","building":"church"},"geometry":{"type":"Polygon","coordinates":[[[-157.8522179,21.3157941],[-157.852271,21.3158288],[-157.8522621,21.3158405],[-157.852456,21.315967],[-157.8525576,21.3158319],[-157.8522065,21.3156029],[-157.8521151,21.3157245],[-157.8521808,21.3157673],[-157.8522195,21.3157158],[-157.8522579,21.3157409],[-157.8522179,21.3157941]]]}},{"type":"Feature","id":832379567,"properties":{"osmId":832379567,"category":"academic","building":"school","source":"Bing"},"geometry":{"type":"Polygon","coordinates":[[[-157.8672829,21.3215615],[-157.8672495,21.3214555],[-157.8672439,21.321436],[-157.8678252,21.3212826],[-157.8678356,21.3213168],[-157.8678631,21.321407],[-157.8672829,21.3215615]]]}},{"type":"Feature","id":832379568,"properties":{"osmId":832379568,"category":"academic","building":"school","source":"Bing"},"geometry":{"type":"Polygon","coordinates":[[[-157.8680365,21.3216566],[-157.8680119,21.3215715],[-157.8680029,21.3215405],[-157.8680001,21.3215308],[-157.8674182,21.3216772],[-157.8674546,21.3218028],[-157.8680365,21.3216566]]]}},{"type":"Feature","id":832379570,"properties":{"osmId":832379570,"category":"academic","building":"school"},"geometry":{"type":"Polygon","coordinates":[[[-157.868174,21.3218755],[-157.8681459,21.3217825],[-157.868141,21.3217661],[-157.868136,21.3217497],[-157.8675721,21.3218976],[-157.8676101,21.3220233],[-157.868174,21.3218755]]]}},{"type":"Feature","id":832379572,"properties":{"osmId":832379572,"category":"academic","building":"school","source":"Bing"},"geometry":{"type":"Polygon","coordinates":[[[-157.8672323,21.3206413],[-157.8670917,21.3204223],[-157.867487,21.320202],[-157.8674229,21.3201021],[-157.8676276,21.3199881],[-157.8678323,21.320307],[-157.8672323,21.3206413]]]}},{"type":"Feature","id":832379573,"properties":{"osmId":832379573,"category":"academic","building":"school","source":"Bing"},"geometry":{"type":"Polygon","coordinates":[[[-157.8672347,21.3213034],[-157.8670451,21.3210537],[-157.8670553,21.321047],[-157.8670465,21.3210354],[-157.8670872,21.3210085],[-157.8670982,21.321023],[-157.8671651,21.3209789],[-157.8671809,21.3209998],[-157.8671912,21.3209929],[-157.8673433,21.3211932],[-157.8672737,21.321239],[-157.8672933,21.3212648],[-157.8672347,21.3213034]]]}},{"type":"Feature","id":832379574,"properties":{"osmId":832379574,"category":"academic","building":"school","source":"Bing"},"geometry":{"type":"Polygon","coordinates":[[[-157.8685289,21.3214677],[-157.8684748,21.3213872],[-157.8684948,21.3213755],[-157.8683869,21.3212151],[-157.8681962,21.3213264],[-157.8682034,21.3213372],[-157.8681268,21.321382],[-157.8681393,21.3214005],[-157.8681023,21.3214222],[-157.8682513,21.3216429],[-157.8682681,21.3216331],[-157.8682583,21.3216255],[-157.8685289,21.3214677]]]}},{"type":"Feature","id":833416897,"properties":{"osmId":833416897,"category":"medical","building":"hospital"},"geometry":{"type":"Polygon","coordinates":[[[-157.8546774,21.3221262],[-157.8545756,21.3222559],[-157.8544928,21.3221995],[-157.8545675,21.3221043],[-157.8545906,21.3221201],[-157.8546177,21.3220856],[-157.8546774,21.3221262]]]}},{"type":"Feature","id":833416902,"properties":{"osmId":833416902,"category":"medical","building":"hospital"},"geometry":{"type":"Polygon","coordinates":[[[-157.8550854,21.321559],[-157.8548404,21.3212915],[-157.8548717,21.3212666],[-157.854831,21.3212221],[-157.8548724,21.3211892],[-157.8548021,21.3211125],[-157.8547549,21.32115],[-157.8547309,21.3211239],[-157.8546832,21.3211617],[-157.8544613,21.3209194],[-157.8543918,21.3209746],[-157.8544029,21.3209867],[-157.8543463,21.3210316],[-157.8543521,21.3210379],[-157.8543127,21.3210693],[-157.8540173,21.3213041],[-157.8541964,21.3214996],[-157.854098,21.3215778],[-157.8542169,21.3217076],[-157.854315,21.3216296],[-157.8545955,21.3219359],[-157.8545725,21.3219542],[-157.8546271,21.3220138],[-157.8546001,21.322037],[-157.8546159,21.3220513],[-157.8546839,21.3221127],[-157.8551783,21.3216598],[-157.8551299,21.321607],[-157.8552358,21.3215228],[-157.8551916,21.3214746],[-157.8550854,21.321559]]]}},{"type":"Feature","id":1038966702,"properties":{"osmId":1038966702,"category":"academic","building":"school","building:levels":"1","height":"3"},"geometry":{"type":"Polygon","coordinates":[[[-157.8556133,21.3124724],[-157.855671,21.3125398],[-157.8554336,21.3127273],[-157.8553598,21.312746],[-157.8552753,21.3126498],[-157.85527,21.3126548],[-157.8552539,21.3126323],[-157.8552941,21.3126004],[-157.8552834,21.3125886],[-157.8553116,21.3125648],[-157.8553223,21.3125761],[-157.8553719,21.3125386],[-157.8554041,21.3125461],[-157.8554497,21.3125161],[-157.8554993,21.3125211],[-157.8556093,21.3124386],[-157.8556267,21.3124611],[-157.8556133,21.3124724]]]}},{"type":"Feature","id":1066223767,"properties":{"osmId":1066223767,"category":"academic","addr:city":"Honolulu","addr:housenumber":"21","addr:postcode":"96817","addr:state":"HI","addr:street":"Bates Street","building":"school","name":"Hawaii Baptist Academy Elementary School - Richard Bento Campus"},"geometry":{"type":"Polygon","coordinates":[[[-157.8528721,21.3216715],[-157.8527575,21.3215431],[-157.8525445,21.3217131],[-157.8522223,21.3213763],[-157.8524872,21.3211545],[-157.8525338,21.3211945],[-157.8526036,21.3211312],[-157.852489,21.3210111],[-157.8521436,21.3212779],[-157.8521131,21.3212462],[-157.8520737,21.3212829],[-157.8520111,21.3212246],[-157.8519323,21.3212929],[-157.8520576,21.321423],[-157.8519735,21.3214864],[-157.8520451,21.3215581],[-157.8521221,21.3214964],[-157.8523279,21.3217148],[-157.8522474,21.3217765],[-157.8523118,21.3218499],[-157.8523977,21.3217865],[-157.8525363,21.3219375],[-157.8526095,21.3218795],[-157.8528721,21.3216715]]]}},{"type":"Feature","id":1076438440,"properties":{"osmId":1076438440,"category":"religious","building":"church"},"geometry":{"type":"Polygon","coordinates":[[[-157.8569949,21.31445],[-157.8570423,21.3144151],[-157.8570504,21.3144238],[-157.8571023,21.314486],[-157.8570932,21.3144926],[-157.8570986,21.314499],[-157.8570602,21.3145272],[-157.8569949,21.31445]]]}},{"type":"Feature","id":1156982924,"properties":{"osmId":1156982924,"category":"academic","addr:city":"Honolulu","addr:housenumber":"500","addr:postcode":"96813","addr:state":"HI","addr:street":"Ala Moana Boulevard","building":"university","name":"Hawaii Pacific University Waterfront Plaza","website":"https://www.hpu.edu"},"geometry":{"type":"Polygon","coordinates":[[[-157.862593,21.3021566],[-157.8624748,21.3020319],[-157.8624955,21.3017274],[-157.8623961,21.3014656],[-157.8621971,21.301452],[-157.8621181,21.3013375],[-157.862162,21.3011085],[-157.8622351,21.3010403],[-157.8622556,21.3010267],[-157.8625628,21.301054],[-157.8625658,21.3009013],[-157.8624897,21.3008059],[-157.8621912,21.3007732],[-157.8620859,21.3006532],[-157.8621116,21.3004627],[-157.8623003,21.3002984],[-157.8624219,21.3003239],[-157.8629558,21.3009438],[-157.862926,21.3011821],[-157.8627571,21.3013116],[-157.862638,21.3012908],[-157.8625883,21.3012214],[-157.8625447,21.3012109],[-157.8625072,21.3014358],[-157.8625853,21.3015197],[-157.8625958,21.301475],[-157.8626981,21.301389],[-157.8628854,21.3013808],[-157.8630847,21.3016099],[-157.8630597,21.3017675],[-157.8626156,21.3021375],[-157.862593,21.3021566]]]}},{"type":"Feature","id":1331156367,"properties":{"osmId":1331156367,"category":"academic","building":"school"},"geometry":{"type":"Polygon","coordinates":[[[-157.8530375,21.3217681],[-157.852959,21.3216853],[-157.8529841,21.3216722],[-157.8529691,21.3216535],[-157.8530617,21.3216127],[-157.8530783,21.3216306],[-157.8531182,21.3216114],[-157.8531758,21.3216722],[-157.853114,21.3217273],[-157.8531183,21.3217402],[-157.8530549,21.3217764],[-157.8530375,21.3217681]]]}},{"type":"Feature","id":1331156368,"properties":{"osmId":1331156368,"category":"religious","building":"chapel","layer":"-1","name":"HBA Chapel"},"geometry":{"type":"Polygon","coordinates":[[[-157.8526095,21.3218795],[-157.8526635,21.321938],[-157.8526169,21.321975],[-157.8527103,21.3220488],[-157.8527437,21.3220256],[-157.8527867,21.3220615],[-157.8527209,21.3221188],[-157.8527086,21.3221109],[-157.85263,21.3221888],[-157.8526,21.3221641],[-157.8525928,21.3221723],[-157.8524364,21.3220128],[-157.8526095,21.3218795]]]}}]}