{"type":"FeatureCollection","features":[{"type":"Feature","id":26458867,"properties":{"osmId":26458867,"category":"library","amenity":"library","building":"yes","layer":"1","name":"E.W. Fairchild-Martindale Library and Computing Center"},"geometry":{"type":"Polygon","coordinates":[[[-75.3780531,40.6085546],[-75.3780743,40.6088952],[-75.3780451,40.6088975],[-75.3780476,40.6089354],[-75.378084,40.6089397],[-75.3780874,40.6089682],[-75.3780896,40.6089869],[-75.3781672,40.6089858],[-75.3782424,40.6089847],[-75.3782473,40.6090054],[-75.3784443,40.6090006],[-75.3784382,40.6089265],[-75.3784833,40.6088929],[-75.3785732,40.6088928],[-75.3785712,40.6089907],[-75.3786034,40.6089945],[-75.3786004,40.6090807],[-75.3785196,40.6091389],[-75.3784392,40.6091393],[-75.378201,40.6091474],[-75.3778524,40.6091553],[-75.377766,40.6090962],[-75.3777528,40.6090174],[-75.3778164,40.6090174],[-75.3778093,40.6089007],[-75.3777492,40.6089048],[-75.377731,40.6085633],[-75.3778214,40.6085628],[-75.3778175,40.6085278],[-75.3779204,40.6085254],[-75.3779209,40.6085606],[-75.3780531,40.6085546]]]}},{"type":"Feature","id":26459078,"properties":{"osmId":26459078,"category":"other","amenity":"parking","building":"yes","name":"Alumni Building Parking Pavilion","operator":"Lehigh University","parking":"multi-storey"},"geometry":{"type":"Polygon","coordinates":[[[-75.3808064,40.6064102],[-75.3807472,40.6064132],[-75.3804286,40.6064294],[-75.3803493,40.6064334],[-75.3803073,40.6059563],[-75.3804419,40.6059495],[-75.3807644,40.6059331],[-75.3808064,40.6064102]]]}},{"type":"Feature","id":26459143,"properties":{"osmId":26459143,"category":"residential","building":"dormitory","name":"Drinker Hall"},"geometry":{"type":"Polygon","coordinates":[[[-75.376087,40.6048715],[-75.3760518,40.6048942],[-75.3760611,40.6049013],[-75.376005,40.6049383],[-75.3759986,40.6049273],[-75.3759731,40.6049454],[-75.3754812,40.604545],[-75.375505,40.604526],[-75.3754975,40.6045203],[-75.3755537,40.6044791],[-75.3755617,40.6044895],[-75.3755892,40.6044649],[-75.376087,40.6048715]]]}},{"type":"Feature","id":26459147,"properties":{"osmId":26459147,"category":"residential","building":"dormitory","name":"Richards Hall"},"geometry":{"type":"Polygon","coordinates":[[[-75.3750733,40.6050011],[-75.3751352,40.6050455],[-75.3751795,40.6050882],[-75.3745612,40.6055285],[-75.374457,40.6054456],[-75.3750733,40.6050011]]]}},{"type":"Feature","id":26459161,"properties":{"osmId":26459161,"category":"residential","building":"dormitory","building:levels":"5","layer":"1","name":"Dravo Hall"},"geometry":{"type":"Polygon","coordinates":[[[-75.3751694,40.6042603],[-75.3751829,40.6042729],[-75.3751979,40.6042601],[-75.3752484,40.6043085],[-75.3752368,40.6043172],[-75.3752559,40.6043298],[-75.3750705,40.6044592],[-75.3751212,40.604501],[-75.3752447,40.6046042],[-75.3752199,40.604617],[-75.3752297,40.6046284],[-75.3751572,40.6046766],[-75.3750237,40.604563],[-75.3749686,40.6046018],[-75.3749769,40.6046127],[-75.3749245,40.6046477],[-75.3748739,40.6046852],[-75.3748552,40.6046744],[-75.3747934,40.6047208],[-75.3748739,40.6047876],[-75.3748945,40.6047734],[-75.374917,40.6048018],[-75.3749413,40.6048274],[-75.3748439,40.6048928],[-75.3748308,40.6048814],[-75.3748102,40.6048956],[-75.3748308,40.6049099],[-75.374726,40.6049784],[-75.3746663,40.6049282],[-75.3747917,40.6048469],[-75.3746541,40.6047221],[-75.3749781,40.6045086],[-75.3749027,40.6044394],[-75.3751694,40.6042603]]]}},{"type":"Feature","id":26459204,"properties":{"osmId":26459204,"category":"academic","addr:city":"Bethlehem","addr:housenumber":"621","addr:postcode":"18015","addr:state":"PA","addr:street":"Taylor Street","building":"school","building:levels":"3","name":"Rauch Business Center"},"geometry":{"type":"Polygon","coordinates":[[[-75.3742077,40.6078989],[-75.3742364,40.6082805],[-75.3734564,40.6083871],[-75.3734665,40.6084189],[-75.3731564,40.6084588],[-75.3731335,40.60826],[-75.3731816,40.6082575],[-75.373178,40.6080546],[-75.3733782,40.6080529],[-75.3734199,40.6082216],[-75.373494,40.6082081],[-75.3734897,40.6081754],[-75.3735283,40.6081727],[-75.3739613,40.6081144],[-75.3739714,40.6081506],[-75.3740505,40.6081443],[-75.3740368,40.6080626],[-75.3739811,40.6080624],[-75.3739815,40.6080451],[-75.3739599,40.6080207],[-75.3739516,40.6079885],[-75.373954,40.6079585],[-75.3739583,40.607933],[-75.3739766,40.6079143],[-75.3742077,40.6078989]]]}},{"type":"Feature","id":26459277,"properties":{"osmId":26459277,"category":"other","addr:city":"Bethlehem","addr:postcode":"18015","addr:state":"PA","addr:street":"East Packer Avenue","amenity":"parking","building":"parking","name":"Zoellner Garage","operator":"Lehigh University","operator:type":"university","parking":"multi-storey"},"geometry":{"type":"Polygon","coordinates":[[[-75.3724051,40.6085258],[-75.3723125,40.6085354],[-75.3719632,40.6085714],[-75.3719335,40.6077839],[-75.3720051,40.6077804],[-75.3720026,40.6077491],[-75.3723324,40.6077444],[-75.3723658,40.6077424],[-75.3723723,40.6078522],[-75.3723845,40.6080901],[-75.3723155,40.6080932],[-75.3723268,40.6082878],[-75.3724022,40.6082923],[-75.3724051,40.6085258]]]}},{"type":"Feature","id":26459763,"properties":{"osmId":26459763,"category":"religious","addr:city":"Bethlehem","addr:housenumber":"18","addr:postcode":"18015","addr:state":"PA","addr:street":"University Drive","amenity":"place_of_worship","building":"chapel","name":"Packer Memorial Church","religion":"christian","wikidata":"Q7122946"},"geometry":{"type":"Polygon","coordinates":[[[-75.3780144,40.6077694],[-75.3780195,40.6078901],[-75.3778691,40.6078937],[-75.3778665,40.6078318],[-75.3777341,40.607835],[-75.3777361,40.6078839],[-75.3775421,40.6078886],[-75.3775397,40.6078315],[-75.3774355,40.6078341],[-75.3773955,40.6078205],[-75.3773671,40.6078027],[-75.3773508,40.6077813],[-75.3773451,40.6077614],[-75.3773498,40.6077389],[-75.3773596,40.6077133],[-75.3773946,40.6076969],[-75.3774295,40.6076932],[-75.3774537,40.6076926],[-75.3774528,40.6076717],[-75.3775387,40.6076696],[-75.3775367,40.6076235],[-75.377706,40.6076193],[-75.377708,40.6076671],[-75.3779671,40.6076608],[-75.3779701,40.6077329],[-75.3779717,40.6077705],[-75.3780144,40.6077694]]]}},{"type":"Feature","id":26459773,"properties":{"osmId":26459773,"category":"other","addr:city":"Bethlehem","addr:housenumber":"2","addr:postcode":"18015","addr:state":"PA","addr:street":"Asa Drive","amenity":"parking","building":"parking","name":"Farrington Square Garage","operator":"Lehigh University","operator:type":"university","parking":"multi-storey"},"geometry":{"type":"Polygon","coordinates":[[[-75.3795324,40.6092278],[-75.3795518,40.6095776],[-75.3787345,40.6096037],[-75.3787151,40.6092539],[-75.3788178,40.6092506],[-75.3795324,40.6092278]]]}},{"type":"Feature","id":30385517,"properties":{"osmId":30385517,"category":"religious","addr:city":"Bethlehem","addr:housenumber":"474","addr:postcode":"18015","addr:state":"PA","addr:street":"Vine Street","amenity":"place_of_worship","building":"yes","denomination":"lutheran","name":"St. Peter's Evangelical Lutheran Church","religion":"christian","wikidata":"Q132067232"},"geometry":{"type":"Polygon","coordinates":[[[-75.3802173,40.6084156],[-75.3801039,40.6084189],[-75.3801062,40.6084639],[-75.3797648,40.608474],[-75.3797497,40.6081808],[-75.3802046,40.6081673],[-75.3802173,40.6084156]]]}},{"type":"Feature","id":30760801,"properties":{"osmId":30760801,"category":"academic","building":"school","name":"Broughal Middle School"},"geometry":{"type":"Polygon","coordinates":[[[-75.3810925,40.6092027],[-75.3810912,40.6092627],[-75.3812,40.6092567],[-75.3812637,40.6095366],[-75.3812318,40.6095447],[-75.3812425,40.6095789],[-75.3810727,40.6096192],[-75.3810653,40.6096047],[-75.3809844,40.6096149],[-75.3808765,40.6096149],[-75.3808757,40.609589],[-75.3808395,40.6095918],[-75.3808457,40.6096266],[-75.3805155,40.6096353],[-75.3805076,40.6095991],[-75.3799716,40.6096152],[-75.379977,40.6096393],[-75.3798735,40.6096414],[-75.3798098,40.6089022],[-75.3803563,40.6088639],[-75.3803829,40.6092288],[-75.3810925,40.6092027]]]}},{"type":"Feature","id":32696855,"properties":{"osmId":32696855,"category":"other","addr:city":"Bethlehem","addr:housenumber":"1515","addr:postcode":"18015","addr:state":"PA","addr:street":"Mountain Drive North","building":"yes","name":"Central Receiving","operator":"Lehigh University"},"geometry":{"type":"Polygon","coordinates":[[[-75.3807226,40.5963635],[-75.3807913,40.5963961],[-75.380912,40.596312],[-75.3810575,40.5964268],[-75.3809445,40.5965216],[-75.3811165,40.5966388],[-75.3812605,40.5967369],[-75.381151,40.5968258],[-75.3810648,40.5967526],[-75.3809205,40.5968702],[-75.3806791,40.5966921],[-75.3805252,40.5965786],[-75.3806797,40.5964613],[-75.3806454,40.5964287],[-75.3807226,40.5963635]]]}},{"type":"Feature","id":39332366,"properties":{"osmId":39332366,"category":"religious","addr:city":"Bethlehem","addr:housenumber":"303","addr:postcode":"18015","addr:state":"PA","addr:street":"West Packer Avenue","amenity":"place_of_worship","building":"yes","denomination":"methodist","name":"Fritz United Methodist Church","religion":"christian","wikidata":"Q132079665"},"geometry":{"type":"Polygon","coordinates":[[[-75.383341,40.6078403],[-75.3832092,40.6078515],[-75.3831958,40.6077605],[-75.3830018,40.607777],[-75.3829802,40.6076309],[-75.3831418,40.6076172],[-75.3831352,40.607572],[-75.3832375,40.6075633],[-75.3832461,40.6076216],[-75.383308,40.6076163],[-75.383341,40.6078403]]]}},{"type":"Feature","id":39332367,"properties":{"osmId":39332367,"category":"religious","addr:city":"Bethlehem","addr:housenumber":"417","addr:postcode":"18015","addr:state":"PA","addr:street":"Carlton Avenue","amenity":"place_of_worship","building":"church","denomination":"roman_catholic","diocese":"Allentown","name":"Holy Ghost Catholic Church","phone":"+1 610-867-9382","religion":"christian","website":"https://holyghost-church.org/"},"geometry":{"type":"Polygon","coordinates":[[[-75.3840134,40.6085811],[-75.3837246,40.6086042],[-75.3837221,40.6085861],[-75.3836275,40.6085937],[-75.3836298,40.6086102],[-75.3836015,40.6086124],[-75.3835956,40.6085704],[-75.3835309,40.6085756],[-75.383565,40.6088215],[-75.3836288,40.6088164],[-75.3836241,40.6087826],[-75.3836565,40.60878],[-75.3836584,40.6087932],[-75.3837461,40.6087862],[-75.3837439,40.6087704],[-75.3840364,40.608747],[-75.3840134,40.6085811]]]}},{"type":"Feature","id":39332670,"properties":{"osmId":39332670,"category":"academic","building":"university","name":"Johnson Hall"},"geometry":{"type":"Polygon","coordinates":[[[-75.3778966,40.6054117],[-75.3779019,40.6054544],[-75.3779637,40.6054505],[-75.3779651,40.6054572],[-75.377982,40.6054665],[-75.3780054,40.6054647],[-75.3780176,40.605453],[-75.3780166,40.6054469],[-75.3780809,40.605442],[-75.3781487,40.6054373],[-75.3781501,40.6054437],[-75.3781683,40.6054547],[-75.3781908,40.605453],[-75.3782053,40.6054398],[-75.3782039,40.6054338],[-75.3782639,40.6054296],[-75.3782572,40.6053646],[-75.3782482,40.6052926],[-75.3781856,40.6052973],[-75.3781856,40.605292],[-75.3781707,40.6052809],[-75.3781444,40.6052831],[-75.3781304,40.6052959],[-75.3781309,40.6053008],[-75.3780897,40.6053037],[-75.3780873,40.6052863],[-75.3780396,40.6052891],[-75.3780424,40.6053069],[-75.3780017,40.6053094],[-75.3780007,40.6053044],[-75.3779853,40.6052948],[-75.3779614,40.6052966],[-75.3779483,40.6053069],[-75.3779488,40.6053133],[-75.3778846,40.6053175],[-75.3778902,40.6053609],[-75.377856,40.6053632],[-75.3778615,40.6054137],[-75.3778966,40.6054117]]]}},{"type":"Feature","id":39456137,"properties":{"osmId":39456137,"category":"library","addr:city":"Bethlehem","addr:housenumber":"11","addr:postcode":"18018","addr:state":"PA","addr:street":"West Church Street","amenity":"library","building":"yes","contact:instagram":"https://www.instagram.com/pabapl/","name":"Bethlehem Area Public Library","opening_hours":"Mo-We 09:00-20:00; Th-Fr 09:00-18:00; Sa 10:00-17:00; Su off","phone":"+1-610-867-3761","website":"https://www.bapl.org/"},"geometry":{"type":"Polygon","coordinates":[[[-75.3793663,40.618522],[-75.3787562,40.6185145],[-75.3787581,40.6184261],[-75.3787598,40.6183457],[-75.3787619,40.61825],[-75.3787652,40.6180949],[-75.3793752,40.6181024],[-75.3793663,40.618522]]]}},{"type":"Feature","id":39543006,"properties":{"osmId":39543006,"category":"religious","addr:city":"Bethlehem","addr:housenumber":"312","addr:postcode":"18015","addr:state":"PA","addr:street":"East 4th Street","amenity":"place_of_worship","building":"church","denomination":"roman_catholic","diocese":"Allentown","name":"Holy Infancy Roman Catholic Church","phone":"+1 610-866-1121","religion":"christian","website":"https://www.holyinfancychurch.com/","wikidata":"Q132077970"},"geometry":{"type":"Polygon","coordinates":[[[-75.3744339,40.6104797],[-75.3743147,40.6104815],[-75.3741928,40.6104834],[-75.3741836,40.6101449],[-75.3741268,40.6101458],[-75.3741263,40.610127],[-75.3741253,40.6100884],[-75.3744231,40.6100837],[-75.3744339,40.6104797]]]}},{"type":"Feature","id":39611838,"properties":{"osmId":39611838,"category":"academic","building":"school","ele":"123","name":"Donegan Elementary School"},"geometry":{"type":"Polygon","coordinates":[[[-75.3602244,40.6110086],[-75.3602148,40.6108727],[-75.3603264,40.6108662],[-75.3603215,40.6107877],[-75.3604659,40.6107787],[-75.3604508,40.6106296],[-75.360419,40.6106287],[-75.360414,40.6106096],[-75.3603648,40.6106135],[-75.3603487,40.610484],[-75.3603031,40.6104574],[-75.3602798,40.6104593],[-75.3602822,40.6104416],[-75.3601926,40.6104485],[-75.360186,40.6104101],[-75.3600609,40.6104213],[-75.3600693,40.6104629],[-75.3599124,40.6104732],[-75.359936,40.6106334],[-75.3599115,40.6106355],[-75.3599208,40.6107501],[-75.3598056,40.6108526],[-75.3598077,40.6109202],[-75.3596791,40.6109277],[-75.3596779,40.6108553],[-75.3594361,40.6108688],[-75.359427,40.6107886],[-75.3593599,40.6107934],[-75.3593517,40.6107575],[-75.3592259,40.6107622],[-75.3592537,40.6109805],[-75.3592974,40.6109809],[-75.3592978,40.6109986],[-75.359276,40.6109993],[-75.3592273,40.6110479],[-75.3592383,40.6111015],[-75.3597019,40.6110727],[-75.3596985,40.611036],[-75.3597606,40.6110307],[-75.3597604,40.610974],[-75.3598634,40.610971],[-75.3599646,40.6110336],[-75.3600386,40.6110301],[-75.3600393,40.6110124],[-75.3602244,40.6110086]]]}},{"type":"Feature","id":39663474,"properties":{"osmId":39663474,"category":"academic","building":"university","name":"Philosophy Department"},"geometry":{"type":"Polygon","coordinates":[[[-75.3781964,40.6081192],[-75.3780471,40.6081293],[-75.3780336,40.6080151],[-75.378183,40.6080049],[-75.3781964,40.6081192]]]}},{"type":"Feature","id":40027136,"properties":{"osmId":40027136,"category":"religious","addr:city":"Bethlehem","addr:housenumber":"120","addr:postcode":"18015","addr:state":"PA","addr:street":"West 4th Street","amenity":"place_of_worship","building":"yes","name":"Lehigh University Bible Fellowship","religion":"christian"},"geometry":{"type":"Polygon","coordinates":[[[-75.3808985,40.6102776],[-75.3807304,40.6102802],[-75.3807253,40.6100869],[-75.3806916,40.6100874],[-75.3806892,40.6099953],[-75.3807637,40.6099942],[-75.3807628,40.6099617],[-75.3808901,40.6099598],[-75.3808985,40.6102776]]]}},{"type":"Feature","id":42934844,"properties":{"osmId":42934844,"category":"academic","addr:city":"Bethlehem","addr:housenumber":"321","addr:postcode":"18015","addr:state":"PA","addr:street":"East 3rd Street","building":"school","check_date":"2024-05-21","contact:website":"http://www.charterarts.org/","grades":"9-12","isced:level":"3","name":"Lehigh Valley Charter High School for the Arts","operator:type":"private"},"geometry":{"type":"Polygon","coordinates":[[[-75.3739815,40.6121728],[-75.3739935,40.6125582],[-75.3732444,40.6125764],[-75.3732241,40.6121896],[-75.3739815,40.6121728]]]}},{"type":"Feature","id":43567673,"properties":{"osmId":43567673,"category":"religious","addr:city":"Bethlehem","addr:housenumber":"15-19","addr:postcode":"18015","addr:state":"PA","addr:street":"West 4th Street","amenity":"place_of_worship","building":"yes","denomination":"reformed","name":"First Reformed Church","religion":"christian"},"geometry":{"type":"Polygon","coordinates":[[[-75.3792096,40.6108057],[-75.3790178,40.6108102],[-75.379006,40.6107322],[-75.3789961,40.6105476],[-75.3791671,40.6105491],[-75.3791671,40.6105918],[-75.3792057,40.6105911],[-75.3792096,40.6108057]]]}},{"type":"Feature","id":57041235,"properties":{"osmId":57041235,"category":"library","addr:city":"Bethlehem","addr:housenumber":"400","addr:postcode":"18015","addr:state":"PA","addr:street":"Webster Street","amenity":"library","building":"yes","name":"Bethlehem Public Library South Side Branch","operator":"Bethlehem Area Public Library"},"geometry":{"type":"Polygon","coordinates":[[[-75.3760995,40.6104381],[-75.3759528,40.6104434],[-75.3759358,40.6101707],[-75.3760826,40.6101654],[-75.3760995,40.6104381]]]}},{"type":"Feature","id":82291009,"properties":{"osmId":82291009,"category":"religious","addr:city":"Bethlehem","addr:housenumber":"73","addr:postcode":"18018","addr:state":"PA","addr:street":"West Church Street","amenity":"place_of_worship","building":"church","contact:facebook":"https://www.facebook.com/centralmoravianchurch","contact:instagram":"https://www.instagram.com/centralmoravian/","contact:youtube":"https://www.youtube.com/c/CentralMoravianChurch","denomination":"moravian","email":"office@centralmoravianchurch.org","name":"Central Moravian Church Sanctuary","phone":"+1-610-866-5661","religion":"christian","start_date":"1751","website":"https://www.centralmoravianchurch.org/","wikidata":"Q132066324"},"geometry":{"type":"Polygon","coordinates":[[[-75.3819074,40.6191407],[-75.3813616,40.6191349],[-75.3813652,40.6189378],[-75.381911,40.6189436],[-75.3819074,40.6191407]]]}},{"type":"Feature","id":82291011,"properties":{"osmId":82291011,"category":"academic","addr:city":"Bethlehem","addr:housenumber":"422","addr:postcode":"18018","addr:state":"PA","addr:street":"Heckewelder Place","building":"school","name":"Moravian Academy Lower School Office","source":"Yahoo","start_date":"1858","website":"https://www.visithistoricbethlehem.com/visit/merchant/moravian-academy-lower-school/"},"geometry":{"type":"Polygon","coordinates":[[[-75.3808532,40.6196963],[-75.3805946,40.6196922],[-75.3806004,40.6194783],[-75.380859,40.6194823],[-75.3808532,40.6196963]]]}},{"type":"Feature","id":87383659,"properties":{"osmId":87383659,"category":"library","addr:city":"Bethlehem","addr:housenumber":"30","addr:postcode":"18015","addr:state":"PA","addr:street":"Trembley Drive","amenity":"library","building":"yes","name":"Linderman Library"},"geometry":{"type":"Polygon","coordinates":[[[-75.3772077,40.6065632],[-75.3772312,40.606561],[-75.377347,40.6065504],[-75.3773566,40.6066102],[-75.3773637,40.6066548],[-75.3773894,40.6068151],[-75.3772452,40.6068285],[-75.377242,40.6068082],[-75.3769328,40.6068368],[-75.3769358,40.6068554],[-75.3767886,40.606869],[-75.3767817,40.6068257],[-75.3767404,40.6068295],[-75.3767451,40.6068591],[-75.3766748,40.6068656],[-75.3766566,40.6067524],[-75.3767585,40.606743],[-75.3767531,40.6067092],[-75.3765861,40.6067246],[-75.3765695,40.6066212],[-75.3768915,40.6065895],[-75.3768968,40.6065549],[-75.3769129,40.6065305],[-75.3769371,40.6065121],[-75.3769558,40.6064979],[-75.3769853,40.6064877],[-75.3770148,40.6064836],[-75.3770497,40.6064816],[-75.3770873,40.6064836],[-75.3771168,40.6064897],[-75.3771489,40.606504],[-75.3771784,40.6065243],[-75.3771999,40.6065467],[-75.3772077,40.6065632]]]}},{"type":"Feature","id":119334921,"properties":{"osmId":119334921,"category":"other","addr:city":"Bethlehem","addr:housenumber":"511","addr:postcode":"18015","addr:state":"PA","addr:street":"East 3rd Street","amenity":"college","building":"yes","name":"Fowler Family Southside Center","operator":"Northampton Community College"},"geometry":{"type":"Polygon","coordinates":[[[-75.3719843,40.612247],[-75.3719913,40.6124203],[-75.3719969,40.6124632],[-75.3720053,40.6126884],[-75.371957,40.6126897],[-75.3714455,40.612703],[-75.3714184,40.6122673],[-75.3719843,40.612247]]]}},{"type":"Feature","id":119334923,"properties":{"osmId":119334923,"category":"religious","addr:city":"Bethlehem","addr:housenumber":"617","addr:postcode":"18015","addr:state":"PA","addr:street":"East 4th Street","amenity":"place_of_worship","building":"yes","denomination":"lutheran","name":"St. John's Windish Evangelical Lutheran Church","religion":"christian","wikidata":"Q132068302"},"geometry":{"type":"Polygon","coordinates":[[[-75.369967,40.61079],[-75.3699919,40.6110341],[-75.3698136,40.6110446],[-75.3697886,40.6108005],[-75.369967,40.61079]]]}},{"type":"Feature","id":148902777,"properties":{"osmId":148902777,"category":"religious","building":"church","name":"Christian Education Building"},"geometry":{"type":"Polygon","coordinates":[[[-75.3803554,40.6195159],[-75.3800924,40.6195146],[-75.380094,40.619333],[-75.3801533,40.6193333],[-75.3801538,40.6192769],[-75.3803666,40.619278],[-75.3803662,40.6193315],[-75.3804299,40.6193318],[-75.3804287,40.6194699],[-75.3803558,40.6194696],[-75.3803554,40.6195159]]]}},{"type":"Feature","id":148902784,"properties":{"osmId":148902784,"category":"academic","addr:city":"Bethlehem","addr:housenumber":"370","addr:postcode":"18018","addr:state":"PA","addr:street":"Main Street","building":"university","name":"The HILL"},"geometry":{"type":"Polygon","coordinates":[[[-75.3815665,40.6178799],[-75.3809229,40.6178676],[-75.3809229,40.6178798],[-75.380827,40.617879],[-75.3807982,40.6178788],[-75.3807955,40.6178635],[-75.3804007,40.6178573],[-75.3804093,40.6177057],[-75.3804468,40.6177061],[-75.3807821,40.6177098],[-75.3807808,40.6176966],[-75.3808264,40.6176966],[-75.380931,40.6176966],[-75.380931,40.6177139],[-75.3812916,40.6177253],[-75.3813252,40.6177264],[-75.3815714,40.6177342],[-75.3815665,40.6178799]]]}},{"type":"Feature","id":159433878,"properties":{"osmId":159433878,"category":"religious","addr:city":"Bethlehem","addr:housenumber":"73","addr:postcode":"18018","addr:state":"PA","addr:street":"West Church Street","building":"church","name":"Central Moravian Church Office Building"},"geometry":{"type":"Polygon","coordinates":[[[-75.3814403,40.6187291],[-75.3814454,40.6186304],[-75.3812936,40.6186259],[-75.381277,40.6186254],[-75.3812757,40.618649],[-75.3812183,40.6186473],[-75.3812144,40.6187223],[-75.3814403,40.6187291]]]}},{"type":"Feature","id":159433880,"properties":{"osmId":159433880,"category":"academic","addr:city":"Bethlehem","addr:housenumber":"79","addr:postcode":"18018","addr:state":"PA","addr:street":"West Church Street","building":"university","name":"John F. Frueauff House","operator":"Moravian College","start_date":"1819","website":"https://www.historicbethlehem.org/visit-us/museums-sites/colonial-industrial-quarter/"},"geometry":{"type":"Polygon","coordinates":[[[-75.3816389,40.6187316],[-75.3816425,40.6186062],[-75.3815332,40.6186044],[-75.3815325,40.6186284],[-75.3814665,40.6186273],[-75.3814636,40.6187287],[-75.3816389,40.6187316]]]}},{"type":"Feature","id":159433884,"properties":{"osmId":159433884,"category":"academic","addr:city":"Bethlehem","addr:housenumber":"85","addr:postcode":"18018","addr:state":"PA","addr:street":"West Church Street","building":"university","name":"Main Hall","operator":"Moravian University","start_date":"1854","website":"https://www.visithistoricbethlehem.com/visit/merchant/main-hall/"},"geometry":{"type":"Polygon","coordinates":[[[-75.3819405,40.6187378],[-75.3819428,40.6186146],[-75.3819151,40.6186143],[-75.3819161,40.6185587],[-75.3818851,40.6185583],[-75.3818866,40.6184789],[-75.3817747,40.6184777],[-75.3817739,40.6185157],[-75.3817116,40.6185151],[-75.3817074,40.6187353],[-75.3819405,40.6187378]]]}},{"type":"Feature","id":204564711,"properties":{"osmId":204564711,"category":"religious","addr:city":"Bethlehem","addr:housenumber":"424","addr:postcode":"18018","addr:state":"PA","addr:street":"Center Street","amenity":"place_of_worship","building":"church","name":"Unitarian Universalist Church of the Lehigh Valley","phone":"+1 610 866 7652","religion":"unitarian_universalist","source":"Bing","website":"https://wp.uuclvpa.org/"},"geometry":{"type":"Polygon","coordinates":[[[-75.374681,40.6195607],[-75.3746838,40.6192983],[-75.3749025,40.6192997],[-75.3749015,40.6193922],[-75.3748857,40.6193921],[-75.3748854,40.6194186],[-75.3748282,40.6194182],[-75.3748276,40.6194749],[-75.3749024,40.6194754],[-75.3749029,40.6194308],[-75.3749586,40.6194311],[-75.3749587,40.6194229],[-75.3752548,40.6194248],[-75.3752533,40.6195706],[-75.3749571,40.6195687],[-75.3749572,40.6195588],[-75.3749015,40.6195584],[-75.3749017,40.619541],[-75.3748269,40.6195406],[-75.3748267,40.6195616],[-75.374681,40.6195607]]]}},{"type":"Feature","id":227076857,"properties":{"osmId":227076857,"category":"religious","addr:city":"Bethlehem","addr:housenumber":"321","addr:postcode":"18015","addr:state":"PA","addr:street":"Wyandotte Street","building":"church","name":"Sayre Hall","source":"bing"},"geometry":{"type":"Polygon","coordinates":[[[-75.3833941,40.6109597],[-75.3832469,40.611256],[-75.3834578,40.6113149],[-75.3834764,40.6112786],[-75.3835197,40.6112882],[-75.3835348,40.6112699],[-75.3836365,40.6112969],[-75.3836563,40.6112582],[-75.3835972,40.6112399],[-75.3836072,40.6112219],[-75.3836425,40.6111927],[-75.3836531,40.6111457],[-75.3835625,40.6111186],[-75.3836056,40.6110252],[-75.3833941,40.6109597]]]}},{"type":"Feature","id":434917692,"properties":{"osmId":434917692,"category":"religious","addr:city":"Bethlehem","addr:housenumber":"600","addr:postcode":"18018","addr:state":"PA","addr:street":"West Market Street","amenity":"place_of_worship","building":"church","denomination":"united_church_of_christ","name":"Bethany United Church of Christ","religion":"christian"},"geometry":{"type":"Polygon","coordinates":[[[-75.3915295,40.6212217],[-75.3912201,40.6212154],[-75.3912332,40.6209745],[-75.3913698,40.6209765],[-75.3913709,40.6209585],[-75.391433,40.6209598],[-75.3914324,40.6209782],[-75.3915343,40.6209802],[-75.3915295,40.6212217]]]}},{"type":"Feature","id":456673620,"properties":{"osmId":456673620,"category":"academic","addr:city":"Bethlehem","addr:housenumber":"551","addr:postcode":"18015","addr:state":"PA","addr:street":"Thomas Street","building":"school","name":"Holy Infancy School","old_name":"SS Cyril & Methodius School"},"geometry":{"type":"Polygon","coordinates":[[[-75.3695313,40.6083689],[-75.3700061,40.6087475],[-75.3701645,40.608633],[-75.3696898,40.6082543],[-75.3695313,40.6083689]]]}},{"type":"Feature","id":588237717,"properties":{"osmId":588237717,"category":"residential","building":"dormitory","building:levels":"3","name":"Trexler Nurses Residence - School of Nursing","roof:shape":"flat","source":"esri/Lehigh_County_PA_Buildings"},"geometry":{"type":"Polygon","coordinates":[[[-75.3947015,40.6073362],[-75.3946474,40.6073071],[-75.3946436,40.6073113],[-75.3944753,40.6072207],[-75.3944837,40.6072116],[-75.3943758,40.6071536],[-75.3943791,40.6071501],[-75.3943258,40.6071214],[-75.3943639,40.6070803],[-75.3943588,40.6070776],[-75.3944103,40.607022],[-75.3944271,40.6070038],[-75.3944236,40.6070021],[-75.3944204,40.607],[-75.3944178,40.6069975],[-75.3944158,40.6069947],[-75.3944145,40.6069917],[-75.3944138,40.6069885],[-75.3944139,40.6069853],[-75.3944147,40.6069822],[-75.3944161,40.6069792],[-75.3944183,40.6069764],[-75.3944209,40.606974],[-75.3944242,40.606972],[-75.3944278,40.6069703],[-75.3944317,40.6069692],[-75.3944358,40.6069686],[-75.39444,40.6069686],[-75.3944441,40.6069691],[-75.3944481,40.6069701],[-75.3944518,40.6069717],[-75.3944551,40.6069736],[-75.3945289,40.6068939],[-75.3945237,40.6068911],[-75.3945617,40.60685],[-75.394567,40.6068528],[-75.3946185,40.6068805],[-75.3946293,40.6068688],[-75.3946372,40.6068689],[-75.3946467,40.606874],[-75.3946572,40.6068796],[-75.3946592,40.6068849],[-75.3946484,40.6068966],[-75.3947011,40.6069249],[-75.3945588,40.6070786],[-75.394562,40.6070914],[-75.3945654,40.6071054],[-75.3947989,40.6072311],[-75.3947583,40.607275],[-75.394774,40.6072834],[-75.394774,40.6072887],[-75.3947683,40.6072949],[-75.3947619,40.6073018],[-75.3947559,40.607303],[-75.3947402,40.6072945],[-75.3947094,40.6073278],[-75.3947061,40.6073313],[-75.3947015,40.6073362]]]}},{"type":"Feature","id":588237721,"properties":{"osmId":588237721,"category":"medical","building":"hospital","name":"Coxe Pavilion","roof:shape":"hipped","source":"esri/Lehigh_County_PA_Buildings"},"geometry":{"type":"Polygon","coordinates":[[[-75.3940471,40.6081685],[-75.3938944,40.6080868],[-75.3938714,40.6081117],[-75.3938413,40.6080956],[-75.3938048,40.6080761],[-75.3938277,40.6080511],[-75.3935947,40.6079265],[-75.3936625,40.6078528],[-75.3937024,40.6078742],[-75.3938956,40.6079775],[-75.393906,40.6079661],[-75.3939726,40.6080018],[-75.3939622,40.6080131],[-75.3940299,40.6080493],[-75.394115,40.6080948],[-75.3940471,40.6081685]]]}},{"type":"Feature","id":588237728,"properties":{"osmId":588237728,"category":"medical","addr:city":"Bethlehem","addr:housenumber":"801","addr:postcode":"18015","addr:state":"PA","addr:street":"Ostrum Street","building":"hospital","layer":"1","name":"St. Luke's Hospital"},"geometry":{"type":"Polygon","coordinates":[[[-75.3934827,40.6099211],[-75.3934652,40.6099393],[-75.3935325,40.6099768],[-75.3934974,40.6100134],[-75.3934301,40.6099759],[-75.3934008,40.6100065],[-75.3933834,40.6099968],[-75.3933471,40.6099766],[-75.3933107,40.6099563],[-75.3932744,40.6099361],[-75.393238,40.6099159],[-75.3932016,40.6098956],[-75.3931653,40.6098754],[-75.3930305,40.6098004],[-75.3929987,40.6097827],[-75.3929371,40.609748],[-75.392876,40.6097144],[-75.393054,40.6095287],[-75.3930146,40.6095068],[-75.3931794,40.6093349],[-75.3929869,40.6092277],[-75.393108,40.6091014],[-75.3930512,40.6090697],[-75.3930939,40.6090223],[-75.3930722,40.6090102],[-75.393085,40.6089969],[-75.3930735,40.6089905],[-75.3930769,40.608987],[-75.393054,40.6089743],[-75.3930421,40.6089866],[-75.392979,40.6089515],[-75.393003,40.6089265],[-75.3930238,40.6089048],[-75.3930874,40.6089402],[-75.3930805,40.6089474],[-75.3931059,40.6089615],[-75.3931087,40.6089586],[-75.393115,40.6089621],[-75.3931289,40.6089476],[-75.393148,40.6089582],[-75.3932987,40.6088038],[-75.3932723,40.6087891],[-75.3931953,40.6087462],[-75.3931683,40.6087744],[-75.3930743,40.6087223],[-75.3931568,40.6086362],[-75.3930603,40.6085824],[-75.3929887,40.6086577],[-75.3929588,40.608641],[-75.3929341,40.6086667],[-75.3929443,40.6086724],[-75.3929012,40.6087174],[-75.3928708,40.6087005],[-75.392845,40.6086861],[-75.392886,40.6086434],[-75.3928944,40.6086481],[-75.3929212,40.6086201],[-75.3928821,40.6085976],[-75.3929699,40.608506],[-75.3929559,40.6084982],[-75.3930654,40.608384],[-75.3935631,40.6086632],[-75.3935725,40.6086526],[-75.3934542,40.6085864],[-75.3934707,40.6085699],[-75.3933931,40.608525],[-75.393379,40.6085377],[-75.3931853,40.6084282],[-75.3932916,40.6083193],[-75.3933126,40.6082978],[-75.3932703,40.6082742],[-75.3932993,40.6082439],[-75.3933515,40.6081894],[-75.3934522,40.6082422],[-75.3934935,40.6081972],[-75.3935729,40.6082366],[-75.3935332,40.6082026],[-75.3936108,40.6081455],[-75.3936332,40.6081615],[-75.3936486,40.6081524],[-75.3936908,40.608189],[-75.3936788,40.6081977],[-75.3937055,40.608219],[-75.3936228,40.6082741],[-75.3936595,40.6082945],[-75.3936858,40.608267],[-75.3937526,40.6083042],[-75.3937263,40.6083317],[-75.3937422,40.6083405],[-75.3937511,40.6083455],[-75.3937604,40.6083357],[-75.3937782,40.6083172],[-75.393841,40.6083521],[-75.3938232,40.6083707],[-75.3938527,40.6083871],[-75.3938686,40.608396],[-75.3938593,40.6084057],[-75.3938626,40.6084075],[-75.3939212,40.6084401],[-75.3939593,40.6084004],[-75.3939205,40.6083788],[-75.3940102,40.6082852],[-75.3940963,40.6081954],[-75.3941351,40.6082169],[-75.3945825,40.60775],[-75.3947462,40.6078411],[-75.3944346,40.6081663],[-75.3944472,40.6082472],[-75.3943619,40.6082549],[-75.3944569,40.6086781],[-75.394545,40.6086666],[-75.3945624,40.6087443],[-75.3945216,40.6087866],[-75.3945546,40.608805],[-75.3944935,40.6088688],[-75.3940807,40.6086391],[-75.3940059,40.6087168],[-75.3941038,40.6087712],[-75.3941392,40.6087342],[-75.3943609,40.6088576],[-75.3943402,40.6088793],[-75.3943585,40.6088895],[-75.394311,40.608939],[-75.3943316,40.6089505],[-75.394231,40.6090555],[-75.3942523,40.6090673],[-75.3941949,40.6091272],[-75.3942121,40.6091368],[-75.3942025,40.6091469],[-75.3942219,40.6091577],[-75.3941976,40.609183],[-75.3941782,40.6091722],[-75.3941756,40.6091749],[-75.3941584,40.6091653],[-75.394119,40.6092064],[-75.3941668,40.609233],[-75.3941416,40.6092593],[-75.3941678,40.6092739],[-75.3941482,40.6092944],[-75.394122,40.6092798],[-75.3940742,40.6092532],[-75.3940558,40.6092724],[-75.3941461,40.6093227],[-75.3941136,40.6093567],[-75.3941368,40.6093696],[-75.3940627,40.609447],[-75.3940967,40.609466],[-75.3938197,40.6097551],[-75.3938973,40.6097982],[-75.3938681,40.6098286],[-75.3938794,40.6099014],[-75.3938138,40.6099699],[-75.3936628,40.6098859],[-75.3936699,40.6098786],[-75.3935869,40.6098324],[-75.393566,40.6098542],[-75.3935043,40.6098199],[-75.3934704,40.6098554],[-75.3933832,40.6098069],[-75.3934366,40.6097512],[-75.3932922,40.6096708],[-75.3932776,40.609686],[-75.3932877,40.6096915],[-75.3932389,40.6097425],[-75.3935095,40.6098931],[-75.3934827,40.6099211]]]}},{"type":"Feature","id":663681199,"properties":{"osmId":663681199,"category":"religious","addr:city":"Bethlehem","addr:housenumber":"908","addr:postcode":"18015","addr:state":"PA","addr:street":"East 4th Street","building":"church","name":"Life Church"},"geometry":{"type":"Polygon","coordinates":[[[-75.3655345,40.6106719],[-75.3653424,40.6106775],[-75.3653276,40.6103709],[-75.3655197,40.6103615],[-75.3655345,40.6106719]]]}},{"type":"Feature","id":664014971,"properties":{"osmId":664014971,"category":"religious","addr:city":"Bethlehem","addr:housenumber":"417","addr:postcode":"18015","addr:state":"PA","addr:street":"East 5th Street","building":"church","name":"St. Joseph's Slovenian R.C. Church"},"geometry":{"type":"Polygon","coordinates":[[[-75.3726282,40.6095105],[-75.3724276,40.6095166],[-75.3724466,40.6098773],[-75.3726472,40.6098712],[-75.3726282,40.6095105]]]}},{"type":"Feature","id":664014972,"properties":{"osmId":664014972,"category":"academic","addr:city":"Bethlehem","addr:housenumber":"416","addr:postcode":"18015","addr:state":"PA","addr:street":"East 5th Street","building":"university","name":"Lehigh University Small Business Development Center"},"geometry":{"type":"Polygon","coordinates":[[[-75.3726103,40.6091708],[-75.372422,40.6091762],[-75.3724288,40.6093128],[-75.3726171,40.6093074],[-75.3726103,40.6091708]]]}},{"type":"Feature","id":1066451366,"properties":{"osmId":1066451366,"category":"academic","building":"university","name":"Day House"},"geometry":{"type":"Polygon","coordinates":[[[-75.3817531,40.6176851],[-75.3817281,40.617768],[-75.3816689,40.6177565],[-75.3816932,40.6176759],[-75.3817531,40.6176851]]]}},{"type":"Feature","id":1159544723,"properties":{"osmId":1159544723,"category":"academic","building":"university","name":"Business Innovation Building"},"geometry":{"type":"Polygon","coordinates":[[[-75.3745526,40.6087174],[-75.3745472,40.608523],[-75.3746787,40.6085148],[-75.3747417,40.6086502],[-75.374845,40.6086451],[-75.3748356,40.6085362],[-75.3750502,40.608527],[-75.3750502,40.6085026],[-75.3756577,40.6084761],[-75.3756657,40.6086838],[-75.3745526,40.6087174]]]}},{"type":"Feature","id":1164990664,"properties":{"osmId":1164990664,"category":"academic","addr:city":"Bethlehem","addr:housenumber":"41","addr:postcode":"18018","addr:state":"PA","addr:street":"West Church Street","building":"university","name":"Clewell Hall"},"geometry":{"type":"Polygon","coordinates":[[[-75.3802895,40.6186716],[-75.3802097,40.6186687],[-75.3802085,40.618688],[-75.3800922,40.6186839],[-75.3800989,40.6185736],[-75.3801802,40.6185765],[-75.3802053,40.6185774],[-75.3802078,40.6185361],[-75.3802977,40.6185393],[-75.3802895,40.6186716]]]}},{"type":"Feature","id":1235956312,"properties":{"osmId":1235956312,"category":"religious","addr:city":"Bethlehem","addr:housenumber":"402","addr:postcode":"18018","addr:state":"PA","addr:street":"3rd Avenue","amenity":"place_of_worship","building":"church","name":"West Side Moravian Church","phone":"+16108650256","religion":"christian","website":"https://www.westsidemoravian.org/"},"geometry":{"type":"Polygon","coordinates":[[[-75.3880492,40.6197661],[-75.3875773,40.6197614],[-75.3875796,40.6196324],[-75.3878841,40.6196354],[-75.3878836,40.6196601],[-75.388051,40.6196617],[-75.3880492,40.6197661]]]}},{"type":"Feature","id":1272675156,"properties":{"osmId":1272675156,"category":"religious","building":"church"},"geometry":{"type":"Polygon","coordinates":[[[-75.3771563,40.6202714],[-75.3771409,40.6205498],[-75.3768608,40.6205409],[-75.3768579,40.6205927],[-75.3767378,40.6205889],[-75.3767561,40.6202553],[-75.3767708,40.6202566],[-75.3769231,40.6202606],[-75.3769151,40.6204081],[-75.376977,40.62041],[-75.3769849,40.620266],[-75.3771563,40.6202714]]]}},{"type":"Feature","id":1356163964,"properties":{"osmId":1356163964,"category":"religious","addr:city":"Bethlehem","addr:housenumber":"75","addr:postcode":"18018","addr:state":"PA","addr:street":"East Market Street","amenity":"place_of_worship","building":"church","denomination":"united_church_of_christ","name":"Christ Church United Church of Christ","religion":"christian","wikidata":"Q132067531"},"geometry":{"type":"Polygon","coordinates":[[[-75.3756915,40.6208379],[-75.3758664,40.620842],[-75.3758647,40.6208858],[-75.376063,40.6208903],[-75.3760637,40.6208714],[-75.3761867,40.6208742],[-75.3761746,40.6211775],[-75.375916,40.6211716],[-75.3759118,40.6212782],[-75.3756742,40.6212727],[-75.3756915,40.6208379]]]}},{"type":"Feature","id":1369442326,"properties":{"osmId":1369442326,"category":"religious","addr:city":"Bethlehem","addr:housenumber":"210","addr:postcode":"18015","addr:state":"PA","addr:street":"East 3rd Street","amenity":"place_of_worship","building":"yes","religion":"christian"},"geometry":{"type":"Polygon","coordinates":[[[-75.3754638,40.6119561],[-75.3754473,40.6117739],[-75.3753762,40.6117776],[-75.3753927,40.6119598],[-75.3754638,40.6119561]]]}},{"type":"Feature","id":1369862345,"properties":{"osmId":1369862345,"category":"religious","addr:housenumber":"312","addr:postcode":"18015","addr:state":"PA","addr:street":"East 4th Street","building":"church","name":"Holy Infancy Parish Rectory"},"geometry":{"type":"Polygon","coordinates":[[[-75.3740896,40.6104338],[-75.3740998,40.6101338],[-75.3741263,40.610127],[-75.3741253,40.6100884],[-75.3740513,40.6100895],[-75.3740503,40.6101633],[-75.3739177,40.610165],[-75.3739284,40.6104391],[-75.3740896,40.6104338]]]}},{"type":"Feature","id":1369862355,"properties":{"osmId":1369862355,"category":"medical","addr:city":"Bethlehem","addr:housenumber":"502","addr:postcode":"18015","addr:state":"PA","addr:street":"East 4th Street","amenity":"clinic","building":"yes","healthcare":"clinic","name":"Fowler Community Wellness Center","operator":"Hispanic Center Lehigh Valley"},"geometry":{"type":"Polygon","coordinates":[[[-75.3718367,40.6105395],[-75.3717107,40.6105448],[-75.371687,40.6102186],[-75.3718132,40.6102133],[-75.3718367,40.6105395]]]}},{"type":"Feature","id":1369873634,"properties":{"osmId":1369873634,"category":"religious","building":"church"},"geometry":{"type":"Polygon","coordinates":[[[-75.365913,40.6098481],[-75.3659075,40.6097304],[-75.3655834,40.6097342],[-75.3655995,40.6098569],[-75.365913,40.6098481]]]}},{"type":"Feature","id":1370862667,"properties":{"osmId":1370862667,"category":"religious","addr:city":"Bethlehem","addr:housenumber":"617","addr:postcode":"18015","addr:state":"PA","addr:street":"Pierce Street","building":"yes"},"geometry":{"type":"Polygon","coordinates":[[[-75.3703074,40.6089146],[-75.3703031,40.60879],[-75.3701806,40.6087931],[-75.3701696,40.6087489],[-75.3700403,40.6087631],[-75.3700542,40.6089252],[-75.3703074,40.6089146]]]}},{"type":"Feature","id":1370862668,"properties":{"osmId":1370862668,"category":"religious","addr:city":"Bethlehem","addr:housenumber":"520","addr:postcode":"18015","addr:state":"PA","addr:street":"Buchanan Street","building":"yes"},"geometry":{"type":"Polygon","coordinates":[[[-75.3697821,40.60893],[-75.3697812,40.6088534],[-75.3696504,40.6088498],[-75.3696448,40.6088307],[-75.3695682,40.6088307],[-75.3695579,40.6088038],[-75.369373,40.6088052],[-75.3693851,40.6089597],[-75.3696794,40.6089484],[-75.3696831,40.6089264],[-75.3697821,40.60893]]]}},{"type":"Feature","id":1370862669,"properties":{"osmId":1370862669,"category":"religious","addr:city":"Bethlehem","addr:housenumber":"617","addr:postcode":"18015-3498","addr:state":"PA","addr:street":"Pierce Street","amenity":"place_of_worship","building":"church","denomination":"roman_catholic","diocese":"Allentown","name":"Incarnation of Our Lord Catholic Church","phone":"+1 610-866-3391","religion":"christian","website":"https://www.incarnationofourlord.org/"},"geometry":{"type":"Polygon","coordinates":[[[-75.3697895,40.608696],[-75.369656,40.6087973],[-75.3693842,40.608591],[-75.3695178,40.6084896],[-75.3697895,40.608696]]]}},{"type":"Feature","id":1409346380,"properties":{"osmId":1409346380,"category":"religious","building":"yes"},"geometry":{"type":"Polygon","coordinates":[[[-75.3837729,40.6084436],[-75.3835161,40.6084667],[-75.3835292,40.6085507],[-75.3835711,40.608547],[-75.3835739,40.6085652],[-75.3837888,40.6085459],[-75.3837729,40.6084436]]]}},{"type":"Feature","id":1409346381,"properties":{"osmId":1409346381,"category":"religious","building":"yes"},"geometry":{"type":"Polygon","coordinates":[[[-75.3840525,40.6088065],[-75.3840636,40.6088777],[-75.3838983,40.6088925],[-75.3838972,40.6088856],[-75.3837967,40.6088947],[-75.3837867,40.6088303],[-75.3840525,40.6088065]]]}},{"type":"Feature","id":1409346382,"properties":{"osmId":1409346382,"category":"religious","building":"yes"},"geometry":{"type":"Polygon","coordinates":[[[-75.3836992,40.6088629],[-75.3837321,40.6090781],[-75.3836171,40.6090882],[-75.3835841,40.6088731],[-75.3836992,40.6088629]]]}},{"type":"Feature","id":1414195390,"properties":{"osmId":1414195390,"category":"medical","addr:city":"Bethlehem","addr:housenumber":"801","addr:postcode":"18015","addr:state":"PA","addr:street":"Ostrum Street","building":"hospital","layer":"1","name":"St. Luke's Hospital"},"geometry":{"type":"Polygon","coordinates":[[[-75.3935395,40.6099112],[-75.3935436,40.6099109],[-75.3935477,40.6099111],[-75.3935516,40.6099119],[-75.3935553,40.6099133],[-75.3935586,40.6099152],[-75.3935614,40.6099175],[-75.3935635,40.6099201],[-75.3935651,40.609923],[-75.3935658,40.609926],[-75.3935659,40.6099292],[-75.3935651,40.6099322],[-75.3935637,40.6099351],[-75.3935616,40.6099378],[-75.3935588,40.6099401],[-75.3935556,40.609942],[-75.3935519,40.6099434],[-75.393548,40.6099443],[-75.3935439,40.6099446],[-75.3935398,40.6099443],[-75.3935359,40.6099435],[-75.3935322,40.6099421],[-75.3935289,40.6099403],[-75.3935261,40.609938],[-75.3935239,40.6099353],[-75.3935224,40.6099324],[-75.3935216,40.6099294],[-75.3935216,40.6099263],[-75.3935223,40.6099232],[-75.3935238,40.6099203],[-75.3935259,40.6099176],[-75.3935287,40.6099153],[-75.3935319,40.6099134],[-75.3935356,40.609912],[-75.3935395,40.6099112]]]}},{"type":"Feature","id":1414195515,"properties":{"osmId":1414195515,"category":"religious","addr:city":"Bethlehem","addr:housenumber":"927","addr:postcode":"18015","addr:state":"PA","addr:street":"Broadway","building":"church"},"geometry":{"type":"Polygon","coordinates":[[[-75.3912529,40.6044724],[-75.3911374,40.6045983],[-75.3909968,40.6045239],[-75.3909901,40.6045312],[-75.3909462,40.6045081],[-75.3909612,40.6044917],[-75.3909763,40.6044753],[-75.390988,40.6044815],[-75.3910801,40.6043811],[-75.3912529,40.6044724]]]}},{"type":"Feature","id":1417446004,"properties":{"osmId":1417446004,"category":"religious","addr:city":"Bethlehem","addr:housenumber":"321","addr:postcode":"18015","addr:state":"PA","addr:street":"Wyandotte Street","building":"church"},"geometry":{"type":"Polygon","coordinates":[[[-75.3838516,40.6113163],[-75.3837851,40.6114257],[-75.3838344,40.6114417],[-75.3838436,40.6114819],[-75.3837882,40.6115273],[-75.383753,40.6115885],[-75.3837001,40.6115698],[-75.3836853,40.611611],[-75.3836335,40.6116232],[-75.3835928,40.6116049],[-75.3835694,40.6115745],[-75.3836101,40.6115202],[-75.3836261,40.6114697],[-75.3835596,40.6114538],[-75.3836015,40.611372],[-75.3836655,40.6113907],[-75.383721,40.6112718],[-75.3838516,40.6113163]]]}},{"type":"Feature","id":1417446005,"properties":{"osmId":1417446005,"category":"religious","addr:city":"Bethlehem","addr:housenumber":"321","addr:postcode":"18015","addr:state":"PA","addr:street":"Wyandotte Street","building":"church","name":"The Deanery"},"geometry":{"type":"Polygon","coordinates":[[[-75.3839077,40.6108913],[-75.383888,40.6109308],[-75.3839246,40.6109413],[-75.3839043,40.610982],[-75.383871,40.6109724],[-75.3838521,40.6110103],[-75.3837377,40.6109775],[-75.3837967,40.6108594],[-75.3839077,40.6108913]]]}},{"type":"Feature","id":1502375375,"properties":{"osmId":1502375375,"category":"academic","building":"university"},"geometry":{"type":"Polygon","coordinates":[[[-75.3770375,40.6097146],[-75.3770262,40.6094097],[-75.3761021,40.6094295],[-75.3761122,40.6097021],[-75.3769095,40.6096849],[-75.3770375,40.6097146]]]}},{"type":"Feature","id":1502375376,"properties":{"osmId":1502375376,"category":"academic","building":"university","name":"Health, Science, and Technology Building (HST)"},"geometry":{"type":"Polygon","coordinates":[[[-75.3770631,40.6097602],[-75.3770544,40.6093868],[-75.3760479,40.6094128],[-75.3760722,40.6097851],[-75.3762381,40.609783],[-75.3770631,40.6097602]]]}}]}