{"type":"FeatureCollection","features":[{"type":"Feature","id":264116327,"properties":{"osmId":264116327,"category":"medical","amenity":"clinic","building":"retail","ele":"12.4","healthcare":"clinic","height":"6.5","lacounty:ain":"4458020903","lacounty:bld_id":"352463835820","name":"Malibu Medical","start_date":"1957"},"geometry":{"type":"Polygon","coordinates":[[[-118.690427,34.0349976],[-118.690455,34.0348277],[-118.6905359,34.0348368],[-118.6905351,34.0348418],[-118.6905813,34.034847],[-118.6905625,34.0349622],[-118.6907251,34.0349806],[-118.6907189,34.0350184],[-118.6907279,34.0350194],[-118.6907168,34.0350869],[-118.6906023,34.035074],[-118.6906034,34.035067],[-118.6905004,34.0350554],[-118.6904991,34.0350632],[-118.6904313,34.0350556],[-118.6904405,34.0349991],[-118.690427,34.0349976]]]}},{"type":"Feature","id":315851488,"properties":{"osmId":315851488,"category":"academic","building":"university","ele":"141.9","height":"18.9","lacounty:ain":"4458038003","lacounty:bld_id":"347208837599","start_date":"1980"},"geometry":{"type":"Polygon","coordinates":[[[-118.70766,34.0393962],[-118.7077287,34.0394523],[-118.7078258,34.03937],[-118.7080707,34.0395702],[-118.7080831,34.0395596],[-118.7080711,34.0395498],[-118.7080927,34.0395314],[-118.7080713,34.0395139],[-118.7080865,34.0395009],[-118.7081073,34.0395179],[-118.7081274,34.0395009],[-118.7081564,34.0395247],[-118.7081792,34.0395054],[-118.7080599,34.039408],[-118.7080322,34.0394315],[-118.707854,34.0392859],[-118.7079081,34.03924],[-118.7079509,34.0392037],[-118.7079924,34.0392376],[-118.7080453,34.0391927],[-118.7081802,34.0393029],[-118.7081858,34.0392982],[-118.7082214,34.0393274],[-118.7082637,34.0392915],[-118.7084019,34.0394044],[-118.7083696,34.0394317],[-118.7084656,34.0395101],[-118.7084233,34.0395459],[-118.7084335,34.0395542],[-118.7083367,34.0396363],[-118.7083111,34.0396155],[-118.7082901,34.0396333],[-118.7083948,34.0397189],[-118.7083167,34.039785],[-118.7083382,34.0398026],[-118.7082838,34.0398488],[-118.7082627,34.0398314],[-118.7082247,34.0398636],[-118.708172,34.0398205],[-118.708117,34.0398672],[-118.7080588,34.0398197],[-118.7078036,34.0400362],[-118.7077262,34.0399729],[-118.7076949,34.0399761],[-118.7076612,34.0399471],[-118.7076862,34.039927],[-118.7075466,34.0398065],[-118.7075368,34.0398145],[-118.7075027,34.0397851],[-118.7075098,34.0397794],[-118.7074074,34.0396911],[-118.7075401,34.0395845],[-118.7074895,34.0395409],[-118.7075334,34.0395036],[-118.7076232,34.0394274],[-118.70766,34.0393962]]]}},{"type":"Feature","id":315851490,"properties":{"osmId":315851490,"category":"academic","building":"university","ele":"132.9","height":"20.5","lacounty:ain":"4458038010","lacounty:bld_id":"347013837279","name":"Rockwell Academic Center","start_date":"1971"},"geometry":{"type":"Polygon","coordinates":[[[-118.7083402,34.0387631],[-118.7083215,34.0387789],[-118.7083582,34.038809],[-118.7082371,34.0389111],[-118.7083281,34.0389859],[-118.7083418,34.0389744],[-118.7082666,34.0389126],[-118.708398,34.0388017],[-118.708344,34.0387573],[-118.7084171,34.0386957],[-118.7083733,34.0386597],[-118.7083708,34.03865],[-118.7083798,34.0386376],[-118.7083954,34.0386393],[-118.7084446,34.0386798],[-118.7084815,34.0386488],[-118.7085672,34.0387194],[-118.7085412,34.0387413],[-118.7085755,34.0387696],[-118.7085827,34.0387824],[-118.7085823,34.0387953],[-118.7085756,34.038809],[-118.7085703,34.0388142],[-118.7086036,34.0388417],[-118.7085564,34.0388813],[-118.7085901,34.0389091],[-118.7084882,34.0389947],[-118.7085113,34.0390138],[-118.7084518,34.0390637],[-118.7084333,34.0390483],[-118.7084172,34.0390619],[-118.7084456,34.0390853],[-118.708452,34.0390929],[-118.7084507,34.0391039],[-118.7084234,34.0391265],[-118.7084173,34.0391216],[-118.7083773,34.0391563],[-118.7083662,34.0391474],[-118.7083205,34.0391871],[-118.7082756,34.0391512],[-118.7082692,34.0391567],[-118.7082921,34.039175],[-118.708182,34.0392705],[-118.7079839,34.0391122],[-118.7079957,34.0391019],[-118.7079634,34.0390761],[-118.7078542,34.0389889],[-118.7080016,34.038861],[-118.7079352,34.0388079],[-118.7079289,34.0388133],[-118.707854,34.0387535],[-118.7079257,34.0386912],[-118.7079182,34.0386852],[-118.7080538,34.0385675],[-118.7081071,34.0386101],[-118.7081141,34.038604],[-118.7081441,34.0386279],[-118.7081595,34.0386146],[-118.7083402,34.0387631]]]}},{"type":"Feature","id":315851491,"properties":{"osmId":315851491,"category":"academic","building":"university","ele":"126.7","height":"7.6","lacounty:ain":"4458038010","lacounty:bld_id":"201413212980000","name":"George Elkins Auditorium","start_date":"1971"},"geometry":{"type":"Polygon","coordinates":[[[-118.7074983,34.0389576],[-118.7076442,34.0388347],[-118.7076959,34.0388776],[-118.7077715,34.0389395],[-118.7078317,34.0389864],[-118.707881,34.039027],[-118.7078691,34.0390371],[-118.7078773,34.0390438],[-118.707753,34.0391485],[-118.7077441,34.0391411],[-118.7077329,34.0391506],[-118.7075471,34.0389977],[-118.7074983,34.0389576]]]}},{"type":"Feature","id":346626354,"properties":{"osmId":346626354,"category":"academic","building":"university","ele":"180.5","height":"17.4","lacounty:ain":"4458030035","lacounty:bld_id":"347328838412","name":"Center for Communication and Business"},"geometry":{"type":"Polygon","coordinates":[[[-118.7082249,34.042106],[-118.7081479,34.0421106],[-118.7081512,34.0421498],[-118.7080774,34.0421542],[-118.7080768,34.0421469],[-118.7079611,34.0421538],[-118.7079584,34.042122],[-118.7077513,34.0421344],[-118.7077528,34.0421514],[-118.7076203,34.0421593],[-118.7075729,34.0421537],[-118.7075298,34.0421426],[-118.7074921,34.0421265],[-118.7074573,34.0421031],[-118.7074492,34.0420962],[-118.7074654,34.042083],[-118.7073556,34.0419897],[-118.7073264,34.0420135],[-118.7072456,34.0419449],[-118.7072405,34.0419491],[-118.7071888,34.0419052],[-118.7072271,34.0418739],[-118.7071331,34.0417941],[-118.7071451,34.0417843],[-118.7071396,34.0417796],[-118.7071591,34.0417637],[-118.7071685,34.0417717],[-118.7071837,34.0417593],[-118.7071747,34.0417517],[-118.7071927,34.041737],[-118.7072013,34.0417443],[-118.7072836,34.0416771],[-118.7075586,34.0419107],[-118.7075852,34.0419114],[-118.7076267,34.0419206],[-118.7076636,34.0419332],[-118.7076986,34.0419495],[-118.7077116,34.0419601],[-118.7082097,34.0419298],[-118.7082249,34.042106]]]}},{"type":"Feature","id":459101287,"properties":{"osmId":459101287,"category":"academic","building":"college","building:units":"84","ele":"219.9","height":"15.1","lacounty:ain":"4457024006","lacounty:bld_id":"345037839410","start_date":"2003"},"geometry":{"type":"Polygon","coordinates":[[[-118.7149899,34.0452557],[-118.7149473,34.0452365],[-118.7149223,34.0452752],[-118.7146236,34.0451406],[-118.7146458,34.0451065],[-118.7146243,34.0450968],[-118.7148851,34.0446956],[-118.7149242,34.0447133],[-118.7149524,34.0446698],[-118.7149986,34.0446906],[-118.7150289,34.0446441],[-118.7150894,34.0446714],[-118.7151002,34.0446548],[-118.7151241,34.0446656],[-118.7151483,34.0446283],[-118.7151542,34.044631],[-118.7151789,34.0445931],[-118.7152053,34.044605],[-118.7152194,34.0445834],[-118.7152398,34.0445926],[-118.7152513,34.0445749],[-118.7152981,34.044596],[-118.7152861,34.0446144],[-118.7153118,34.044626],[-118.7152537,34.0447153],[-118.7153214,34.0447458],[-118.7149899,34.0452557]]]}},{"type":"Feature","id":459101813,"properties":{"osmId":459101813,"category":"academic","building":"college","ele":"157.3","height":"4.7","lacounty:ain":"4458037031","lacounty:bld_id":"346209839338","start_date":"1973"},"geometry":{"type":"Polygon","coordinates":[[[-118.7112231,34.0444256],[-118.7113353,34.0444522],[-118.7112812,34.0446102],[-118.711169,34.0445836],[-118.7112231,34.0444256]]]}},{"type":"Feature","id":459101817,"properties":{"osmId":459101817,"category":"academic","building":"school","ele":"200.3","height":"14.0","lacounty:ain":"4458037018","lacounty:bld_id":"346748839185","name":"Caruso School of Law"},"geometry":{"type":"Polygon","coordinates":[[[-118.709455,34.0443346],[-118.7094549,34.044315],[-118.7094375,34.0443151],[-118.7094373,34.044281],[-118.7094246,34.0442811],[-118.7094238,34.0441268],[-118.709414,34.0441268],[-118.7094136,34.0440574],[-118.7094234,34.0440574],[-118.709423,34.0439895],[-118.7093961,34.0439896],[-118.7093958,34.0439495],[-118.709267,34.04395],[-118.7092672,34.0439864],[-118.7092377,34.0439865],[-118.7092379,34.044023],[-118.709131,34.0440234],[-118.70913,34.0438471],[-118.709063,34.0438473],[-118.7090625,34.0437431],[-118.7090464,34.0437432],[-118.7090458,34.0436258],[-118.7090073,34.043626],[-118.7089991,34.0436227],[-118.7089948,34.0436147],[-118.7089969,34.0436062],[-118.7090042,34.0435977],[-118.7090453,34.0435928],[-118.7090455,34.0435615],[-118.7090572,34.0435615],[-118.7090573,34.0435433],[-118.7089973,34.043543],[-118.7089979,34.0434257],[-118.7090794,34.043426],[-118.7090795,34.0434122],[-118.709265,34.0434129],[-118.7092643,34.0435544],[-118.7093926,34.0435548],[-118.7093929,34.0435064],[-118.7096763,34.0435074],[-118.7096761,34.0435441],[-118.7097094,34.0435442],[-118.7097091,34.0435958],[-118.7097338,34.0435959],[-118.7097461,34.0436013],[-118.7097504,34.0436083],[-118.7097483,34.0436183],[-118.7097368,34.043624],[-118.7097218,34.043624],[-118.7097219,34.043636],[-118.7097472,34.0436359],[-118.7097488,34.0439028],[-118.7097248,34.0439029],[-118.7097249,34.0439133],[-118.7097371,34.0439132],[-118.7097446,34.0439168],[-118.7097507,34.0439253],[-118.7097484,34.0439336],[-118.7097441,34.0439388],[-118.7097365,34.0439411],[-118.7097232,34.0439411],[-118.7097231,34.0439524],[-118.7097522,34.0439526],[-118.7097502,34.0441965],[-118.7097377,34.0441964],[-118.7097374,34.0442369],[-118.7096354,34.0443243],[-118.709618,34.0443243],[-118.7096179,34.0443339],[-118.709455,34.0443346]]]}},{"type":"Feature","id":459101818,"properties":{"osmId":459101818,"category":"academic","building":"college","ele":"158.9","height":"5.0","lacounty:ain":"4458037031","lacounty:bld_id":"346235839424","start_date":"1973"},"geometry":{"type":"Polygon","coordinates":[[[-118.7111481,34.0446086],[-118.7111597,34.0446123],[-118.7111701,34.0445899],[-118.711233,34.04461],[-118.7112228,34.0446322],[-118.7112729,34.0446482],[-118.7112201,34.0447628],[-118.7112331,34.044767],[-118.7112262,34.0447819],[-118.7112146,34.0447782],[-118.7111931,34.0448247],[-118.7112035,34.044828],[-118.7111965,34.0448431],[-118.7111868,34.04484],[-118.7111678,34.044881],[-118.7110846,34.0448544],[-118.7110801,34.0448642],[-118.7110495,34.0448545],[-118.7110539,34.0448449],[-118.7110408,34.0448407],[-118.7111481,34.0446086]]]}},{"type":"Feature","id":459101819,"properties":{"osmId":459101819,"category":"academic","building":"college","building:units":"77","ele":"146.0","height":"9.4","lacounty:ain":"4458037027","lacounty:bld_id":"345824838612","start_date":"1983"},"geometry":{"type":"Polygon","coordinates":[[[-118.7129474,34.0422849],[-118.7129564,34.0422984],[-118.7129202,34.0423152],[-118.7129258,34.0423236],[-118.7128786,34.0423454],[-118.7128635,34.0423228],[-118.7128421,34.0423327],[-118.7128517,34.042347],[-118.712817,34.042363],[-118.7128223,34.0423709],[-118.7127748,34.042393],[-118.7127549,34.0423632],[-118.712732,34.0423738],[-118.7127466,34.0423957],[-118.7127461,34.0424034],[-118.7127386,34.0424111],[-118.7127283,34.0424135],[-118.712719,34.0424097],[-118.7127083,34.0423941],[-118.7126866,34.0424045],[-118.7126957,34.0424176],[-118.7126608,34.0424343],[-118.7126665,34.0424426],[-118.7126194,34.0424651],[-118.712609,34.04245],[-118.7125876,34.0424602],[-118.712596,34.0424724],[-118.7125617,34.0424889],[-118.7125677,34.0424976],[-118.7125225,34.0425192],[-118.7125428,34.0425487],[-118.7125434,34.0425573],[-118.7125417,34.0425654],[-118.7125343,34.0425688],[-118.7125268,34.0425693],[-118.7125187,34.0425674],[-118.7125129,34.0425585],[-118.7124316,34.0425955],[-118.7124056,34.0425559],[-118.712414,34.0425521],[-118.7123948,34.042523],[-118.7124102,34.042516],[-118.7123986,34.0424983],[-118.7123736,34.0425097],[-118.712348,34.0424708],[-118.7123582,34.0424662],[-118.712339,34.042437],[-118.7123534,34.0424305],[-118.7123397,34.0424096],[-118.7124112,34.042377],[-118.7124489,34.0424343],[-118.7124955,34.0424131],[-118.7124603,34.0423598],[-118.7124865,34.0423478],[-118.7124769,34.0423332],[-118.7125109,34.0423177],[-118.7125048,34.0423085],[-118.7125527,34.0422867],[-118.7125627,34.0423019],[-118.7125844,34.0422919],[-118.7125753,34.042278],[-118.7126092,34.0422626],[-118.7126027,34.0422527],[-118.7127448,34.0421879],[-118.7127511,34.0421975],[-118.7127867,34.0421813],[-118.7127957,34.0421949],[-118.7128459,34.0421721],[-118.7128365,34.0421578],[-118.7128695,34.0421428],[-118.7128631,34.042133],[-118.7129078,34.0421127],[-118.7129535,34.0421822],[-118.7129631,34.0421795],[-118.7129718,34.0421824],[-118.7129776,34.0421886],[-118.7129782,34.0421963],[-118.7129742,34.0422036],[-118.7129346,34.0422217],[-118.7129696,34.0422747],[-118.7129474,34.0422849]]]}},{"type":"Feature","id":459101822,"properties":{"osmId":459101822,"category":"academic","building":"college","ele":"253.0","height":"14.6","lacounty:ain":"4457024004","lacounty:bld_id":"345285840218","start_date":"2003"},"geometry":{"type":"Polygon","coordinates":[[[-118.7145884,34.0470349],[-118.7146337,34.0470348],[-118.7146335,34.0470021],[-118.7144134,34.0470026],[-118.7144138,34.0471401],[-118.714305,34.0471403],[-118.714305,34.0471232],[-118.714182,34.0471235],[-118.7141818,34.0470501],[-118.7141482,34.0470502],[-118.7141479,34.0469584],[-118.7140831,34.0469585],[-118.7140823,34.0467162],[-118.7141259,34.0467161],[-118.7141258,34.0467039],[-118.7140106,34.0467041],[-118.7140105,34.0466711],[-118.713945,34.0466713],[-118.7139453,34.0467831],[-118.7138815,34.0467832],[-118.7138812,34.0466733],[-118.7138518,34.0466733],[-118.7138514,34.0465398],[-118.7138395,34.0465398],[-118.7138392,34.046452],[-118.7138491,34.046452],[-118.7138491,34.0464157],[-118.7137524,34.046416],[-118.713752,34.0463194],[-118.713801,34.0463193],[-118.7138341,34.0462673],[-118.7138812,34.0462674],[-118.7138814,34.0462288],[-118.7142837,34.0462303],[-118.7142834,34.0462947],[-118.7142523,34.0462946],[-118.7142521,34.0463314],[-118.7142819,34.0463315],[-118.7142817,34.0463684],[-118.7142521,34.0463683],[-118.7142518,34.0464146],[-118.7144611,34.0464154],[-118.7144614,34.0463665],[-118.7144215,34.0463663],[-118.7144222,34.0462233],[-118.7144297,34.0462234],[-118.7144302,34.0461384],[-118.7146862,34.0461394],[-118.7146858,34.0462239],[-118.7147382,34.0462241],[-118.7147371,34.0464327],[-118.7146342,34.0464323],[-118.7146338,34.0465095],[-118.7146725,34.0465096],[-118.7146724,34.0465252],[-118.7147294,34.0465255],[-118.7147285,34.0466851],[-118.7147793,34.0466853],[-118.7147792,34.0466987],[-118.7147897,34.0466987],[-118.7147891,34.046814],[-118.7147789,34.0468139],[-118.7147788,34.0468291],[-118.7148206,34.0468292],[-118.7148199,34.0469752],[-118.7149265,34.0469756],[-118.714926,34.0470578],[-118.7149039,34.0470577],[-118.714903,34.0472241],[-118.7148177,34.0472238],[-118.7148176,34.047232],[-118.714691,34.0472315],[-118.7146909,34.0472465],[-118.7145891,34.0472462],[-118.7145884,34.0470349]]]}},{"type":"Feature","id":459101824,"properties":{"osmId":459101824,"category":"academic","building":"college","building:units":"67","ele":"202.7","height":"11.6","lacounty:ain":"4458037023","lacounty:bld_id":"346942839570","start_date":"1983"},"geometry":{"type":"Polygon","coordinates":[[[-118.7088067,34.0453758],[-118.7087777,34.045328],[-118.708726,34.0453497],[-118.7087205,34.0453407],[-118.7086835,34.0453563],[-118.7086496,34.0453004],[-118.7086755,34.0452895],[-118.7086608,34.0452681],[-118.7086721,34.0452425],[-118.7087058,34.0452279],[-118.7087357,34.0452373],[-118.7087662,34.0452824],[-118.7088248,34.045255],[-118.7088318,34.045236],[-118.7087885,34.0452196],[-118.7088385,34.0451982],[-118.7088306,34.0451855],[-118.7088194,34.0451769],[-118.7088087,34.0451672],[-118.7087993,34.0451571],[-118.7087939,34.0451412],[-118.7087941,34.0451306],[-118.7087929,34.0451221],[-118.7087756,34.0450971],[-118.7087547,34.0450921],[-118.7087139,34.0450255],[-118.7087006,34.0450196],[-118.7086888,34.0450067],[-118.7086852,34.0449956],[-118.7086848,34.044976],[-118.7086701,34.044952],[-118.7086567,34.0449576],[-118.7086487,34.0449445],[-118.7086764,34.0449328],[-118.7086674,34.0449182],[-118.708775,34.0448724],[-118.7088724,34.0450311],[-118.7088862,34.0450253],[-118.7089862,34.0451882],[-118.7089286,34.0452127],[-118.7089339,34.0452213],[-118.708952,34.0452137],[-118.7090013,34.045294],[-118.7088067,34.0453758]]]}},{"type":"Feature","id":459101827,"properties":{"osmId":459101827,"category":"academic","building":"college","building:units":"84","ele":"216.1","height":"11.4","lacounty:ain":"4457024006","lacounty:bld_id":"345096839370","start_date":"2003"},"geometry":{"type":"Polygon","coordinates":[[[-118.7150358,34.0445875],[-118.7150333,34.0445821],[-118.7149847,34.0445979],[-118.7149919,34.0446132],[-118.7149367,34.0446312],[-118.71493,34.044617],[-118.7148503,34.0446429],[-118.7148389,34.0446186],[-118.7148232,34.0446237],[-118.7147978,34.0445695],[-118.7148159,34.0445636],[-118.714808,34.0445468],[-118.7149194,34.0445106],[-118.7149118,34.0444944],[-118.7149373,34.0444861],[-118.7149443,34.044501],[-118.7149922,34.0444855],[-118.7149949,34.0444914],[-118.7150536,34.0444723],[-118.7150981,34.0445672],[-118.7150358,34.0445875]]]}},{"type":"Feature","id":459101828,"properties":{"osmId":459101828,"category":"academic","building":"college","building:units":"77","ele":"146.7","height":"9.0","lacounty:ain":"4458037027","lacounty:bld_id":"345715838746","start_date":"1983"},"geometry":{"type":"Polygon","coordinates":[[[-118.7132601,34.0420397],[-118.7132455,34.0420459],[-118.7132733,34.0420918],[-118.7132683,34.0421029],[-118.7132598,34.0421078],[-118.7132477,34.0421076],[-118.713239,34.0421034],[-118.7132256,34.042082],[-118.713205,34.042091],[-118.7132286,34.0421285],[-118.713219,34.0421327],[-118.713237,34.0421614],[-118.7132195,34.042169],[-118.7132337,34.0421916],[-118.7132064,34.0422035],[-118.7132293,34.0422399],[-118.7132187,34.0422446],[-118.7132372,34.042274],[-118.713221,34.042281],[-118.7132355,34.0423042],[-118.7131733,34.0423312],[-118.7131855,34.0423507],[-118.7132141,34.0423382],[-118.7132245,34.0423419],[-118.7132293,34.0423494],[-118.713229,34.0423576],[-118.7132239,34.0423634],[-118.7131608,34.0423923],[-118.7131845,34.0424281],[-118.7131731,34.0424333],[-118.7131915,34.042461],[-118.7131741,34.042469],[-118.7131893,34.0424921],[-118.7131248,34.0425216],[-118.7131537,34.0425653],[-118.71313,34.0425762],[-118.7131397,34.0425908],[-118.7131062,34.0426062],[-118.7131119,34.0426148],[-118.7130663,34.0426356],[-118.71308,34.0426564],[-118.7130825,34.042665],[-118.713081,34.0426736],[-118.7130737,34.042677],[-118.7130651,34.0426776],[-118.7130547,34.042673],[-118.7130415,34.0426525],[-118.7130358,34.042655],[-118.7130717,34.042711],[-118.7130472,34.0427219],[-118.7130545,34.0427333],[-118.7130199,34.0427487],[-118.7130261,34.0427584],[-118.7129809,34.0427785],[-118.7130099,34.0428237],[-118.7129861,34.0428343],[-118.7129954,34.0428488],[-118.712963,34.0428632],[-118.7129684,34.0428716],[-118.7129242,34.0428913],[-118.7129361,34.0429098],[-118.7129091,34.0429218],[-118.7129191,34.0429374],[-118.7128847,34.0429527],[-118.7128904,34.0429615],[-118.7128431,34.0429827],[-118.7127995,34.0429148],[-118.7127636,34.0429307],[-118.7127549,34.0429316],[-118.7127452,34.0429288],[-118.7127404,34.0429229],[-118.7127405,34.0429148],[-118.7127443,34.0429085],[-118.7127713,34.0428968],[-118.7127372,34.0428424],[-118.7127625,34.0428314],[-118.7127533,34.0428168],[-118.7127878,34.0428018],[-118.7127824,34.0427932],[-118.7128258,34.0427743],[-118.7128157,34.0427582],[-118.7128417,34.0427469],[-118.7128321,34.0427315],[-118.7128657,34.0427169],[-118.7128594,34.0427069],[-118.7129086,34.0426855],[-118.712914,34.0426941],[-118.7129445,34.0426809],[-118.712909,34.0426244],[-118.7129325,34.0426141],[-118.7129248,34.0426017],[-118.712958,34.0425872],[-118.7129519,34.0425774],[-118.7129945,34.0425588],[-118.712957,34.0424991],[-118.7129821,34.0424881],[-118.7129741,34.0424754],[-118.7130095,34.0424599],[-118.7130034,34.0424501],[-118.7130462,34.0424315],[-118.7130446,34.042429],[-118.7130839,34.0424119],[-118.7130335,34.0423316],[-118.7130413,34.0423282],[-118.7130233,34.0422995],[-118.7130387,34.0422928],[-118.7130246,34.0422703],[-118.7130553,34.0422569],[-118.7130317,34.0422193],[-118.7130406,34.0422155],[-118.7130218,34.0421857],[-118.7130399,34.0421778],[-118.7130254,34.0421547],[-118.7130796,34.0421311],[-118.7130756,34.0421248],[-118.7130488,34.0421365],[-118.7130042,34.0420655],[-118.7130522,34.0420446],[-118.7130568,34.042052],[-118.7130914,34.0420369],[-118.7131004,34.0420512],[-118.7131487,34.0420302],[-118.7131389,34.0420147],[-118.7131747,34.0419992],[-118.7131677,34.041988],[-118.7132156,34.0419672],[-118.7132601,34.0420397]]]}},{"type":"Feature","id":459101830,"properties":{"osmId":459101830,"category":"academic","building":"college","building:units":"84","ele":"216.3","height":"11.6","lacounty:ain":"4457024006","lacounty:bld_id":"345291839394","start_date":"2003"},"geometry":{"type":"Polygon","coordinates":[[[-118.7141915,34.0446618],[-118.714171,34.0446561],[-118.7141793,34.0446354],[-118.7141999,34.0446412],[-118.714216,34.0446013],[-118.7142228,34.0446032],[-118.714244,34.0445507],[-118.7143601,34.0445831],[-118.7143381,34.0446374],[-118.7143303,34.0446352],[-118.7143126,34.0446792],[-118.7143306,34.0446843],[-118.7143117,34.0447311],[-118.7142904,34.0447251],[-118.7142863,34.0447353],[-118.7142907,34.0447365],[-118.7142684,34.0447916],[-118.7142356,34.0447825],[-118.7142301,34.0447962],[-118.7141681,34.0447789],[-118.7141745,34.0447628],[-118.7141532,34.0447569],[-118.7141915,34.0446618]]]}},{"type":"Feature","id":459101839,"properties":{"osmId":459101839,"category":"academic","building":"college","ele":"158.1","height":"5.6","lacounty:ain":"4458037031","lacounty:bld_id":"346293839251","start_date":"1973"},"geometry":{"type":"Polygon","coordinates":[[[-118.7108687,34.0442753],[-118.7109149,34.0441997],[-118.7109362,34.0442087],[-118.7109447,34.0441948],[-118.7109702,34.0442056],[-118.7109602,34.0442221],[-118.7110468,34.0442588],[-118.7110057,34.0443333],[-118.7108687,34.0442753]]]}},{"type":"Feature","id":459101841,"properties":{"osmId":459101841,"category":"academic","building":"college","building:units":"67","ele":"200.0","height":"5.6","lacounty:ain":"4458037023","lacounty:bld_id":"347116839525","start_date":"1983"},"geometry":{"type":"Polygon","coordinates":[[[-118.7083231,34.0449798],[-118.7083116,34.0449847],[-118.7083609,34.0450646],[-118.7082757,34.045101],[-118.7082647,34.0450832],[-118.7082296,34.0450982],[-118.7082043,34.0450572],[-118.7081848,34.0450656],[-118.7082086,34.0451042],[-118.7081948,34.0451101],[-118.708104,34.0449629],[-118.7081901,34.0449261],[-118.708198,34.044939],[-118.7082771,34.0449052],[-118.7083231,34.0449798]]]}},{"type":"Feature","id":459101844,"properties":{"osmId":459101844,"category":"academic","building":"college","ele":"167.3","height":"4.3","lacounty:ain":"4458037031","lacounty:bld_id":"346461839570","start_date":"1973"},"geometry":{"type":"Polygon","coordinates":[[[-118.7105459,34.045217],[-118.710423,34.0452757],[-118.710367,34.0451946],[-118.710171,34.0452882],[-118.7100986,34.0451833],[-118.7101329,34.0451669],[-118.7100938,34.0451101],[-118.7101394,34.0450883],[-118.7101599,34.0451179],[-118.7103988,34.0450037],[-118.7105459,34.045217]]]}},{"type":"Feature","id":459101846,"properties":{"osmId":459101846,"category":"academic","building":"college","ele":"168.0","height":"5.0","lacounty:ain":"4458037031","lacounty:bld_id":"346529839514","start_date":"1973"},"geometry":{"type":"Polygon","coordinates":[[[-118.7102335,34.0450345],[-118.7102244,34.0450423],[-118.7102119,34.0450491],[-118.7101994,34.045053],[-118.710189,34.045055],[-118.7101737,34.0450552],[-118.7101589,34.0450517],[-118.7101471,34.0450478],[-118.7101373,34.0450432],[-118.7101295,34.0450344],[-118.7101237,34.0450274],[-118.7101157,34.0450095],[-118.710115,34.0449918],[-118.7101171,34.044984],[-118.7101212,34.0449762],[-118.7101273,34.0449693],[-118.7101429,34.0449568],[-118.7101648,34.0449484],[-118.7101777,34.0449465],[-118.7101915,34.0449471],[-118.7102053,34.0449497],[-118.7102137,34.0449523],[-118.7102279,34.0449624],[-118.7102356,34.044972],[-118.7102433,34.0449844],[-118.710247,34.0449972],[-118.7102463,34.0450096],[-118.7102431,34.0450198],[-118.710238,34.0450272],[-118.7102335,34.0450345]]]}},{"type":"Feature","id":459101849,"properties":{"osmId":459101849,"category":"academic","building":"college","building:units":"84","ele":"213.0","height":"11.4","lacounty:ain":"4457024006","lacounty:bld_id":"345120839311","start_date":"2003"},"geometry":{"type":"Polygon","coordinates":[[[-118.714955,34.0444235],[-118.7149536,34.0444203],[-118.7149166,34.0444317],[-118.7149066,34.0444093],[-118.7149012,34.0444109],[-118.7149104,34.0444315],[-118.7149046,34.0444332],[-118.7149129,34.0444519],[-118.7148546,34.0444698],[-118.7148469,34.0444524],[-118.7148327,34.0444568],[-118.7148342,34.0444603],[-118.7147722,34.0444794],[-118.7147301,34.0443846],[-118.7147924,34.0443655],[-118.7147905,34.0443613],[-118.7148394,34.0443462],[-118.7148327,34.0443312],[-118.714858,34.0443234],[-118.7148649,34.0443388],[-118.7149133,34.0443239],[-118.714915,34.0443275],[-118.7149786,34.0443079],[-118.7149868,34.0443264],[-118.7150047,34.0443208],[-118.7150235,34.0443631],[-118.7150055,34.0443686],[-118.7150209,34.0444032],[-118.714955,34.0444235]]]}},{"type":"Feature","id":459101852,"properties":{"osmId":459101852,"category":"academic","building":"college","building:units":"84","ele":"216.1","height":"11.5","lacounty:ain":"4457024006","lacounty:bld_id":"345153839419","start_date":"2003"},"geometry":{"type":"Polygon","coordinates":[[[-118.7147801,34.0447327],[-118.7147735,34.0447298],[-118.7147492,34.0447685],[-118.7147716,34.0447783],[-118.7147431,34.0448238],[-118.7147216,34.0448145],[-118.7147146,34.0448256],[-118.7147186,34.0448274],[-118.7146877,34.0448766],[-118.7146527,34.0448614],[-118.7146225,34.0449094],[-118.7146187,34.0449077],[-118.7145939,34.0449473],[-118.7146133,34.0449558],[-118.7145845,34.0450017],[-118.7145635,34.0449925],[-118.7145571,34.0450027],[-118.7145618,34.0450047],[-118.7145304,34.0450549],[-118.7144199,34.0450069],[-118.7144742,34.0449202],[-118.7144534,34.0449111],[-118.7144672,34.0448892],[-118.7144845,34.0448968],[-118.7145088,34.044858],[-118.7145148,34.0448606],[-118.714544,34.0448141],[-118.7145793,34.0448294],[-118.7146345,34.0447414],[-118.7146136,34.0447323],[-118.7146267,34.0447113],[-118.7146436,34.0447186],[-118.7146669,34.0446815],[-118.7146718,34.0446836],[-118.7147016,34.0446362],[-118.7147226,34.0446453],[-118.7147326,34.0446294],[-118.7147947,34.0446564],[-118.7147851,34.0446717],[-118.7148112,34.0446831],[-118.7147801,34.0447327]]]}},{"type":"Feature","id":459101862,"properties":{"osmId":459101862,"category":"academic","building":"college","building:units":"67","ele":"205.4","height":"11.6","lacounty:ain":"4458037023","lacounty:bld_id":"347046839624","start_date":"1983"},"geometry":{"type":"Polygon","coordinates":[[[-118.7082494,34.0452006],[-118.7083742,34.0451479],[-118.7084093,34.0452055],[-118.7084191,34.0452116],[-118.7084275,34.0452188],[-118.7084344,34.045233],[-118.708436,34.045248],[-118.7084547,34.0452802],[-118.7084824,34.045285],[-118.7085726,34.0452477],[-118.7085774,34.0452363],[-118.7085969,34.045242],[-118.7085918,34.0452542],[-118.7086483,34.0453477],[-118.7084398,34.045435],[-118.7083859,34.0453457],[-118.7083477,34.0453617],[-118.7082494,34.0452006]]]}},{"type":"Feature","id":459101863,"properties":{"osmId":459101863,"category":"academic","building":"college","building:units":"67","ele":"202.4","height":"9.5","lacounty:ain":"4458037023","lacounty:bld_id":"347087839410","start_date":"1983"},"geometry":{"type":"Polygon","coordinates":[[[-118.7081078,34.0448814],[-118.708094,34.0448872],[-118.7080763,34.044858],[-118.708065,34.0448628],[-118.7080182,34.0447856],[-118.7080285,34.0447813],[-118.7080107,34.0447518],[-118.708024,34.0447462],[-118.7080131,34.0447281],[-118.7079906,34.0447376],[-118.7079344,34.0446448],[-118.7080257,34.0446064],[-118.7080501,34.0446467],[-118.7080933,34.0446285],[-118.7081009,34.0446311],[-118.7081079,34.0446361],[-118.708109,34.0446429],[-118.7081029,34.0446522],[-118.7080773,34.0446631],[-118.7080895,34.0446829],[-118.708135,34.0446636],[-118.7081401,34.0446719],[-118.7081747,34.0446572],[-118.7081838,34.0446722],[-118.7082098,34.0446611],[-118.7082057,34.0446545],[-118.7082509,34.0446353],[-118.7082564,34.0446441],[-118.7082931,34.0446285],[-118.7083009,34.0446412],[-118.7083705,34.0446116],[-118.7083769,34.0446221],[-118.7084108,34.0446077],[-118.7084179,34.0446194],[-118.7084431,34.0446087],[-118.708462,34.0446395],[-118.7085086,34.0446197],[-118.7085144,34.0446293],[-118.7085486,34.0446148],[-118.7085571,34.0446286],[-118.7085832,34.0446174],[-118.708608,34.0446578],[-118.7086932,34.0446215],[-118.7087155,34.0446578],[-118.7087043,34.0446626],[-118.7087221,34.0446914],[-118.7087039,34.0446992],[-118.7087306,34.0447426],[-118.7087472,34.0447356],[-118.7087637,34.0447625],[-118.7087757,34.0447574],[-118.708801,34.0447986],[-118.708716,34.0448348],[-118.7087054,34.0448176],[-118.7086681,34.0448334],[-118.7086545,34.0448372],[-118.7086462,34.0448366],[-118.7086386,34.0448321],[-118.7086358,34.0448242],[-118.7086406,34.0448174],[-118.7086696,34.0448048],[-118.7086485,34.0447712],[-118.7086047,34.0447902],[-118.7085991,34.0447812],[-118.7085651,34.0447959],[-118.7085569,34.0447829],[-118.7085291,34.0447949],[-118.70851,34.0447644],[-118.7084672,34.044783],[-118.7084615,34.044774],[-118.7084264,34.0447893],[-118.7084158,34.0447724],[-118.7083907,34.0447832],[-118.7084041,34.0448047],[-118.708404,34.0448121],[-118.7084021,34.0448174],[-118.7083974,34.0448203],[-118.7083891,34.0448212],[-118.7083815,34.0448187],[-118.7083751,34.0448142],[-118.7083346,34.0447457],[-118.7082771,34.0447692],[-118.708298,34.0448046],[-118.7082515,34.0448236],[-118.7082467,34.0448155],[-118.7082118,34.0448298],[-118.7082036,34.0448159],[-118.7081761,34.0448272],[-118.7081685,34.0448144],[-118.7081583,34.0448186],[-118.7081902,34.0448727],[-118.70812,34.0449015],[-118.7081078,34.0448814]]]}},{"type":"Feature","id":459101868,"properties":{"osmId":459101868,"category":"academic","building":"college","building:units":"1","ele":"157.7","height":"12.1","lacounty:ain":"4458037019","lacounty:bld_id":"346583838643","start_date":"1978"},"geometry":{"type":"Polygon","coordinates":[[[-118.7104857,34.04298],[-118.7105007,34.042972],[-118.7104842,34.0429506],[-118.7104692,34.0429586],[-118.7104322,34.0429104],[-118.7104533,34.0428992],[-118.7104446,34.0428879],[-118.7104471,34.0428865],[-118.7104385,34.0428753],[-118.7104263,34.0428817],[-118.7104054,34.0428306],[-118.7104151,34.0428294],[-118.7104105,34.0428034],[-118.7103862,34.0428064],[-118.7103763,34.0427511],[-118.7103955,34.0427487],[-118.7103909,34.0427226],[-118.7103725,34.0427248],[-118.7103673,34.0426958],[-118.7103884,34.0426932],[-118.7103859,34.0426791],[-118.7104333,34.0426733],[-118.7104314,34.0426627],[-118.7103972,34.0426482],[-118.7104002,34.0426647],[-118.7103359,34.0426729],[-118.7103334,34.0426596],[-118.7102683,34.0426679],[-118.7102667,34.0426595],[-118.7102206,34.0426613],[-118.7102197,34.0426446],[-118.7101905,34.0426457],[-118.7101919,34.0426712],[-118.7101731,34.042672],[-118.7101741,34.0426899],[-118.7101392,34.0426913],[-118.7101384,34.0426764],[-118.7101069,34.0426776],[-118.7101078,34.0426931],[-118.7100403,34.0426957],[-118.7100393,34.0426762],[-118.7100208,34.0426769],[-118.7100203,34.042667],[-118.7100051,34.0426676],[-118.7100068,34.0426836],[-118.7099417,34.0426765],[-118.7099497,34.0426617],[-118.7099369,34.0426578],[-118.7099329,34.0426671],[-118.7099156,34.0426619],[-118.7099074,34.0426809],[-118.709844,34.042662],[-118.7098505,34.0426469],[-118.7098212,34.0426382],[-118.7098144,34.0426539],[-118.7097508,34.0426349],[-118.7097592,34.0426153],[-118.709742,34.0426101],[-118.7097587,34.0425713],[-118.7097457,34.0425674],[-118.70973,34.0426039],[-118.7097052,34.0426016],[-118.7097031,34.0425631],[-118.7096894,34.0425636],[-118.7096916,34.0426034],[-118.709673,34.0426042],[-118.7096742,34.0426257],[-118.7096085,34.0426283],[-118.7096076,34.0426126],[-118.7095737,34.0426139],[-118.7095746,34.0426292],[-118.709508,34.0426318],[-118.7095069,34.0426119],[-118.7094751,34.0426131],[-118.7094756,34.0426218],[-118.7094124,34.0426133],[-118.709416,34.0426043],[-118.7094027,34.0426006],[-118.709402,34.0426024],[-118.7093847,34.0425976],[-118.7093775,34.0426156],[-118.7093109,34.042597],[-118.7093171,34.0425818],[-118.7092889,34.0425739],[-118.7092832,34.042588],[-118.7092181,34.0425699],[-118.7092256,34.0425513],[-118.709211,34.0425473],[-118.7092263,34.0425092],[-118.7092128,34.0425054],[-118.7091985,34.0425409],[-118.7091729,34.042539],[-118.7091706,34.0425006],[-118.7091657,34.0425007],[-118.7091654,34.0424945],[-118.7091619,34.0424946],[-118.7091607,34.0424757],[-118.7091647,34.0424756],[-118.7091642,34.0424687],[-118.7091708,34.0424684],[-118.709168,34.042422],[-118.7091816,34.0424235],[-118.7091824,34.0424179],[-118.7092317,34.0424234],[-118.7092307,34.0424297],[-118.7092435,34.0424311],[-118.7092246,34.0424769],[-118.7092388,34.0424809],[-118.7092514,34.0424504],[-118.7092688,34.0424554],[-118.7092771,34.0424355],[-118.7093394,34.0424533],[-118.7093327,34.0424695],[-118.7093638,34.0424784],[-118.7093703,34.0424627],[-118.7094327,34.0424805],[-118.709424,34.0425016],[-118.7094407,34.0425064],[-118.7094252,34.0425439],[-118.7094397,34.0425456],[-118.7094415,34.0425346],[-118.7094749,34.0425385],[-118.7094729,34.0425499],[-118.7094864,34.0425515],[-118.709484,34.0425108],[-118.7095004,34.0425102],[-118.7094993,34.0424879],[-118.7095666,34.0424854],[-118.7095676,34.0425037],[-118.7095986,34.0425025],[-118.7095976,34.0424841],[-118.7096664,34.0424815],[-118.7096675,34.0425029],[-118.7096836,34.0425023],[-118.7096853,34.0425344],[-118.7097023,34.0425338],[-118.7096996,34.0424841],[-118.7097119,34.0424855],[-118.7097127,34.0424805],[-118.7097238,34.0424818],[-118.7097247,34.0424767],[-118.709756,34.0424804],[-118.7097553,34.0424845],[-118.7097637,34.0424854],[-118.7097628,34.042491],[-118.7097749,34.0424924],[-118.7097544,34.0425388],[-118.7097703,34.0425437],[-118.7097839,34.042513],[-118.7098006,34.0425181],[-118.7098089,34.0424993],[-118.7098712,34.0425184],[-118.709865,34.0425325],[-118.7098952,34.0425418],[-118.7099017,34.0425271],[-118.7099636,34.0425461],[-118.7099558,34.0425638],[-118.7099728,34.042569],[-118.7099567,34.0426053],[-118.7099714,34.0426071],[-118.7099762,34.0425805],[-118.7100082,34.0425845],[-118.7100033,34.0426115],[-118.7100182,34.0426134],[-118.7100149,34.0425741],[-118.7100338,34.042573],[-118.7100322,34.0425532],[-118.7100986,34.0425493],[-118.7101001,34.0425669],[-118.7101304,34.0425651],[-118.7101289,34.0425478],[-118.7101975,34.0425438],[-118.7101994,34.0425659],[-118.7102157,34.042565],[-118.710219,34.042604],[-118.7102346,34.0426031],[-118.710231,34.0425601],[-118.7102596,34.0425584],[-118.7102627,34.0425949],[-118.7102839,34.0425958],[-118.7103271,34.0425937],[-118.7103358,34.042553],[-118.7103452,34.042556],[-118.7103471,34.0425518],[-118.7103786,34.0425619],[-118.7103766,34.0425663],[-118.7103911,34.0425709],[-118.7103938,34.042565],[-118.7104261,34.0425754],[-118.710424,34.04258],[-118.7104333,34.042583],[-118.7104117,34.0426165],[-118.7104314,34.0426254],[-118.7104522,34.0425932],[-118.7104783,34.0426049],[-118.710461,34.0426316],[-118.7104792,34.0426397],[-118.7105035,34.0426364],[-118.7105061,34.0426498],[-118.7105304,34.0426464],[-118.7105415,34.0427019],[-118.7105228,34.0427045],[-118.710528,34.0427303],[-118.7105458,34.0427278],[-118.710557,34.0427835],[-118.7105337,34.0427868],[-118.7105366,34.0428008],[-118.710489,34.0428074],[-118.7104932,34.042817],[-118.7105062,34.042813],[-118.7105184,34.0428402],[-118.7105054,34.0428442],[-118.7105102,34.042855],[-118.71055,34.0428336],[-118.7105595,34.0428458],[-118.7105803,34.0428346],[-118.7106175,34.0428826],[-118.7105998,34.0428921],[-118.7106165,34.0429135],[-118.7106323,34.042905],[-118.7106693,34.0429528],[-118.7106465,34.042965],[-118.7106553,34.0429763],[-118.7106236,34.0429934],[-118.7106322,34.0430045],[-118.7106808,34.0429783],[-118.7106852,34.0429884],[-118.7106919,34.0429863],[-118.7106955,34.0429948],[-118.7107015,34.042993],[-118.7107118,34.0430167],[-118.7107081,34.0430179],[-118.7107119,34.0430267],[-118.7107047,34.0430289],[-118.710709,34.0430387],[-118.7106524,34.0430469],[-118.7106538,34.0430533],[-118.7106483,34.0430541],[-118.710649,34.0430576],[-118.7106227,34.0430614],[-118.710622,34.0430578],[-118.7106144,34.0430589],[-118.7106133,34.0430536],[-118.7105705,34.0430599],[-118.7105604,34.0430402],[-118.710599,34.0430196],[-118.7105914,34.0430096],[-118.710552,34.0430306],[-118.7105424,34.0430181],[-118.710523,34.0430285],[-118.7104857,34.04298]]]}},{"type":"Feature","id":459101870,"properties":{"osmId":459101870,"category":"academic","building":"college","ele":"161.3","height":"6.5","lacounty:ain":"4458037031","lacounty:bld_id":"346380839473","start_date":"1973"},"geometry":{"type":"Polygon","coordinates":[[[-118.7104589,34.0448004],[-118.7104465,34.0448115],[-118.7104257,34.0447956],[-118.7104386,34.0447839],[-118.7104049,34.0447581],[-118.710733,34.0444621],[-118.7107875,34.044504],[-118.7108106,34.0444831],[-118.7108682,34.0445274],[-118.7108448,34.0445485],[-118.7109067,34.0445961],[-118.7106915,34.0447902],[-118.7109174,34.0449637],[-118.7108928,34.044986],[-118.7109035,34.0449942],[-118.7108895,34.0450069],[-118.7108782,34.0449982],[-118.7108038,34.0450653],[-118.7104589,34.0448004]]]}},{"type":"Feature","id":459101871,"properties":{"osmId":459101871,"category":"academic","building":"college","ele":"142.2","height":"6.8","lacounty:ain":"4458037029","lacounty:bld_id":"346226838730","start_date":"1979"},"geometry":{"type":"Polygon","coordinates":[[[-118.7111808,34.0428794],[-118.7111777,34.0428749],[-118.711164,34.0428816],[-118.7111666,34.0428854],[-118.7111233,34.0429065],[-118.7111166,34.042897],[-118.711093,34.0429085],[-118.7110879,34.0429012],[-118.7110516,34.042919],[-118.711054,34.0429225],[-118.7110124,34.0429428],[-118.7109889,34.0429094],[-118.7109767,34.0429153],[-118.7109516,34.0428797],[-118.7109906,34.0428607],[-118.7109926,34.0428636],[-118.711028,34.0428464],[-118.7110201,34.0428352],[-118.7110614,34.042815],[-118.7110674,34.0428235],[-118.7111312,34.0427924],[-118.7111346,34.0427971],[-118.7111493,34.0427899],[-118.7111461,34.0427854],[-118.7111692,34.0427741],[-118.7111337,34.0427235],[-118.7110738,34.0427527],[-118.7110663,34.0427421],[-118.7110305,34.0427595],[-118.7110337,34.0427641],[-118.710993,34.0427839],[-118.7109695,34.0427505],[-118.7109535,34.0427583],[-118.7109284,34.0427226],[-118.7109679,34.0427033],[-118.71097,34.0427064],[-118.7110036,34.04269],[-118.7109957,34.0426788],[-118.7110384,34.042658],[-118.7110456,34.0426682],[-118.7111332,34.0426256],[-118.7111094,34.0425917],[-118.7111463,34.0425737],[-118.7111339,34.0425562],[-118.7111743,34.0425365],[-118.7111716,34.0425326],[-118.7112133,34.0425123],[-118.7112377,34.042547],[-118.7112637,34.0425343],[-118.7112884,34.0425694],[-118.7112476,34.0425893],[-118.7112454,34.0425862],[-118.7112158,34.0426006],[-118.7112414,34.0426369],[-118.7112751,34.0426205],[-118.711272,34.042616],[-118.7113126,34.0425963],[-118.7113362,34.0426297],[-118.7113606,34.0426178],[-118.7113853,34.042653],[-118.7113474,34.0426714],[-118.7113528,34.042679],[-118.71131,34.0426999],[-118.7113024,34.042689],[-118.7112652,34.0427071],[-118.7112555,34.0426934],[-118.7112159,34.0427127],[-118.7112186,34.0427166],[-118.7111697,34.0427404],[-118.7111939,34.0427748],[-118.7112183,34.0427629],[-118.7112245,34.0427716],[-118.7112627,34.0427531],[-118.7112597,34.0427489],[-118.7113,34.0427293],[-118.711323,34.042762],[-118.7113349,34.0427562],[-118.7113601,34.042792],[-118.7113189,34.042812],[-118.7113165,34.0428086],[-118.711284,34.0428244],[-118.7112929,34.0428371],[-118.7112512,34.0428574],[-118.7112447,34.0428482],[-118.7111808,34.0428794]]]}},{"type":"Feature","id":459101873,"properties":{"osmId":459101873,"category":"academic","building":"college","building:units":"77","ele":"144.7","height":"6.5","lacounty:ain":"4458037027","lacounty:bld_id":"345799838696","start_date":"1983"},"geometry":{"type":"Polygon","coordinates":[[[-118.7125302,34.0427463],[-118.7125431,34.0427402],[-118.7125143,34.0426976],[-118.7125013,34.0427037],[-118.712462,34.0426454],[-118.7125301,34.0426136],[-118.7125362,34.0426225],[-118.7125882,34.0425982],[-118.7126153,34.0426384],[-118.712594,34.0426483],[-118.7126316,34.0427041],[-118.7126515,34.0426948],[-118.712705,34.042774],[-118.7126922,34.04278],[-118.7127054,34.0427995],[-118.7126121,34.0428431],[-118.7125987,34.0428233],[-118.7125861,34.0428292],[-118.7125302,34.0427463]]]}},{"type":"Feature","id":459101875,"properties":{"osmId":459101875,"category":"academic","building":"college","building:units":"84","ele":"211.5","height":"10.8","lacounty:ain":"4457024006","lacounty:bld_id":"345274839330","start_date":"2003"},"geometry":{"type":"Polygon","coordinates":[[[-118.7144193,34.0444],[-118.7144132,34.0443982],[-118.714395,34.0444395],[-118.7144149,34.0444455],[-118.7143934,34.0444943],[-118.7143734,34.0444882],[-118.7143682,34.0445],[-118.7143743,34.0445018],[-118.7143514,34.0445538],[-118.7142359,34.0445186],[-118.7142586,34.0444671],[-118.714253,34.0444654],[-118.7142713,34.0444237],[-118.7142539,34.0444184],[-118.7142631,34.0443974],[-118.7142813,34.044403],[-118.7142992,34.0443621],[-118.7143034,34.0443634],[-118.7143267,34.0443105],[-118.7143539,34.0443188],[-118.7143606,34.0443035],[-118.7144228,34.0443224],[-118.7144158,34.0443384],[-118.7144428,34.0443466],[-118.7144193,34.0444]]]}},{"type":"Feature","id":459101876,"properties":{"osmId":459101876,"category":"academic","building":"college","building:units":"84","ele":"216.1","height":"11.7","lacounty:ain":"4457024006","lacounty:bld_id":"345194839367","start_date":"2003"},"geometry":{"type":"Polygon","coordinates":[[[-118.714559,34.0445152],[-118.7145422,34.0445018],[-118.7145623,34.0444842],[-118.7145787,34.0444973],[-118.7146592,34.0444271],[-118.7146754,34.0444401],[-118.7146911,34.0444264],[-118.7147401,34.0444654],[-118.7147246,34.0444789],[-118.714749,34.0444982],[-118.7146944,34.0445458],[-118.7147062,34.0445552],[-118.7146621,34.0445937],[-118.7146491,34.0445833],[-118.7145658,34.044656],[-118.7144778,34.0445861],[-118.714559,34.0445152]]]}},{"type":"Feature","id":459101877,"properties":{"osmId":459101877,"category":"academic","building":"college","building:units":"84","ele":"210.8","height":"11.5","lacounty:ain":"4457024006","lacounty:bld_id":"345172839250","start_date":"2003"},"geometry":{"type":"Polygon","coordinates":[[[-118.7149003,34.0442238],[-118.7148994,34.0442206],[-118.7148596,34.0442284],[-118.7148532,34.044206],[-118.7148496,34.0442067],[-118.7148555,34.0442276],[-118.7148463,34.0442294],[-118.7148526,34.0442517],[-118.7148266,34.0442568],[-118.714826,34.0442546],[-118.7147912,34.0442615],[-118.7147858,34.0442425],[-118.7147749,34.0442447],[-118.7147759,34.0442479],[-118.7147097,34.0442609],[-118.7147151,34.04428],[-118.7146487,34.0442931],[-118.7146478,34.0442898],[-118.7146093,34.0442974],[-118.7146027,34.0442744],[-118.7145964,34.0442757],[-118.7146028,34.0442962],[-118.7145951,34.0442978],[-118.714601,34.0443169],[-118.7145423,34.0443294],[-118.7145361,34.0443095],[-118.7145247,34.044312],[-118.7145258,34.0443154],[-118.7144575,34.04433],[-118.714451,34.044309],[-118.7144324,34.044313],[-118.7144153,34.0442577],[-118.7144362,34.0442533],[-118.7144296,34.044232],[-118.7144941,34.0442181],[-118.7144932,34.0442153],[-118.7145438,34.0442044],[-118.7145397,34.0441912],[-118.7145665,34.0441855],[-118.714571,34.0442],[-118.714623,34.0441888],[-118.7146249,34.0441949],[-118.7146871,34.0441815],[-118.7146817,34.0441642],[-118.7147439,34.0441508],[-118.7147425,34.0441465],[-118.7147957,34.0441351],[-118.714791,34.0441199],[-118.7148165,34.0441145],[-118.7148218,34.0441318],[-118.7148728,34.0441208],[-118.7148743,34.0441256],[-118.7149358,34.0441124],[-118.7149662,34.0442109],[-118.7149003,34.0442238]]]}},{"type":"Feature","id":459101878,"properties":{"osmId":459101878,"category":"academic","building":"college","building:units":"84","ele":"211.8","height":"11.8","lacounty:ain":"4457024006","lacounty:bld_id":"344970839293","start_date":"2003"},"geometry":{"type":"Polygon","coordinates":[[[-118.7151585,34.0443583],[-118.715157,34.0443553],[-118.7152104,34.044336],[-118.7152026,34.0443209],[-118.7152256,34.0443126],[-118.7152337,34.0443281],[-118.7152822,34.0443105],[-118.7152845,34.0443149],[-118.7153441,34.0442934],[-118.7153353,34.0442766],[-118.715393,34.0442557],[-118.715391,34.0442519],[-118.7154434,34.0442329],[-118.7154362,34.044219],[-118.7154601,34.0442104],[-118.715468,34.0442254],[-118.7155163,34.044208],[-118.715518,34.0442113],[-118.7155768,34.0441901],[-118.7155888,34.0442132],[-118.7156076,34.0442064],[-118.7156413,34.044271],[-118.7156235,34.0442774],[-118.7156274,34.0442849],[-118.7155634,34.0443081],[-118.7155613,34.044304],[-118.7155248,34.0443172],[-118.715524,34.0443157],[-118.7155125,34.0443198],[-118.7155208,34.0443356],[-118.7154635,34.0443563],[-118.7154553,34.0443403],[-118.7154432,34.0443447],[-118.7154455,34.0443491],[-118.7153833,34.0443715],[-118.7153915,34.0443873],[-118.7153322,34.0444088],[-118.7153306,34.0444056],[-118.7152924,34.0444194],[-118.7152828,34.0444011],[-118.7152774,34.044403],[-118.715286,34.0444194],[-118.7152781,34.0444222],[-118.7152863,34.0444379],[-118.7152297,34.0444584],[-118.7152211,34.044442],[-118.7152089,34.0444464],[-118.7152117,34.0444516],[-118.7151506,34.0444737],[-118.7151011,34.044379],[-118.7151585,34.0443583]]]}},{"type":"Feature","id":459101880,"properties":{"osmId":459101880,"category":"academic","building":"college","building:units":"84","ele":"207.9","height":"11.1","lacounty:ain":"4457024006","lacounty:bld_id":"345015839205","start_date":"2003"},"geometry":{"type":"Polygon","coordinates":[[[-118.7155247,34.0439247],[-118.7155237,34.0439211],[-118.7155764,34.0439099],[-118.7155716,34.0438943],[-118.7155981,34.0438887],[-118.7156033,34.0439058],[-118.7156545,34.043895],[-118.715656,34.0438999],[-118.7157179,34.0438868],[-118.7157229,34.0439031],[-118.7157425,34.0438989],[-118.7157639,34.0439689],[-118.7157431,34.0439733],[-118.7157469,34.0439856],[-118.7156822,34.0439994],[-118.7156808,34.0439949],[-118.7156282,34.0440061],[-118.7156331,34.044022],[-118.7155747,34.0440343],[-118.7155695,34.0440173],[-118.7155541,34.0440206],[-118.7155552,34.0440241],[-118.7154906,34.0440378],[-118.7155,34.0440687],[-118.7154333,34.0440828],[-118.7154318,34.044078],[-118.7153952,34.0440858],[-118.7153876,34.044061],[-118.7153824,34.0440621],[-118.7153895,34.0440851],[-118.7153809,34.044087],[-118.7153861,34.0441039],[-118.7153239,34.0441171],[-118.7153184,34.0440991],[-118.7153085,34.0441012],[-118.7153098,34.0441056],[-118.7152429,34.0441198],[-118.7152521,34.0441497],[-118.7151872,34.0441634],[-118.7151861,34.0441595],[-118.715132,34.044171],[-118.7151365,34.0441858],[-118.7150782,34.0441982],[-118.7150729,34.0441809],[-118.7150603,34.0441836],[-118.7150615,34.0441876],[-118.714998,34.0442011],[-118.7149674,34.0441011],[-118.7150299,34.0440878],[-118.7150288,34.0440842],[-118.7150827,34.0440728],[-118.7150786,34.0440596],[-118.7151046,34.0440541],[-118.7151091,34.0440687],[-118.7151588,34.0440582],[-118.7151606,34.0440638],[-118.7152064,34.0440541],[-118.7151982,34.0440273],[-118.7152125,34.0440243],[-118.7152111,34.0440199],[-118.7152749,34.0440063],[-118.7152737,34.0440025],[-118.7153278,34.0439911],[-118.7153233,34.0439764],[-118.7153498,34.0439708],[-118.7153547,34.043987],[-118.7154057,34.0439762],[-118.7154074,34.0439818],[-118.7154707,34.0439683],[-118.7154614,34.0439381],[-118.7155247,34.0439247]]]}},{"type":"Feature","id":459101902,"properties":{"osmId":459101902,"category":"athletic","building":"stadium","ele":"101.7","height":"11.1","lacounty:ain":"4458038010","lacounty:bld_id":"201413213230000","leisure":"stadium","name":"Firestone Fieldhouse","start_date":"1971","wikidata":"Q5451976"},"geometry":{"type":"Polygon","coordinates":[[[-118.7092898,34.0385007],[-118.7093121,34.0384852],[-118.7093024,34.0384756],[-118.7095436,34.0383068],[-118.7095524,34.0383154],[-118.7095718,34.0383016],[-118.7096073,34.0383363],[-118.7096113,34.0383334],[-118.7096043,34.0383266],[-118.7096461,34.038297],[-118.7096159,34.0382676],[-118.7097126,34.0381988],[-118.7097449,34.0382304],[-118.7097851,34.0382018],[-118.7097905,34.038207],[-118.7098016,34.0381991],[-118.7098217,34.0382186],[-118.7098134,34.0382245],[-118.7098229,34.0382338],[-118.7098459,34.0382174],[-118.7098929,34.0382632],[-118.7098689,34.0382803],[-118.7099079,34.0383184],[-118.7099581,34.0382827],[-118.7100917,34.038413],[-118.7101365,34.0383811],[-118.710199,34.038442],[-118.7101977,34.0384634],[-118.7100926,34.0385358],[-118.7100927,34.0385535],[-118.7100731,34.0385678],[-118.7100624,34.0385577],[-118.7099775,34.03862],[-118.7099557,34.0386151],[-118.7099199,34.0386402],[-118.7099587,34.0386785],[-118.7099359,34.0386944],[-118.7099451,34.0387035],[-118.7097043,34.0388721],[-118.7096937,34.0388616],[-118.7096704,34.038878],[-118.7092898,34.0385007]]]}},{"type":"Feature","id":459101904,"properties":{"osmId":459101904,"category":"academic","building":"college","ele":"145.2","height":"6.4","lacounty:ain":"4458038010","lacounty:bld_id":"346589838501","start_date":"1971"},"geometry":{"type":"Polygon","coordinates":[[[-118.7097315,34.0421369],[-118.7097193,34.0421455],[-118.7096875,34.0421141],[-118.7097003,34.0421052],[-118.7096758,34.0420809],[-118.7096715,34.0420839],[-118.7096412,34.0420539],[-118.7096781,34.0420281],[-118.7096917,34.0420415],[-118.7097285,34.0420158],[-118.7097579,34.0420448],[-118.709748,34.0420517],[-118.7097761,34.0420795],[-118.7097891,34.0420704],[-118.7098334,34.0421142],[-118.7098554,34.0420988],[-118.7099072,34.04215],[-118.7099136,34.0421455],[-118.7099418,34.0421733],[-118.7099655,34.0421566],[-118.7099969,34.0421877],[-118.7099838,34.0421969],[-118.7100049,34.0422176],[-118.7100109,34.0422134],[-118.7100439,34.042246],[-118.7100057,34.0422728],[-118.7099892,34.0422565],[-118.7099528,34.042282],[-118.7099219,34.0422513],[-118.7099321,34.0422442],[-118.7099039,34.0422163],[-118.70986,34.0422471],[-118.7098673,34.0422543],[-118.7098299,34.0422806],[-118.7098204,34.0422712],[-118.7097917,34.0422913],[-118.7097949,34.0422945],[-118.7097568,34.0423212],[-118.7097247,34.0422895],[-118.7097468,34.0422741],[-118.7097177,34.0422454],[-118.7097548,34.0422194],[-118.7097618,34.0422264],[-118.7097942,34.0422037],[-118.7097775,34.0421872],[-118.7097878,34.04218],[-118.709768,34.0421605],[-118.7097606,34.0421656],[-118.7097315,34.0421369]]]}},{"type":"Feature","id":459101909,"properties":{"osmId":459101909,"category":"academic","building":"college","ele":"124.3","height":"9.7","lacounty:ain":"4458038010","lacounty:bld_id":"347399837030","start_date":"1971"},"geometry":{"type":"Polygon","coordinates":[[[-118.7077826,34.0383488],[-118.7078275,34.0383861],[-118.7077637,34.0384393],[-118.7077348,34.0384154],[-118.7077246,34.0384239],[-118.7077109,34.0384124],[-118.7076453,34.038467],[-118.7075721,34.0384061],[-118.707509,34.0384584],[-118.7073678,34.0384644],[-118.7072271,34.0383531],[-118.7072192,34.0383596],[-118.7070733,34.0382382],[-118.7071287,34.0381921],[-118.7070863,34.0381568],[-118.7069931,34.0380792],[-118.706954,34.0381117],[-118.7068402,34.038017],[-118.7068313,34.0380096],[-118.7068108,34.0380266],[-118.7066916,34.0379275],[-118.706736,34.0378905],[-118.7066935,34.0378551],[-118.7070398,34.0375666],[-118.7070834,34.0376029],[-118.7071665,34.037672],[-118.707197,34.0376466],[-118.7075616,34.03795],[-118.7075066,34.0379958],[-118.7075768,34.0380542],[-118.7074805,34.0381344],[-118.7075053,34.038155],[-118.7074861,34.0381711],[-118.7075277,34.0382058],[-118.7076279,34.0381224],[-118.7078413,34.0382999],[-118.7077826,34.0383488]]]}},{"type":"Feature","id":459101916,"properties":{"osmId":459101916,"category":"academic","building":"college","ele":"100.4","height":"5.5","lacounty:ain":"4458038010","lacounty:bld_id":"346892837444","start_date":"1971"},"geometry":{"type":"Polygon","coordinates":[[[-118.708936,34.0391864],[-118.7090105,34.0392008],[-118.7089653,34.0393628],[-118.7089678,34.0393633],[-118.7089489,34.0394312],[-118.7088873,34.0394193],[-118.7089068,34.0393492],[-118.7088914,34.0393462],[-118.708936,34.0391864]]]}},{"type":"Feature","id":459101921,"properties":{"osmId":459101921,"category":"athletic","building":"grandstand","ele":"108.8","height":"4.2","lacounty:ain":"4458038008","lacounty:bld_id":"346336838048"},"geometry":{"type":"Polygon","coordinates":[[[-118.7109464,34.0410048],[-118.7108205,34.040977],[-118.7108177,34.0409855],[-118.7107593,34.0409726],[-118.7107625,34.0409627],[-118.7106464,34.040937],[-118.7104518,34.040664],[-118.7105251,34.0406281],[-118.7105175,34.0406173],[-118.7105403,34.0406062],[-118.7105553,34.0406273],[-118.7105604,34.0406248],[-118.710539,34.0405948],[-118.7105665,34.0405814],[-118.7105885,34.0406122],[-118.7105754,34.0406186],[-118.7106566,34.0407324],[-118.7106645,34.0407285],[-118.7107374,34.0408307],[-118.7109264,34.0408724],[-118.7110479,34.0408152],[-118.7110559,34.040827],[-118.7111965,34.0407608],[-118.7112117,34.0407829],[-118.7112186,34.0407797],[-118.711269,34.0408534],[-118.7109464,34.0410048]]]}},{"type":"Feature","id":459101923,"properties":{"osmId":459101923,"category":"academic","building":"college","ele":"131.5","height":"6.7","lacounty:ain":"4458038010","lacounty:bld_id":"346605838091","start_date":"1971"},"geometry":{"type":"Polygon","coordinates":[[[-118.7096708,34.0410163],[-118.7096618,34.0410228],[-118.7096287,34.040991],[-118.7096413,34.0409819],[-118.7096169,34.0409585],[-118.7096136,34.0409608],[-118.7095821,34.0409306],[-118.7096178,34.0409048],[-118.7096316,34.0409181],[-118.7096659,34.0408934],[-118.7096978,34.040924],[-118.7096884,34.0409308],[-118.7097172,34.0409584],[-118.7097289,34.0409501],[-118.7097717,34.0409912],[-118.7097938,34.0409752],[-118.7098115,34.0409922],[-118.7098469,34.0410262],[-118.7098507,34.0410234],[-118.7098805,34.0410521],[-118.709905,34.0410345],[-118.7099361,34.0410644],[-118.7099244,34.0410728],[-118.7099511,34.0410984],[-118.7099538,34.0410965],[-118.7099834,34.0411249],[-118.7099471,34.0411511],[-118.7099287,34.0411334],[-118.7098943,34.0411582],[-118.7098648,34.0411299],[-118.7098741,34.0411233],[-118.7098433,34.0410937],[-118.7097983,34.0411262],[-118.7098053,34.041133],[-118.7097703,34.0411582],[-118.7097601,34.0411484],[-118.7097306,34.0411696],[-118.7097333,34.0411722],[-118.7096985,34.0411974],[-118.7096662,34.0411664],[-118.7096878,34.0411509],[-118.7096586,34.0411228],[-118.7096946,34.0410969],[-118.7097023,34.0411043],[-118.709735,34.0410807],[-118.7097184,34.0410648],[-118.7097285,34.0410576],[-118.7097238,34.041053],[-118.7097081,34.0410379],[-118.7096997,34.041044],[-118.7096708,34.0410163]]]}},{"type":"Feature","id":459101924,"properties":{"osmId":459101924,"category":"academic","building":"college","ele":"130.1","height":"11.6","lacounty:ain":"4458038010","lacounty:bld_id":"347634837224","start_date":"1971"},"geometry":{"type":"Polygon","coordinates":[[[-118.7060774,34.0387986],[-118.7058596,34.0389828],[-118.7057608,34.0389018],[-118.7059413,34.0387491],[-118.7059369,34.0387456],[-118.7059545,34.0387307],[-118.705964,34.0387384],[-118.705975,34.0387291],[-118.7060216,34.0387673],[-118.7060673,34.0387287],[-118.7060564,34.0387198],[-118.7060783,34.0387013],[-118.7060882,34.0387094],[-118.7061023,34.0386975],[-118.7060227,34.0386323],[-118.7063036,34.0383948],[-118.7063845,34.0384611],[-118.7064539,34.0384024],[-118.7065965,34.0385192],[-118.7066618,34.038464],[-118.7066535,34.0384572],[-118.7067276,34.0383945],[-118.7068071,34.0384596],[-118.7068771,34.0384004],[-118.7070952,34.0385791],[-118.707048,34.038619],[-118.7071311,34.0386871],[-118.707113,34.0387024],[-118.707075,34.0387346],[-118.7070593,34.0387218],[-118.7069463,34.0388174],[-118.7068046,34.0387013],[-118.7067656,34.0387018],[-118.7067664,34.03875],[-118.7067417,34.0387503],[-118.7067092,34.0387507],[-118.7067083,34.038702],[-118.7066689,34.0387025],[-118.7063182,34.038996],[-118.7060774,34.0387986]]]}},{"type":"Feature","id":459101933,"properties":{"osmId":459101933,"category":"academic","building":"college","ele":"128.0","height":"6.3","lacounty:ain":"4458038010","lacounty:bld_id":"346930837878","start_date":"1971"},"geometry":{"type":"Polygon","coordinates":[[[-118.7087708,34.0404212],[-118.7087618,34.0404276],[-118.7087294,34.0403966],[-118.708742,34.0403875],[-118.7087171,34.0403636],[-118.7087139,34.0403659],[-118.7086838,34.0403369],[-118.7087212,34.0403099],[-118.7087388,34.0403268],[-118.7087738,34.0403015],[-118.7088052,34.0403316],[-118.7087949,34.040339],[-118.7088232,34.0403661],[-118.7088423,34.0403524],[-118.7088514,34.0403612],[-118.7088657,34.0403508],[-118.7088745,34.0403445],[-118.7088674,34.0403376],[-118.7089026,34.0403121],[-118.7088941,34.040304],[-118.7089304,34.0402778],[-118.7089408,34.0402879],[-118.708969,34.0402675],[-118.7089659,34.0402645],[-118.7090025,34.040238],[-118.7090354,34.0402696],[-118.7090194,34.0402812],[-118.7090504,34.0403109],[-118.709014,34.0403371],[-118.7090055,34.0403289],[-118.7089733,34.0403521],[-118.7089836,34.040362],[-118.7089332,34.0403985],[-118.7089529,34.0404173],[-118.7088567,34.0404868],[-118.7088797,34.0405088],[-118.7088421,34.0405359],[-118.7088311,34.0405254],[-118.7088028,34.040546],[-118.7088054,34.0405485],[-118.7087689,34.0405749],[-118.7087365,34.0405438],[-118.7087588,34.0405276],[-118.7087275,34.0404976],[-118.7087976,34.0404469],[-118.7087708,34.0404212]]]}},{"type":"Feature","id":459101936,"properties":{"osmId":459101936,"category":"academic","building":"college","ele":"134.3","height":"18.0","lacounty:ain":"4458038007","lacounty:bld_id":"347913837404","start_date":"1987"},"geometry":{"type":"Polygon","coordinates":[[[-118.705526,34.0387312],[-118.7058951,34.0390344],[-118.7058542,34.0390325],[-118.7059077,34.0390756],[-118.7058519,34.0391237],[-118.7060217,34.03926],[-118.7058109,34.039442],[-118.7057666,34.0394064],[-118.7057289,34.039439],[-118.7057176,34.0394428],[-118.7057056,34.0394408],[-118.7056985,34.0394309],[-118.7056984,34.0394204],[-118.7057067,34.0394135],[-118.705597,34.0393213],[-118.7055602,34.0393516],[-118.70549,34.0392926],[-118.7054634,34.0393146],[-118.7053863,34.0392498],[-118.7054473,34.0391995],[-118.705432,34.0391866],[-118.705417,34.039199],[-118.7053582,34.0391496],[-118.7053889,34.0391243],[-118.7053748,34.0391124],[-118.7054112,34.0390824],[-118.7054109,34.0390345],[-118.7054106,34.0389959],[-118.7053105,34.038913],[-118.705526,34.0387312]]]}},{"type":"Feature","id":459101937,"properties":{"osmId":459101937,"category":"academic","building":"college","ele":"146.9","height":"7.7","lacounty:ain":"4458038010","lacounty:bld_id":"346729838312","start_date":"1971"},"geometry":{"type":"Polygon","coordinates":[[[-118.7092675,34.0416295],[-118.7092578,34.0416365],[-118.7092258,34.0416056],[-118.7092382,34.0415966],[-118.7092132,34.0415724],[-118.7092096,34.0415749],[-118.7091785,34.0415448],[-118.7092154,34.0415183],[-118.7092302,34.0415326],[-118.7092655,34.0415073],[-118.7092954,34.0415362],[-118.7092833,34.0415448],[-118.7093134,34.0415739],[-118.7093276,34.0415636],[-118.7093703,34.0416049],[-118.7093936,34.0415883],[-118.7094763,34.0416682],[-118.7095031,34.0416491],[-118.7095344,34.0416793],[-118.7095221,34.0416882],[-118.7095491,34.0417143],[-118.7095536,34.0417111],[-118.7095827,34.0417391],[-118.7095458,34.0417656],[-118.7095277,34.0417481],[-118.7094925,34.0417733],[-118.7094327,34.0417154],[-118.7093993,34.0417394],[-118.7094064,34.0417463],[-118.7093687,34.0417734],[-118.7093583,34.0417633],[-118.7093297,34.0417838],[-118.7093327,34.0417867],[-118.7092959,34.041813],[-118.7092631,34.0417813],[-118.7092864,34.0417646],[-118.7092561,34.0417353],[-118.7092912,34.0417102],[-118.7092998,34.0417185],[-118.7093325,34.0416951],[-118.7093154,34.0416785],[-118.7093242,34.0416722],[-118.7093182,34.0416664],[-118.7093043,34.041653],[-118.7092971,34.0416582],[-118.7092675,34.0416295]]]}},{"type":"Feature","id":459101942,"properties":{"osmId":459101942,"category":"athletic","building":"grandstand","ele":"100.5","height":"6.2","lacounty:ain":"4458038010","lacounty:bld_id":"346514837623","start_date":"1971"},"geometry":{"type":"Polygon","coordinates":[[[-118.7099939,34.0398475],[-118.7100565,34.0396204],[-118.7102455,34.0396566],[-118.7101829,34.0398836],[-118.7099939,34.0398475]]]}},{"type":"Feature","id":459101943,"properties":{"osmId":459101943,"category":"academic","building":"college","ele":"103.7","height":"7.9","lacounty:ain":"4458038010","lacounty:bld_id":"346548837494","name":"Ralphs-Strauss Tennis Center","start_date":"1971"},"geometry":{"type":"Polygon","coordinates":[[[-118.7099361,34.0394932],[-118.7100019,34.0392531],[-118.710255,34.0393012],[-118.7102386,34.039361],[-118.7103093,34.0393745],[-118.71026,34.0395547],[-118.7099361,34.0394932]]]}},{"type":"Feature","id":459101947,"properties":{"osmId":459101947,"category":"religious","amenity":"place_of_worship","building":"church","ele":"118.7","height":"11.6","lacounty:ain":"4458038010","lacounty:bld_id":"347713836932","name":"Stauffer Chapel","religion":"christian","start_date":"1971"},"geometry":{"type":"Polygon","coordinates":[[[-118.7060965,34.0378903],[-118.7061806,34.0378192],[-118.7063604,34.0379664],[-118.7062764,34.0380375],[-118.7060965,34.0378903]]]}},{"type":"Feature","id":459101951,"properties":{"osmId":459101951,"category":"academic","building":"college","ele":"118.9","height":"2.6","lacounty:ain":"4458038010","lacounty:bld_id":"347213837171","start_date":"1971"},"geometry":{"type":"Polygon","coordinates":[[[-118.7079553,34.0385516],[-118.7078575,34.0386349],[-118.7078169,34.0386023],[-118.7077897,34.0385797],[-118.7078875,34.0384964],[-118.7079553,34.0385516]]]}},{"type":"Feature","id":459101952,"properties":{"osmId":459101952,"category":"academic","building":"college","ele":"134.6","height":"9.3","lacounty:ain":"4458038010","lacounty:bld_id":"347167837809","start_date":"1971"},"geometry":{"type":"Polygon","coordinates":[[[-118.7079521,34.0403312],[-118.7078621,34.040242],[-118.7079133,34.0402062],[-118.7079084,34.0402014],[-118.7079213,34.0401924],[-118.7079472,34.0401743],[-118.7079514,34.0401785],[-118.7079819,34.0401572],[-118.7079892,34.0401376],[-118.7079945,34.0401231],[-118.7080196,34.0401295],[-118.7080242,34.0401171],[-118.7081029,34.0401371],[-118.7081108,34.040126],[-118.7081241,34.0401225],[-118.7081331,34.0401217],[-118.7081482,34.0401277],[-118.7082054,34.0401827],[-118.7081951,34.040207],[-118.7082176,34.0402136],[-118.708202,34.0402504],[-118.7081882,34.0402464],[-118.7081712,34.0402414],[-118.7081361,34.0403242],[-118.7080789,34.0403685],[-118.7079521,34.0403312]]]}},{"type":"Feature","id":459101953,"properties":{"osmId":459101953,"category":"academic","building":"college","ele":"135.7","height":"6.3","lacounty:ain":"4458038010","lacounty:bld_id":"347161837912","start_date":"1971"},"geometry":{"type":"Polygon","coordinates":[[[-118.7079984,34.0405248],[-118.707989,34.0405312],[-118.7079581,34.0404994],[-118.7079702,34.0404912],[-118.7079462,34.0404665],[-118.7079414,34.0404698],[-118.7079119,34.0404395],[-118.7079507,34.0404134],[-118.7079668,34.0404299],[-118.7080035,34.0404052],[-118.7080334,34.040436],[-118.7080237,34.0404425],[-118.7080512,34.0404708],[-118.7080729,34.0404562],[-118.7080802,34.0404637],[-118.7080928,34.0404552],[-118.7081056,34.0404466],[-118.7080971,34.0404378],[-118.7081302,34.0404156],[-118.7081211,34.0404062],[-118.7081596,34.0403803],[-118.7081699,34.0403909],[-118.7081991,34.0403713],[-118.7081959,34.040368],[-118.7082338,34.0403425],[-118.708264,34.0403736],[-118.7082487,34.0403838],[-118.708279,34.0404149],[-118.7082412,34.0404403],[-118.7082339,34.0404329],[-118.7082013,34.0404548],[-118.7082126,34.0404665],[-118.7081601,34.0405017],[-118.7081789,34.040521],[-118.7081189,34.0405614],[-118.7081241,34.0405668],[-118.7080864,34.0405921],[-118.7081087,34.0406151],[-118.7080707,34.0406407],[-118.7080607,34.0406304],[-118.7080311,34.0406504],[-118.7080343,34.0406536],[-118.7079979,34.0406781],[-118.707967,34.0406464],[-118.7079883,34.0406321],[-118.7079581,34.0406009],[-118.7079953,34.0405759],[-118.7080023,34.0405831],[-118.7080342,34.0405617],[-118.7079984,34.0405248]]]}},{"type":"Feature","id":459101954,"properties":{"osmId":459101954,"category":"academic","building":"college","ele":"139.3","height":"6.3","lacounty:ain":"4458038010","lacounty:bld_id":"347038837981","start_date":"1971"},"geometry":{"type":"Polygon","coordinates":[[[-118.7082357,34.0408738],[-118.7082567,34.0408591],[-118.7082274,34.0408301],[-118.708263,34.0408052],[-118.7082705,34.0408126],[-118.7083041,34.0407891],[-118.7082874,34.0407726],[-118.7082971,34.0407657],[-118.7082899,34.0407586],[-118.7082776,34.0407464],[-118.7082689,34.0407525],[-118.7082391,34.040723],[-118.7082293,34.0407298],[-118.7081982,34.040699],[-118.7082102,34.0406906],[-118.7081845,34.0406651],[-118.7081802,34.0406682],[-118.7081502,34.0406385],[-118.708188,34.040612],[-118.7082026,34.0406264],[-118.7082371,34.0406022],[-118.7082654,34.0406302],[-118.7082579,34.0406356],[-118.7082865,34.0406639],[-118.7082984,34.0406556],[-118.7083415,34.0406982],[-118.708364,34.0406824],[-118.7084157,34.0407335],[-118.7084204,34.0407302],[-118.7084498,34.0407592],[-118.7084746,34.0407418],[-118.7085054,34.0407723],[-118.7084925,34.0407813],[-118.7085198,34.0408083],[-118.7085239,34.0408054],[-118.7085527,34.0408339],[-118.7085163,34.0408594],[-118.708498,34.0408412],[-118.7084626,34.040866],[-118.7084322,34.0408359],[-118.7084414,34.0408295],[-118.7084143,34.0408027],[-118.70837,34.0408338],[-118.7083766,34.0408403],[-118.7083392,34.0408665],[-118.7083294,34.0408569],[-118.7083009,34.0408769],[-118.7083034,34.0408793],[-118.7082671,34.0409048],[-118.7082357,34.0408738]]]}},{"type":"Feature","id":459101955,"properties":{"osmId":459101955,"category":"academic","building":"college","ele":"128.0","height":"6.8","lacounty:ain":"4458038010","lacounty:bld_id":"346989837774","start_date":"1971"},"geometry":{"type":"Polygon","coordinates":[[[-118.7083943,34.040153],[-118.7083843,34.04016],[-118.7083523,34.0401283],[-118.7083635,34.0401204],[-118.7083386,34.0400958],[-118.7083352,34.0400982],[-118.7083053,34.0400686],[-118.7083194,34.0400587],[-118.7083425,34.0400424],[-118.7083553,34.0400551],[-118.7083916,34.0400297],[-118.708422,34.0400598],[-118.7084114,34.0400672],[-118.7084401,34.0400956],[-118.7084537,34.0400861],[-118.7084961,34.0401282],[-118.708518,34.0401128],[-118.70855,34.0401445],[-118.7085691,34.0401633],[-118.7085752,34.040159],[-118.7086045,34.0401881],[-118.708629,34.0401709],[-118.7086594,34.0402011],[-118.7086477,34.0402092],[-118.708674,34.0402352],[-118.708678,34.0402324],[-118.7087085,34.0402625],[-118.7086705,34.0402891],[-118.7086516,34.0402705],[-118.7086163,34.0402952],[-118.708559,34.0402386],[-118.7085249,34.0402624],[-118.7085328,34.0402702],[-118.7084938,34.0402975],[-118.7084827,34.0402865],[-118.7084538,34.0403068],[-118.7084576,34.0403105],[-118.7084206,34.0403364],[-118.7083885,34.0403047],[-118.7084107,34.0402891],[-118.7083809,34.0402596],[-118.7084182,34.0402335],[-118.7084262,34.0402413],[-118.7084594,34.040218],[-118.708442,34.0402008],[-118.7084497,34.0401954],[-118.7084296,34.0401755],[-118.7084223,34.0401806],[-118.7083943,34.040153]]]}},{"type":"Feature","id":459101957,"properties":{"osmId":459101957,"category":"academic","building":"college","ele":"140.6","height":"6.2","lacounty:ain":"4458038010","lacounty:bld_id":"346954838057","start_date":"1971"},"geometry":{"type":"Polygon","coordinates":[[[-118.7088938,34.0409395],[-118.7089025,34.0409333],[-118.7088883,34.0409196],[-118.708898,34.0409125],[-118.7088703,34.0408858],[-118.7088546,34.0408971],[-118.7088725,34.0409144],[-118.7088652,34.0409196],[-118.7088111,34.0409584],[-118.7088144,34.0409616],[-118.7087778,34.0409879],[-118.7087994,34.0410089],[-118.7087632,34.0410349],[-118.7087529,34.0410249],[-118.708724,34.0410457],[-118.7087268,34.0410484],[-118.7086912,34.041074],[-118.7086588,34.0410426],[-118.7086805,34.041027],[-118.7086502,34.0409977],[-118.7087197,34.0409478],[-118.7086912,34.0409204],[-118.7086827,34.0409265],[-118.70865,34.040895],[-118.7086626,34.040886],[-118.7086383,34.0408626],[-118.7086345,34.0408653],[-118.7086031,34.0408349],[-118.7086404,34.0408082],[-118.7086588,34.0408261],[-118.7086931,34.0408016],[-118.708724,34.0408316],[-118.7087152,34.0408378],[-118.7087437,34.0408655],[-118.7087645,34.0408507],[-118.7087721,34.0408581],[-118.7087865,34.0408478],[-118.7087943,34.0408422],[-118.708788,34.040836],[-118.7088227,34.0408112],[-118.7088143,34.0408031],[-118.7088506,34.0407771],[-118.7088629,34.0407891],[-118.7088942,34.0407668],[-118.708891,34.0407637],[-118.7089254,34.0407391],[-118.7089558,34.0407687],[-118.7089394,34.0407804],[-118.7089698,34.04081],[-118.7089342,34.0408354],[-118.7089259,34.0408273],[-118.7088924,34.0408513],[-118.7089836,34.0409397],[-118.7089727,34.0409474],[-118.7089888,34.040963],[-118.7089584,34.0409847],[-118.7089401,34.040967],[-118.7089299,34.0409742],[-118.7088938,34.0409395]]]}},{"type":"Feature","id":459101960,"properties":{"osmId":459101960,"category":"academic","building":"college","ele":"140.1","height":"5.5","lacounty:ain":"4458038010","lacounty:bld_id":"346788838055","start_date":"1971"},"geometry":{"type":"Polygon","coordinates":[[[-118.7090741,34.0409258],[-118.7090629,34.0409335],[-118.7090316,34.0409021],[-118.7090435,34.040894],[-118.7090191,34.0408695],[-118.7090149,34.0408724],[-118.7089852,34.0408426],[-118.7090224,34.0408169],[-118.7090349,34.0408294],[-118.7090715,34.0408041],[-118.7091017,34.0408343],[-118.7090916,34.0408413],[-118.7091182,34.040868],[-118.7091328,34.040858],[-118.7091759,34.0409012],[-118.7091977,34.0408861],[-118.7092488,34.0409373],[-118.7092541,34.0409337],[-118.7092833,34.040963],[-118.7093086,34.0409454],[-118.7093401,34.040977],[-118.7093291,34.0409846],[-118.7093551,34.0410106],[-118.7093595,34.0410076],[-118.7093885,34.0410366],[-118.7093501,34.0410632],[-118.7093324,34.0410456],[-118.7092974,34.0410698],[-118.7092677,34.04104],[-118.7092761,34.0410341],[-118.709248,34.0410059],[-118.709204,34.0410363],[-118.7092117,34.0410441],[-118.709173,34.0410709],[-118.7091632,34.0410611],[-118.7091338,34.0410814],[-118.7091373,34.0410849],[-118.7091013,34.0411099],[-118.7090697,34.0410782],[-118.7090909,34.0410635],[-118.7090603,34.0410328],[-118.7090967,34.0410076],[-118.7091043,34.0410152],[-118.7091379,34.0409919],[-118.709121,34.040975],[-118.7091282,34.04097],[-118.7091222,34.040964],[-118.7091086,34.0409503],[-118.7091026,34.0409544],[-118.7090741,34.0409258]]]}},{"type":"Feature","id":459101964,"properties":{"osmId":459101964,"category":"academic","building":"college","ele":"143.8","height":"5.8","lacounty:ain":"4458038010","lacounty:bld_id":"346830838207","start_date":"1971"},"geometry":{"type":"Polygon","coordinates":[[[-118.7091416,34.0412329],[-118.7091322,34.0412395],[-118.7091619,34.0412687],[-118.7091815,34.0412549],[-118.7091867,34.04126],[-118.7091979,34.0412521],[-118.7092096,34.0412438],[-118.7092042,34.0412386],[-118.7092387,34.0412143],[-118.7092297,34.0412054],[-118.7092676,34.0411786],[-118.7092788,34.0411896],[-118.7093074,34.0411694],[-118.7093048,34.0411669],[-118.7093403,34.0411419],[-118.7093701,34.0411713],[-118.7093554,34.0411816],[-118.7093863,34.041212],[-118.7093504,34.0412373],[-118.7093428,34.0412299],[-118.7093107,34.0412525],[-118.7093205,34.0412622],[-118.7092678,34.0412995],[-118.7092865,34.0413179],[-118.7092271,34.0413599],[-118.7092315,34.0413643],[-118.7091944,34.0413904],[-118.7092158,34.0414115],[-118.709179,34.0414374],[-118.7091686,34.0414273],[-118.70914,34.0414475],[-118.7091438,34.0414512],[-118.7091072,34.041477],[-118.709075,34.0414454],[-118.7090965,34.0414302],[-118.7090675,34.0414017],[-118.7091038,34.0413761],[-118.7091107,34.0413829],[-118.7091458,34.0413581],[-118.7091087,34.0413216],[-118.7090984,34.0413289],[-118.7090655,34.0412966],[-118.7090778,34.041288],[-118.7090534,34.0412641],[-118.70905,34.0412665],[-118.7090203,34.0412372],[-118.7090577,34.0412108],[-118.7090756,34.0412284],[-118.7091113,34.0412032],[-118.7091416,34.0412329]]]}},{"type":"Feature","id":459101965,"properties":{"osmId":459101965,"category":"academic","building":"college","ele":"126.7","height":"5.9","lacounty:ain":"4458038010","lacounty:bld_id":"346729837879","start_date":"1971"},"geometry":{"type":"Polygon","coordinates":[[[-118.7092458,34.0404169],[-118.7092363,34.0404239],[-118.7092042,34.0403932],[-118.7092173,34.0403837],[-118.7091916,34.0403592],[-118.7091886,34.0403614],[-118.7091576,34.0403318],[-118.7091929,34.0403061],[-118.709207,34.0403196],[-118.709242,34.0402942],[-118.7092728,34.0403235],[-118.7092632,34.0403305],[-118.709292,34.0403579],[-118.7093036,34.0403495],[-118.7093479,34.0403917],[-118.7093688,34.0403765],[-118.7094135,34.040419],[-118.7094209,34.0404261],[-118.7094254,34.0404229],[-118.7094559,34.040452],[-118.7094801,34.0404343],[-118.7095119,34.0404646],[-118.7094988,34.0404741],[-118.7095258,34.0404999],[-118.7095294,34.0404973],[-118.7095591,34.0405256],[-118.7095222,34.0405525],[-118.7095034,34.0405345],[-118.7094698,34.0405589],[-118.7094097,34.0405017],[-118.7093744,34.0405274],[-118.7093818,34.0405345],[-118.7093466,34.0405601],[-118.7093355,34.0405494],[-118.7093072,34.04057],[-118.7093097,34.0405724],[-118.7092736,34.0405987],[-118.7092408,34.0405674],[-118.7092631,34.0405512],[-118.7092337,34.0405233],[-118.7092699,34.040497],[-118.7092786,34.0405052],[-118.7093111,34.0404815],[-118.7092936,34.0404649],[-118.7093035,34.0404576],[-118.7092841,34.0404392],[-118.7092757,34.0404453],[-118.7092458,34.0404169]]]}},{"type":"Feature","id":459101968,"properties":{"osmId":459101968,"category":"academic","building":"college","ele":"147.2","height":"6.1","lacounty:ain":"4458038010","lacounty:bld_id":"346748838452","start_date":"1971"},"geometry":{"type":"Polygon","coordinates":[[[-118.7093951,34.0419837],[-118.7093862,34.04199],[-118.7093547,34.041959],[-118.7093671,34.0419502],[-118.7093416,34.0419251],[-118.7093375,34.041928],[-118.7093083,34.0418993],[-118.7093456,34.041873],[-118.7093639,34.041891],[-118.7093989,34.0418663],[-118.7094279,34.0418948],[-118.7094182,34.0419016],[-118.709448,34.041931],[-118.7094686,34.0419164],[-118.709476,34.0419236],[-118.7094851,34.0419172],[-118.7094991,34.0419074],[-118.709492,34.0419005],[-118.7095281,34.041875],[-118.7095196,34.0418667],[-118.7095557,34.0418412],[-118.7095658,34.0418512],[-118.7095957,34.0418301],[-118.7095924,34.041827],[-118.7096281,34.0418018],[-118.7096595,34.0418326],[-118.7096442,34.0418434],[-118.709675,34.0418736],[-118.7096397,34.0418986],[-118.7096308,34.0418898],[-118.7095963,34.0419142],[-118.709608,34.0419257],[-118.7095579,34.041961],[-118.7095761,34.0419788],[-118.7095138,34.0420227],[-118.709517,34.0420258],[-118.7094817,34.0420507],[-118.7095041,34.0420726],[-118.7094685,34.0420977],[-118.7094585,34.0420878],[-118.7094285,34.042109],[-118.7094316,34.042112],[-118.7093951,34.0421378],[-118.7093625,34.0421058],[-118.7093841,34.0420906],[-118.7093535,34.0420606],[-118.7094233,34.0420114],[-118.7093951,34.0419837]]]}},{"type":"Feature","id":459101969,"properties":{"osmId":459101969,"category":"academic","building":"college","ele":"129.1","height":"5.9","lacounty:ain":"4458038010","lacounty:bld_id":"346710838002","start_date":"1971"},"geometry":{"type":"Polygon","coordinates":[[[-118.7097756,34.0406528],[-118.7097676,34.0406453],[-118.7097355,34.0406693],[-118.7097444,34.0406776],[-118.7096936,34.0407155],[-118.7097137,34.0407342],[-118.7096188,34.040805],[-118.7096436,34.0408281],[-118.7096128,34.040851],[-118.7095991,34.0408383],[-118.7095598,34.0408676],[-118.7095634,34.0408709],[-118.7095339,34.0408929],[-118.7095004,34.0408617],[-118.7095219,34.0408457],[-118.7094914,34.0408173],[-118.7095611,34.0407653],[-118.7095431,34.0407486],[-118.7095343,34.0407552],[-118.7094905,34.0407144],[-118.7095042,34.0407042],[-118.7094782,34.0406801],[-118.7094746,34.0406827],[-118.7094444,34.0406546],[-118.7094809,34.0406273],[-118.709501,34.040646],[-118.7095347,34.0406208],[-118.7095655,34.0406495],[-118.7095545,34.0406577],[-118.7095842,34.0406853],[-118.7096043,34.0406703],[-118.7096131,34.0406785],[-118.7096262,34.0406687],[-118.7096354,34.0406618],[-118.7096282,34.0406551],[-118.7096635,34.0406287],[-118.7096555,34.0406213],[-118.7096919,34.0405942],[-118.7097044,34.0406058],[-118.7097331,34.0405844],[-118.7097297,34.0405814],[-118.7097628,34.0405567],[-118.7097948,34.0405865],[-118.7097782,34.0405989],[-118.7098092,34.0406277],[-118.7097756,34.0406528]]]}},{"type":"Feature","id":459101972,"properties":{"osmId":459101972,"category":"academic","building":"college","ele":"92.0","height":"2.8","lacounty:ain":"4458038010","lacounty:bld_id":"346605837331","start_date":"1971"},"geometry":{"type":"Polygon","coordinates":[[[-118.7098422,34.0389952],[-118.7097925,34.0389472],[-118.7098533,34.0389035],[-118.7100051,34.03905],[-118.7099737,34.0390725],[-118.7099171,34.0390684],[-118.7098862,34.0390383],[-118.7098694,34.0390502],[-118.7098109,34.0390369],[-118.7097948,34.0390293],[-118.7098422,34.0389952]]]}},{"type":"Feature","id":459101973,"properties":{"osmId":459101973,"category":"academic","building":"college","ele":"137.3","height":"6.6","lacounty:ain":"4458038010","lacounty:bld_id":"346543838302","start_date":"1971"},"geometry":{"type":"Polygon","coordinates":[[[-118.7098256,34.0415439],[-118.7098222,34.0415464],[-118.7097926,34.041517],[-118.7098305,34.0414905],[-118.7098435,34.0415033],[-118.7098794,34.0414781],[-118.7099088,34.0415072],[-118.7098988,34.0415142],[-118.7099268,34.0415419],[-118.7099396,34.0415329],[-118.7099837,34.0415765],[-118.7100051,34.0415614],[-118.7100575,34.0416132],[-118.7100622,34.0416099],[-118.710091,34.0416383],[-118.7101176,34.0416197],[-118.7101479,34.0416497],[-118.7101344,34.0416592],[-118.7101611,34.0416856],[-118.7101665,34.0416818],[-118.7101955,34.0417104],[-118.7101577,34.0417369],[-118.7101397,34.0417191],[-118.7101048,34.0417436],[-118.7100748,34.0417139],[-118.7100837,34.0417077],[-118.7100555,34.0416798],[-118.7099772,34.0417347],[-118.7099743,34.0417318],[-118.7099411,34.041755],[-118.7099445,34.0417584],[-118.7099081,34.0417838],[-118.7098766,34.0417526],[-118.7098986,34.0417371],[-118.70987,34.0417088],[-118.7099058,34.0416837],[-118.7099122,34.0416899],[-118.7099451,34.0416669],[-118.7099278,34.0416499],[-118.7099364,34.0416438],[-118.7099283,34.0416358],[-118.7099176,34.0416252],[-118.7099002,34.0416373],[-118.7098387,34.0415764],[-118.7098503,34.0415683],[-118.7098256,34.0415439]]]}},{"type":"Feature","id":459101976,"properties":{"osmId":459101976,"category":"academic","building":"college","ele":"132.9","height":"6.2","lacounty:ain":"4458038010","lacounty:bld_id":"346575838209","start_date":"1971"},"geometry":{"type":"Polygon","coordinates":[[[-118.7102327,34.041209],[-118.7101981,34.0412348],[-118.7101899,34.0412271],[-118.7101558,34.0412525],[-118.710165,34.0412611],[-118.7101158,34.0412977],[-118.7101341,34.0413148],[-118.7100737,34.0413598],[-118.7100767,34.0413626],[-118.7100428,34.0413878],[-118.7100645,34.0414079],[-118.7100278,34.0414353],[-118.7100167,34.041425],[-118.7099889,34.0414457],[-118.7099911,34.0414478],[-118.7099554,34.0414743],[-118.7099224,34.0414435],[-118.7099448,34.0414268],[-118.7099156,34.0413995],[-118.7099841,34.0413485],[-118.7099541,34.0413205],[-118.7099469,34.0413258],[-118.7099139,34.041295],[-118.7099262,34.0412859],[-118.7099024,34.0412638],[-118.7098964,34.0412682],[-118.7098644,34.0412384],[-118.7099033,34.0412094],[-118.7099234,34.0412281],[-118.7099574,34.0412028],[-118.7099876,34.0412308],[-118.709977,34.0412387],[-118.7100084,34.0412679],[-118.7100284,34.041253],[-118.7100358,34.0412598],[-118.710049,34.0412499],[-118.7100581,34.0412432],[-118.7100516,34.0412371],[-118.7100861,34.0412114],[-118.7100793,34.0412051],[-118.7101154,34.0411782],[-118.7101248,34.0411869],[-118.710187,34.0411405],[-118.7102173,34.0411687],[-118.7102018,34.0411803],[-118.7102327,34.041209]]]}},{"type":"Feature","id":459101978,"properties":{"osmId":459101978,"category":"academic","building":"college","ele":"138.6","height":"5.7","lacounty:ain":"4458038010","lacounty:bld_id":"346522838440","start_date":"1971"},"geometry":{"type":"Polygon","coordinates":[[[-118.7101321,34.0419472],[-118.7101228,34.0419537],[-118.7100909,34.041922],[-118.7101035,34.0419132],[-118.7100791,34.041889],[-118.7100749,34.0418919],[-118.7100449,34.0418621],[-118.7100836,34.0418351],[-118.7101006,34.041852],[-118.7101357,34.0418275],[-118.710166,34.0418576],[-118.7101569,34.041864],[-118.7101855,34.0418924],[-118.7102053,34.0418786],[-118.710213,34.0418863],[-118.7102258,34.0418773],[-118.7102358,34.0418703],[-118.71022,34.0418546],[-118.7102934,34.0418034],[-118.7103039,34.0418138],[-118.7103337,34.041793],[-118.710331,34.0417903],[-118.7103656,34.0417662],[-118.7103964,34.0417968],[-118.7103808,34.0418076],[-118.7104109,34.0418376],[-118.7103748,34.0418628],[-118.710367,34.0418551],[-118.7103349,34.0418775],[-118.7103463,34.0418887],[-118.7102941,34.0419251],[-118.7103123,34.0419432],[-118.7102516,34.0419855],[-118.7102557,34.0419896],[-118.7102202,34.0420144],[-118.7102425,34.0420366],[-118.710205,34.0420627],[-118.7101947,34.0420525],[-118.7101659,34.0420726],[-118.7101693,34.042076],[-118.7101322,34.0421018],[-118.7100993,34.0420692],[-118.7101206,34.0420544],[-118.7100903,34.0420243],[-118.7101604,34.0419753],[-118.7101321,34.0419472]]]}},{"type":"Feature","id":459101980,"properties":{"osmId":459101980,"category":"academic","building":"college","ele":"136.1","height":"2.7","lacounty:ain":"4458038010","lacounty:bld_id":"346503838482","start_date":"1971"},"geometry":{"type":"Polygon","coordinates":[[[-118.7103252,34.04221],[-118.710297,34.0422285],[-118.7102311,34.042159],[-118.7102228,34.0421645],[-118.7101725,34.0421115],[-118.710209,34.0420875],[-118.7103252,34.04221]]]}},{"type":"Feature","id":459101984,"properties":{"osmId":459101984,"category":"academic","building":"college","ele":"109.2","height":"2.9","lacounty:ain":"4458038008","lacounty:bld_id":"346345838084"},"geometry":{"type":"Polygon","coordinates":[[[-118.7106993,34.0410029],[-118.7108499,34.0410374],[-118.7108362,34.0410781],[-118.7106857,34.0410436],[-118.7106993,34.0410029]]]}},{"type":"Feature","id":459101985,"properties":{"osmId":459101985,"category":"academic","building":"college","ele":"137.7","height":"5.5","lacounty:ain":"4458037020","lacounty:bld_id":"346280838621","start_date":"1972"},"geometry":{"type":"Polygon","coordinates":[[[-118.7108951,34.042383],[-118.7108919,34.0423846],[-118.7108683,34.0423519],[-118.7109088,34.0423318],[-118.7109241,34.0423531],[-118.710963,34.0423337],[-118.7109862,34.0423659],[-118.710978,34.0423701],[-118.711001,34.042402],[-118.7110235,34.0423908],[-118.711029,34.0423985],[-118.7110535,34.0423863],[-118.7110489,34.04238],[-118.7110889,34.04236],[-118.7110824,34.0423511],[-118.7111235,34.0423306],[-118.7111299,34.0423396],[-118.7112042,34.0423025],[-118.7112292,34.0423371],[-118.7112106,34.0423464],[-118.7112337,34.0423786],[-118.7111928,34.042399],[-118.7111867,34.0423905],[-118.7111487,34.0424095],[-118.7111569,34.042421],[-118.7110991,34.0424499],[-118.7111133,34.0424696],[-118.7110453,34.0425036],[-118.7110481,34.0425076],[-118.7110107,34.0425262],[-118.711028,34.0425504],[-118.7109847,34.042572],[-118.7109757,34.0425596],[-118.7109435,34.0425757],[-118.7109459,34.0425791],[-118.7109046,34.0425997],[-118.7108785,34.0425636],[-118.7109043,34.0425507],[-118.7108784,34.0425148],[-118.7109189,34.0424946],[-118.7109271,34.0425059],[-118.7109644,34.0424873],[-118.7109363,34.0424482],[-118.7109267,34.0424529],[-118.7109014,34.0424178],[-118.7109153,34.0424109],[-118.7108951,34.042383]]]}},{"type":"Feature","id":459101993,"properties":{"osmId":459101993,"category":"academic","building":"college","ele":"136.7","height":"6.2","lacounty:ain":"4458037020","lacounty:bld_id":"346095838597","start_date":"1972"},"geometry":{"type":"Polygon","coordinates":[[[-118.7113482,34.0424649],[-118.7113897,34.0424447],[-118.7113954,34.0424528],[-118.7114321,34.042435],[-118.7114191,34.0424164],[-118.7114285,34.0424118],[-118.7114137,34.0423907],[-118.7114054,34.0423947],[-118.7113822,34.0423616],[-118.7113708,34.0423671],[-118.7113456,34.0423311],[-118.7113598,34.0423243],[-118.7113406,34.0422968],[-118.7113365,34.0422988],[-118.7113128,34.0422649],[-118.7113563,34.0422438],[-118.7113667,34.0422588],[-118.7114059,34.0422398],[-118.7114295,34.0422734],[-118.7114182,34.0422789],[-118.7114408,34.0423112],[-118.7114573,34.0423032],[-118.7114914,34.0423518],[-118.711514,34.0423408],[-118.711554,34.042398],[-118.7115609,34.0423947],[-118.7115833,34.0424268],[-118.7116116,34.042413],[-118.7116364,34.0424484],[-118.7116223,34.0424552],[-118.711642,34.0424834],[-118.7116461,34.0424814],[-118.7116697,34.0425151],[-118.7116269,34.0425358],[-118.7116127,34.0425157],[-118.7115721,34.0425354],[-118.7115478,34.0425007],[-118.7115586,34.0424954],[-118.7115376,34.0424654],[-118.7114895,34.0424888],[-118.7114952,34.0424969],[-118.711451,34.0425184],[-118.7114425,34.0425063],[-118.7114107,34.0425218],[-118.7114136,34.0425259],[-118.711372,34.0425461],[-118.7113464,34.0425095],[-118.7113711,34.0424976],[-118.7113482,34.0424649]]]}},{"type":"Feature","id":459110615,"properties":{"osmId":459110615,"category":"academic","building":"school","ele":"57.8","height":"7.1","lacounty:ain":"4458027023","lacounty:bld_id":"349496837367","start_date":"1958"},"geometry":{"type":"Polygon","coordinates":[[[-118.7001852,34.0391783],[-118.7002096,34.0390722],[-118.7004471,34.03911],[-118.700442,34.0391318],[-118.7005133,34.0391431],[-118.7005326,34.03918],[-118.700482,34.0392255],[-118.7001852,34.0391783]]]}},{"type":"Feature","id":459110790,"properties":{"osmId":459110790,"category":"academic","building":"school","ele":"51.9","height":"9.1","lacounty:ain":"4458027023","lacounty:bld_id":"349675837125","start_date":"1958"},"geometry":{"type":"Polygon","coordinates":[[[-118.7004414,34.0386855],[-118.6998868,34.0385704],[-118.6998836,34.0385811],[-118.6998418,34.0385724],[-118.6998317,34.0386062],[-118.6997781,34.0385951],[-118.6997841,34.0385752],[-118.699663,34.0385501],[-118.6996456,34.038608],[-118.6995513,34.0385885],[-118.6995807,34.0384903],[-118.6996042,34.0384952],[-118.6996329,34.0383994],[-118.6998235,34.038439],[-118.6998277,34.0384251],[-118.6999084,34.0384419],[-118.6999066,34.038448],[-118.7004791,34.0385668],[-118.7004674,34.038606],[-118.7004966,34.038612],[-118.7005052,34.0385832],[-118.7005954,34.0386019],[-118.7005873,34.0386289],[-118.7006142,34.0386345],[-118.7005156,34.0389636],[-118.7003674,34.0389329],[-118.7004414,34.0386855]]]}},{"type":"Feature","id":459111956,"properties":{"osmId":459111956,"category":"religious","addr:city":"Malibu","addr:housenumber":"3625","addr:postcode":"90265","addr:state":"CA","addr:street":"Winter Canyon Road","amenity":"place_of_worship","building":"yes","denomination":"roman_catholic","ele":"50.4","height":"6.6","lacounty:ain":"4458027023","lacounty:bld_id":"349738837275","name":"Our Lady of Malibu Catholic Church","religion":"christian","start_date":"1958","website":"https://olmalibu.org/"},"geometry":{"type":"Polygon","coordinates":[[[-118.6994322,34.0390228],[-118.6994328,34.0389674],[-118.6994729,34.0389676],[-118.6994731,34.0389442],[-118.6994106,34.0389437],[-118.6994113,34.0388784],[-118.6994465,34.0388408],[-118.6994664,34.0388408],[-118.6994664,34.0388229],[-118.6994356,34.0388229],[-118.6994357,34.038758],[-118.6996575,34.0387583],[-118.6996574,34.0388234],[-118.6996237,34.0388234],[-118.6996236,34.0388409],[-118.6996424,34.0388409],[-118.6996775,34.0388807],[-118.6996974,34.0388808],[-118.6996984,34.0387622],[-118.6998312,34.038763],[-118.699829,34.0390256],[-118.6994322,34.0390228]]]}},{"type":"Feature","id":459111987,"properties":{"osmId":459111987,"category":"academic","building":"school","ele":"21.2","height":"10.3","lacounty:ain":"8530021904","lacounty:bld_id":"201413267750000"},"geometry":{"type":"Polygon","coordinates":[[[-118.7065024,34.0298235],[-118.7065408,34.0298189],[-118.7065432,34.0298079],[-118.7065568,34.0297969],[-118.7065899,34.0297941],[-118.706614,34.0298102],[-118.7066193,34.0298394],[-118.7066503,34.0298628],[-118.7066335,34.0298803],[-118.7066276,34.0298772],[-118.7066179,34.0298876],[-118.7066343,34.0298957],[-118.7066388,34.0298902],[-118.7066656,34.0298879],[-118.7066839,34.029899],[-118.7066936,34.0299647],[-118.7066312,34.0299724],[-118.7066236,34.0299205],[-118.7065935,34.0299292],[-118.7065995,34.0299824],[-118.7065315,34.0299946],[-118.7065024,34.0298235]]]}},{"type":"Feature","id":459111995,"properties":{"osmId":459111995,"category":"academic","building":"school","ele":"53.0","height":"4.2","lacounty:ain":"4458027023","lacounty:bld_id":"349354837226","start_date":"1958"},"geometry":{"type":"Polygon","coordinates":[[[-118.7007877,34.0386893],[-118.7008659,34.0387061],[-118.7008225,34.0388466],[-118.7007442,34.0388298],[-118.7007877,34.0386893]]]}},{"type":"Feature","id":459112554,"properties":{"osmId":459112554,"category":"medical","amenity":"clinic","building":"commercial","ele":"29.6","healthcare":"clinic","height":"8.9","lacounty:ain":"4458021173","lacounty:bld_id":"351801837123","operator":"UCLA Health","operator:wikidata":"Q18394900","start_date":"1990"},"geometry":{"type":"Polygon","coordinates":[[[-118.6928917,34.0385565],[-118.6925683,34.0386588],[-118.6925219,34.0385572],[-118.692509,34.0385612],[-118.6924948,34.0385299],[-118.6925288,34.0384637],[-118.6927608,34.038389],[-118.6927291,34.0383208],[-118.6927922,34.0383004],[-118.6927464,34.0382842],[-118.6926999,34.0381813],[-118.6927363,34.0381162],[-118.6931426,34.0379842],[-118.6931671,34.0379933],[-118.6932038,34.0380741],[-118.6932211,34.0380686],[-118.6932554,34.0381442],[-118.6932391,34.0381787],[-118.6929246,34.0382787],[-118.6929612,34.0383585],[-118.6928723,34.0383868],[-118.692922,34.0384951],[-118.6928917,34.0385565]]]}},{"type":"Feature","id":459112589,"properties":{"osmId":459112589,"category":"academic","building":"school","ele":"56.6","height":"2.9","lacounty:ain":"4458027023","lacounty:bld_id":"201413216330000","start_date":"1958"},"geometry":{"type":"Polygon","coordinates":[[[-118.7006131,34.0392855],[-118.7005449,34.0392597],[-118.7005788,34.0391975],[-118.7006233,34.0392143],[-118.7006272,34.039207],[-118.700586,34.0391909],[-118.7006019,34.0391629],[-118.7006664,34.0391883],[-118.7006131,34.0392855]]]}}]}