{"type":"FeatureCollection","features":[{"type":"Feature","id":29513657,"properties":{"osmId":29513657,"category":"religious","amenity":"place_of_worship","building":"yes","denomination":"anglican","name":"St. James Episcopal Church","religion":"christian"},"geometry":{"type":"Polygon","coordinates":[[[-71.1280495,42.4031856],[-71.1282026,42.403296],[-71.1282292,42.4032757],[-71.1283235,42.4033437],[-71.1282382,42.4034087],[-71.1281558,42.4033494],[-71.1281135,42.4033817],[-71.128182,42.4034312],[-71.1280863,42.4035043],[-71.1278524,42.4033359],[-71.1279294,42.4032773],[-71.1280146,42.4033387],[-71.1280624,42.4033023],[-71.1279771,42.4032409],[-71.1280495,42.4031856]]]}},{"type":"Feature","id":29514020,"properties":{"osmId":29514020,"category":"religious","addr:housenumber":"64","addr:street":"College Avenue","amenity":"place_of_worship","building":"church","check_date":"2025-12-15","denomination":"baptist","language:en":"yes","language:fr":"yes","language:ht":"yes","name":"Holy Bible Baptist Church","name:en":"Holy Bible Baptist Church","name:fr":"Eglise Baptiste de la Bible","religion":"christian"},"geometry":{"type":"Polygon","coordinates":[[[-71.1211061,42.3986021],[-71.1212781,42.3986901],[-71.1212974,42.3986692],[-71.1214835,42.3987645],[-71.12126,42.3990045],[-71.1211073,42.3989264],[-71.1211219,42.3989107],[-71.1208334,42.3987631],[-71.1209615,42.3986256],[-71.1210941,42.3986934],[-71.1211121,42.3986741],[-71.1210626,42.3986488],[-71.1211061,42.3986021]]]}},{"type":"Feature","id":29514081,"properties":{"osmId":29514081,"category":"religious","addr:housenumber":"7","addr:street":"Park Avenue","building":"church","wikidata":"Q133089579"},"geometry":{"type":"Polygon","coordinates":[[[-71.1220206,42.3978284],[-71.1222497,42.3979324],[-71.1221051,42.3981061],[-71.121876,42.3980022],[-71.1220206,42.3978284]]]}},{"type":"Feature","id":29514339,"properties":{"osmId":29514339,"category":"religious","addr:city":"Cambridge","addr:housenumber":"2254","addr:postcode":"02140","addr:state":"MA","addr:street":"Massachusetts Avenue","amenity":"place_of_worship","building":"yes","building:levels":"2","check_date":"2024-02-12","denomination":"roman_catholic","fax":"+1-617-441-8028","name":"St. John The Evangelist Church","phone":"+1-617-547-4880","religion":"christian","website":"https://www.stjohncambridge.org/","wheelchair":"yes","wikidata":"Q7588829","wikipedia":"en:St. John the Evangelist Church (Cambridge, Massachusetts)"},"geometry":{"type":"Polygon","coordinates":[[[-71.1275171,42.3939791],[-71.1275935,42.394047],[-71.1275763,42.3940576],[-71.1277769,42.3942359],[-71.1276813,42.3942947],[-71.1276329,42.3943244],[-71.1275957,42.3942913],[-71.1273257,42.3944571],[-71.1271573,42.3943074],[-71.1274252,42.394143],[-71.1273536,42.3940794],[-71.1275171,42.3939791]]]}},{"type":"Feature","id":29514357,"properties":{"osmId":29514357,"category":"religious","addr:housenumber":"2254","addr:street":"Massachusetts Avenue","building":"church","building:levels":"2","office":"rectory"},"geometry":{"type":"Polygon","coordinates":[[[-71.1271756,42.3938672],[-71.1272625,42.3939437],[-71.127177,42.3939973],[-71.127252,42.3940632],[-71.1271196,42.3941461],[-71.1269575,42.3940037],[-71.1271756,42.3938672]]]}},{"type":"Feature","id":29515689,"properties":{"osmId":29515689,"category":"academic","addr:housenumber":"1","addr:street":"Matignon Road","building":"school","start_date":"1900"},"geometry":{"type":"Polygon","coordinates":[[[-71.1313945,42.4010833],[-71.1314222,42.4011058],[-71.1314308,42.4011001],[-71.1315298,42.4011804],[-71.1315217,42.4011858],[-71.13155,42.4012088],[-71.131323,42.4013613],[-71.1313683,42.4013981],[-71.1313612,42.4014029],[-71.1317558,42.4017231],[-71.1314921,42.4019003],[-71.1314936,42.4019016],[-71.1314561,42.4019268],[-71.1315443,42.4019984],[-71.1313753,42.4021119],[-71.1311308,42.4019134],[-71.1312083,42.4018613],[-71.1311947,42.4018502],[-71.1312116,42.4018388],[-71.1312254,42.4018501],[-71.1314313,42.4017117],[-71.1311449,42.4014792],[-71.1311146,42.4014996],[-71.1309607,42.4013747],[-71.1310566,42.4013102],[-71.1310994,42.4012815],[-71.1313945,42.4010833]]]}},{"type":"Feature","id":29518587,"properties":{"osmId":29518587,"category":"academic","addr:housenumber":"161","addr:street":"College Avenue","building":"university"},"geometry":{"type":"Polygon","coordinates":[[[-71.1161897,42.4081122],[-71.11643,42.4082357],[-71.1163526,42.4083183],[-71.1167206,42.4085075],[-71.1165817,42.4086559],[-71.1162107,42.4084652],[-71.116138,42.408543],[-71.1165784,42.4087694],[-71.1162397,42.4091313],[-71.1158303,42.4089208],[-71.1157911,42.4089625],[-71.1158984,42.4090177],[-71.1156519,42.409281],[-71.1157062,42.4093085],[-71.1157516,42.4092708],[-71.1160848,42.4094498],[-71.1158228,42.4097279],[-71.1158528,42.4097443],[-71.1154305,42.4101941],[-71.1144772,42.4096973],[-71.1145145,42.4096575],[-71.1144803,42.4096399],[-71.1148535,42.4092413],[-71.1149001,42.4092653],[-71.1149209,42.4092487],[-71.1150118,42.409294],[-71.1150463,42.4092577],[-71.11492,42.4091859],[-71.1151371,42.4089756],[-71.1153652,42.4087293],[-71.1155731,42.4088378],[-71.1156153,42.408796],[-71.1154559,42.4087098],[-71.1154867,42.4086751],[-71.1154161,42.4086389],[-71.1156739,42.4083634],[-71.1157439,42.4083994],[-71.115772,42.4083692],[-71.1159233,42.408447],[-71.1160909,42.408268],[-71.1160591,42.4082516],[-71.1161897,42.4081122]]]}},{"type":"Feature","id":29518972,"properties":{"osmId":29518972,"category":"academic","addr:housenumber":"8;10","addr:state":"MA","addr:street":"Upper Campus Road","building":"university","ele":"21","gnis:feature_id":"1973019","name":"Lincoln Filene Center","source":"USGS Geonames"},"geometry":{"type":"Polygon","coordinates":[[[-71.1178355,42.4070761],[-71.1180033,42.4071401],[-71.1179776,42.4071772],[-71.1179179,42.4072697],[-71.1179463,42.4072805],[-71.1179782,42.4072926],[-71.1179511,42.4073337],[-71.1178864,42.4073078],[-71.1178455,42.4073669],[-71.117685,42.4073079],[-71.1178355,42.4070761]]]}},{"type":"Feature","id":29536540,"properties":{"osmId":29536540,"category":"religious","addr:housenumber":"144;146","addr:street":"North Street","amenity":"place_of_worship","building":"yes","denomination":"union church of christ","name":"North Prospect Union Church","religion":"christian"},"geometry":{"type":"Polygon","coordinates":[[[-71.1273608,42.4110459],[-71.1275947,42.4111378],[-71.1275722,42.4111694],[-71.1276367,42.4111947],[-71.1276097,42.4112323],[-71.1275592,42.4112124],[-71.1275409,42.4112378],[-71.1272932,42.4111405],[-71.1273608,42.4110459]]]}},{"type":"Feature","id":29537109,"properties":{"osmId":29537109,"category":"academic","addr:city":"Medford","addr:housenumber":"200","addr:postcode":"02155","addr:state":"MA","addr:street":"College Avenue","building":"university","ele":"17","gnis:feature_id":"1971995","is_in:state_code":"MA","name":"Anderson Hall","source":"USGS Geonames"},"geometry":{"type":"Polygon","coordinates":[[[-71.1169596,42.4060459],[-71.1170121,42.4060676],[-71.1168053,42.4063674],[-71.1167611,42.4063496],[-71.1167407,42.4063776],[-71.116584,42.4063167],[-71.1166038,42.4062872],[-71.1165557,42.4062684],[-71.1167151,42.4060453],[-71.1167234,42.4060337],[-71.1167705,42.4059736],[-71.1168081,42.4059871],[-71.1169596,42.4060459]]]}},{"type":"Feature","id":29577429,"properties":{"osmId":29577429,"category":"academic","addr:housenumber":"2465","addr:street":"Massachusetts Avenue","building":"school","building:levels":"1","roof:shape":"hipped"},"geometry":{"type":"Polygon","coordinates":[[[-71.1315282,42.3986775],[-71.1317984,42.3989012],[-71.1316872,42.398988],[-71.1314698,42.3988146],[-71.1314045,42.398762],[-71.1315172,42.3986845],[-71.1315282,42.3986775]]]}},{"type":"Feature","id":29580796,"properties":{"osmId":29580796,"category":"religious","addr:housenumber":"41;42;43;44;45","addr:street":"Alewife Brook Parkway","amenity":"place_of_worship","building":"church","building:levels":"1","denomination":"orthodox","name":"St. Sava Serbian Orthodox Church","religion":"christian","start_date":"1875"},"geometry":{"type":"Polygon","coordinates":[[[-71.1334904,42.4030084],[-71.1335267,42.4030104],[-71.1335292,42.4029855],[-71.1335536,42.4029869],[-71.1335807,42.4029884],[-71.133578,42.4030145],[-71.1336148,42.4030166],[-71.1336084,42.4030785],[-71.1338893,42.4030942],[-71.1338947,42.4030422],[-71.1339676,42.4030463],[-71.1339617,42.4031039],[-71.1339568,42.4031509],[-71.1339934,42.403153],[-71.1339912,42.4031743],[-71.1339892,42.4031941],[-71.1339473,42.4031917],[-71.133942,42.4032428],[-71.1338998,42.4032404],[-71.1335902,42.4032231],[-71.1335844,42.4032799],[-71.1335493,42.4032779],[-71.1335467,42.4033032],[-71.1334942,42.4033003],[-71.1334969,42.4032741],[-71.1334606,42.4032721],[-71.133462,42.4032583],[-71.1333664,42.4032529],[-71.1333902,42.4030213],[-71.1334885,42.4030268],[-71.1334904,42.4030084]]]}},{"type":"Feature","id":29631144,"properties":{"osmId":29631144,"category":"academic","addr:city":"Cambridge","addr:housenumber":"40","addr:postcode":"02140","addr:state":"MA","addr:street":"Norris Street","building":"school","old_name":"North Cambridge Catholic High School","wikidata":"Q5186443"},"geometry":{"type":"Polygon","coordinates":[[[-71.1298756,42.394955],[-71.1300507,42.3951122],[-71.1299331,42.3951836],[-71.1299029,42.3951564],[-71.1296842,42.3952892],[-71.1297154,42.3953171],[-71.1295912,42.3953926],[-71.1295016,42.3953122],[-71.1294122,42.3952319],[-71.129513,42.3951707],[-71.1295009,42.3951598],[-71.1297574,42.395004],[-71.1297725,42.3950176],[-71.1298756,42.394955]]]}},{"type":"Feature","id":29632149,"properties":{"osmId":29632149,"category":"religious","addr:housenumber":"45","addr:street":"Alewife Brook Parkway","building":"yes"},"geometry":{"type":"Polygon","coordinates":[[[-71.1340084,42.4033719],[-71.1340115,42.4034073],[-71.1339953,42.4034081],[-71.1340067,42.4035347],[-71.1338588,42.403542],[-71.1338548,42.4034973],[-71.1338888,42.4034956],[-71.1338859,42.4034639],[-71.1338833,42.4034345],[-71.1338782,42.4033784],[-71.1340084,42.4033719]]]}},{"type":"Feature","id":29632921,"properties":{"osmId":29632921,"category":"religious","addr:housenumber":"45","addr:street":"College Avenue","amenity":"place_of_worship","building":"yes","check_date":"2025-12-15","denomination":"seventh_day_adventist","name":"Sion, Eglise Adventiste du 7e Jour","name:fr":"Sion, Eglise Adventiste du 7e Jour","religion":"christian"},"geometry":{"type":"Polygon","coordinates":[[[-71.1209706,42.3979234],[-71.1211695,42.3979937],[-71.1211905,42.3979611],[-71.1212541,42.3979836],[-71.1212105,42.3980514],[-71.1211725,42.398038],[-71.1211273,42.3981083],[-71.1209027,42.3980289],[-71.1209706,42.3979234]]]}},{"type":"Feature","id":29633679,"properties":{"osmId":29633679,"category":"religious","addr:housenumber":"64","addr:street":"Warner Street","building":"church"},"geometry":{"type":"Polygon","coordinates":[[[-71.1143471,42.4026279],[-71.1143632,42.4026498],[-71.1144064,42.4026323],[-71.1145683,42.402852],[-71.1146185,42.4028317],[-71.1146809,42.4029164],[-71.1146377,42.4029339],[-71.1146706,42.4029784],[-71.114649,42.4029871],[-71.1147036,42.4030612],[-71.1146376,42.4030878],[-71.1146234,42.4030685],[-71.1145154,42.4031123],[-71.1144984,42.4031192],[-71.1144695,42.4030799],[-71.1144381,42.4030926],[-71.1143391,42.4029581],[-71.1143616,42.402949],[-71.1142098,42.402743],[-71.1142321,42.4027339],[-71.1141984,42.4026882],[-71.1143471,42.4026279]]]}},{"type":"Feature","id":29635615,"properties":{"osmId":29635615,"category":"religious","addr:city":"Cambridge","addr:country":"US","addr:housenumber":"15","addr:postcode":"02140","addr:state":"MA","addr:street":"Notre Dame Avenue","amenity":"place_of_worship","building":"church","check_date":"2026-04-17","denomination":"protestant","name":"Reservoir Church","phone":"+1 617 252 0005","religion":"christian","service_times":"su 09:30-11:00, 11:30-13:00","website":"https://www.reservoirchurch.org/","wikidata":"Q133250793"},"geometry":{"type":"Polygon","coordinates":[[[-71.1311089,42.3925175],[-71.1311356,42.3925175],[-71.1311355,42.3925334],[-71.1311677,42.3925335],[-71.1311676,42.3925554],[-71.1312078,42.3925555],[-71.1312075,42.3925912],[-71.1314298,42.3925918],[-71.1314294,42.3926574],[-71.1314669,42.3926575],[-71.1314662,42.3927825],[-71.1315144,42.3927826],[-71.1315141,42.3928322],[-71.1314739,42.3928321],[-71.1314724,42.393098],[-71.1312313,42.3930973],[-71.1312314,42.3930853],[-71.1311725,42.3930851],[-71.1311729,42.3930197],[-71.1312425,42.3930199],[-71.1312428,42.3929524],[-71.1311626,42.3929522],[-71.1311629,42.3928985],[-71.1312138,42.3928987],[-71.1312141,42.3928372],[-71.1311739,42.3928371],[-71.1311742,42.3927914],[-71.1312144,42.3927916],[-71.1312147,42.3927439],[-71.1310567,42.3927434],[-71.1310578,42.392557],[-71.1310925,42.3925571],[-71.1310926,42.3925352],[-71.1311088,42.3925353],[-71.1311089,42.3925175]]]}},{"type":"Feature","id":29636274,"properties":{"osmId":29636274,"category":"religious","addr:housenumber":"89","addr:street":"College Avenue","amenity":"place_of_worship","building":"yes","check_date":"2025-12-17","denomination":"congregational","name":"First Congregational Church of Somerville","religion":"christian","website":"https://firstchurchsomerville.org"},"geometry":{"type":"Polygon","coordinates":[[[-71.1190675,42.398879],[-71.1192055,42.3989278],[-71.1191909,42.3989506],[-71.1193026,42.3989901],[-71.1193262,42.3989534],[-71.1193895,42.3989758],[-71.119356,42.3990278],[-71.1193267,42.3990174],[-71.1192355,42.3991592],[-71.1189517,42.3990589],[-71.1190675,42.398879]]]}},{"type":"Feature","id":29636388,"properties":{"osmId":29636388,"category":"academic","addr:city":"Cambridge","addr:housenumber":"45","addr:postcode":"02140","addr:state":"MA","addr:street":"Matignon Road","building":"school","building:levels":"4","start_date":"1875","wikidata":"Q4734021"},"geometry":{"type":"Polygon","coordinates":[[[-71.1332396,42.4024822],[-71.1331272,42.4025589],[-71.1331216,42.4025629],[-71.1329525,42.4024234],[-71.1327998,42.4025251],[-71.1328112,42.4025347],[-71.1327894,42.4025492],[-71.1327768,42.4025398],[-71.1327498,42.4025572],[-71.132745,42.4025535],[-71.132723,42.4025682],[-71.1327057,42.4025798],[-71.132683,42.4025611],[-71.1326645,42.4025728],[-71.1326382,42.4025519],[-71.1325951,42.402581],[-71.1324932,42.4024977],[-71.1324419,42.4024955],[-71.132323,42.4025744],[-71.1322235,42.4024921],[-71.132341,42.4024133],[-71.1323423,42.4023692],[-71.1321056,42.4021749],[-71.1322027,42.4021102],[-71.1322288,42.4021317],[-71.1322466,42.40212],[-71.1324587,42.4022954],[-71.1325068,42.402296],[-71.1325898,42.4022404],[-71.1326961,42.4023272],[-71.1326345,42.402369],[-71.1326129,42.4023834],[-71.1326121,42.402385],[-71.1326116,42.4024208],[-71.1327034,42.4024975],[-71.132733,42.402477],[-71.1327093,42.4024567],[-71.1330002,42.4022633],[-71.1330816,42.4023304],[-71.1330863,42.4023274],[-71.1332583,42.4024693],[-71.1332396,42.4024822]]]}},{"type":"Feature","id":29640065,"properties":{"osmId":29640065,"category":"academic","addr:housenumber":"503","addr:state":"MA","addr:street":"Boston Avenue","building":"university","ele":"13","gnis:feature_id":"1972165","name":"Bromfield-Pearson Hall","source":"USGS Geonames"},"geometry":{"type":"Polygon","coordinates":[[[-71.1162474,42.4055782],[-71.1164213,42.4053195],[-71.1166015,42.4053856],[-71.1164277,42.4056442],[-71.1162474,42.4055782]]]}},{"type":"Feature","id":29641772,"properties":{"osmId":29641772,"category":"residential","addr:housenumber":"387","addr:state":"MA","addr:street":"Boston Avenue","building":"dormitory","ele":"30","gnis:feature_id":"1972849","name":"Hill Hall","source":"USGS Geonames"},"geometry":{"type":"Polygon","coordinates":[[[-71.1193835,42.409172],[-71.1194418,42.4092066],[-71.1194284,42.409219],[-71.120021,42.4095719],[-71.119928,42.4096576],[-71.1197548,42.4095545],[-71.1196587,42.409643],[-71.1195103,42.4095546],[-71.1196031,42.4094691],[-71.1194092,42.4093537],[-71.1192738,42.4092732],[-71.1193835,42.409172]]]}},{"type":"Feature","id":29641979,"properties":{"osmId":29641979,"category":"academic","addr:housenumber":"56","addr:state":"MA","addr:street":"Professors Row","building":"university","building:levels":"4","ele":"27","gnis:feature_id":"1973198","name":"Metcalf Hall","source":"MassGIS Buildings (http://www.mass.gov/mgis/lidarbuildingfp2d.htm);USGS Geonames"},"geometry":{"type":"Polygon","coordinates":[[[-71.1208792,42.4061061],[-71.1207642,42.4060622],[-71.1207206,42.406125],[-71.1205775,42.4060704],[-71.1207099,42.4058799],[-71.1208514,42.4059339],[-71.1208191,42.4059806],[-71.1209356,42.406025],[-71.1209787,42.4059625],[-71.1211062,42.4060111],[-71.1209687,42.4062091],[-71.1208412,42.4061604],[-71.1208792,42.4061061]]]}},{"type":"Feature","id":29681723,"properties":{"osmId":29681723,"category":"academic","addr:city":"Medford","addr:housenumber":"437","addr:postcode":"02155","addr:state":"MA","addr:street":"Main Street","alt_name":"Curtis/Tufts School;Curtis/Tufts High School;Curtis-Tufts Alternative School;Curtis Tufts High School","building":"school","check_date":"2025-05-14","fax":"+1-781-395-4785","name":"Curtis-Tufts High School","phone":"+1-781-393-2343","website":"https://curtistufts.mps02155.org/","wikidata":"Q133539682"},"geometry":{"type":"Polygon","coordinates":[[[-71.1073235,42.4026695],[-71.1074313,42.4029344],[-71.1073441,42.4029538],[-71.1073545,42.4029794],[-71.1072985,42.4029918],[-71.1072892,42.4029688],[-71.1072111,42.4029861],[-71.1071625,42.4028666],[-71.1071023,42.4027186],[-71.1073235,42.4026695]]]}},{"type":"Feature","id":29682164,"properties":{"osmId":29682164,"category":"medical","addr:housenumber":"643","addr:street":"Broadway","building":"hospital"},"geometry":{"type":"Polygon","coordinates":[[[-71.1100381,42.3993384],[-71.1104313,42.3994548],[-71.1105067,42.3996119],[-71.1100124,42.3997423],[-71.1098224,42.3994051],[-71.1100381,42.3993384]]]}},{"type":"Feature","id":29682246,"properties":{"osmId":29682246,"category":"religious","addr:housenumber":"80","addr:street":"College Avenue","amenity":"place_of_worship","building":"church","check_date":"2025-12-17","name":"Unity Somerville","old_name":"Unity Church of God","religion":"unity","website":"https://unitysomerville.org"},"geometry":{"type":"Polygon","coordinates":[[[-71.1200836,42.3990254],[-71.1203966,42.3991856],[-71.1203172,42.3992709],[-71.1200041,42.3991107],[-71.1200836,42.3990254]]]}},{"type":"Feature","id":29682402,"properties":{"osmId":29682402,"category":"medical","addr:housenumber":"40","addr:street":"Holland Street","amenity":"clinic","building":"office","building:levels":"4","check_date:opening_hours":"2025-09-03","healthcare":"clinic","name":"Atrius Health","opening_hours":"Mo-Fr 07:00-20:00; Sa,Su 09:00-17:00"},"geometry":{"type":"Polygon","coordinates":[[[-71.1234415,42.3971681],[-71.1240741,42.3973184],[-71.1241258,42.3974934],[-71.1238333,42.3977174],[-71.1236232,42.3977018],[-71.1233535,42.3973719],[-71.1234415,42.3971681]]]}},{"type":"Feature","id":29682418,"properties":{"osmId":29682418,"category":"academic","addr:city":"Somerville","addr:housenumber":"201","addr:postcode":"02144","addr:street":"Willow Avenue","building":"school","building:levels":"3","phone":"+1 617 625 6600"},"geometry":{"type":"Polygon","coordinates":[[[-71.1139681,42.3971852],[-71.1141077,42.3972359],[-71.1140473,42.3973266],[-71.1141874,42.3973775],[-71.1142488,42.3972854],[-71.1143994,42.3973401],[-71.1142673,42.3975385],[-71.1138369,42.3973821],[-71.1139681,42.3971852]]]}},{"type":"Feature","id":29682798,"properties":{"osmId":29682798,"category":"athletic","addr:housenumber":"359","addr:street":"Rindge Avenue","building":"toilets"},"geometry":{"type":"Polygon","coordinates":[[[-71.1372637,42.3944084],[-71.1372674,42.3945219],[-71.1372677,42.3945344],[-71.1369919,42.3945392],[-71.1369883,42.3944268],[-71.1369878,42.3944132],[-71.1372637,42.3944084]]]}},{"type":"Feature","id":29684732,"properties":{"osmId":29684732,"category":"academic","addr:city":"Medford","addr:housenumber":"574","addr:postcode":"02155","addr:state":"MA","addr:street":"Boston Avenue","building":"university","building:levels":"4","name":"Collaborative Learning and Innovation Complex","roof:shape":"flat"},"geometry":{"type":"Polygon","coordinates":[[[-71.1139447,42.403132],[-71.1143738,42.4037143],[-71.1143873,42.4037327],[-71.1143646,42.4037419],[-71.1142522,42.4037874],[-71.1142799,42.4038251],[-71.1141782,42.4038663],[-71.1142185,42.403921],[-71.1141378,42.4039537],[-71.1136738,42.4033242],[-71.1137342,42.4032997],[-71.1137032,42.4032576],[-71.1137392,42.403243],[-71.1137234,42.4032216],[-71.1139447,42.403132]]]}},{"type":"Feature","id":29686078,"properties":{"osmId":29686078,"category":"academic","addr:housenumber":"4","addr:street":"Colby Street","building":"university","name":"Science and Technology Center"},"geometry":{"type":"Polygon","coordinates":[[[-71.1132763,42.4033377],[-71.1142211,42.4046197],[-71.1140117,42.4047045],[-71.1132949,42.4037317],[-71.1130617,42.4038261],[-71.1128338,42.4035168],[-71.1132763,42.4033377]]]}},{"type":"Feature","id":29708907,"properties":{"osmId":29708907,"category":"athletic","addr:housenumber":"20","addr:state":"MA","addr:street":"Lower Campus Road","building":"yes","ele":"9","gnis:feature_id":"1972064","name":"Baronian Field House","source":"USGS Geonames"},"geometry":{"type":"Polygon","coordinates":[[[-71.1196666,42.4030715],[-71.119702,42.4032025],[-71.119561,42.4034851],[-71.1194473,42.4035602],[-71.1193357,42.4034674],[-71.1194084,42.4034193],[-71.1195244,42.403187],[-71.1194998,42.4030964],[-71.1196666,42.4030715]]]}},{"type":"Feature","id":29717357,"properties":{"osmId":29717357,"category":"athletic","building":"yes"},"geometry":{"type":"Polygon","coordinates":[[[-71.114089,42.4076875],[-71.114189,42.4078034],[-71.1141617,42.4078162],[-71.1140902,42.4077334],[-71.1140841,42.4077364],[-71.1140556,42.4077033],[-71.114089,42.4076875]]]}},{"type":"Feature","id":29718343,"properties":{"osmId":29718343,"category":"residential","alt_name":"Hillside Apartments","building":"dormitory","name":"Hallowell Hall"},"geometry":{"type":"Polygon","coordinates":[[[-71.119132,42.4084742],[-71.1191658,42.4085212],[-71.1191342,42.4085338],[-71.1191781,42.4085949],[-71.1191008,42.4086255],[-71.1190755,42.4086355],[-71.1191228,42.4087014],[-71.119019,42.4087424],[-71.119064,42.4088049],[-71.1189685,42.4088427],[-71.1190172,42.4089103],[-71.118916,42.4089503],[-71.1188476,42.4088554],[-71.118941,42.4088185],[-71.1188927,42.4087513],[-71.1189928,42.4087117],[-71.1189462,42.408647],[-71.1190453,42.4086078],[-71.1189896,42.4085306],[-71.119132,42.4084742]]]}},{"type":"Feature","id":29723664,"properties":{"osmId":29723664,"category":"religious","addr:housenumber":"52","addr:street":"Russell Street","building":"church","building:material":"brick","name":"West Somerville Nazarene Church"},"geometry":{"type":"Polygon","coordinates":[[[-71.1210558,42.3934359],[-71.1211626,42.3935228],[-71.1210206,42.393618],[-71.1209867,42.3936408],[-71.1209712,42.3936281],[-71.120954,42.3936397],[-71.1209163,42.393609],[-71.1208787,42.3935784],[-71.1208945,42.3935678],[-71.1208785,42.3935548],[-71.1210558,42.3934359]]]}},{"type":"Feature","id":29723672,"properties":{"osmId":29723672,"category":"academic","addr:housenumber":"278;280","addr:street":"Rindge Avenue","building":"kindergarten","name":"CAAS Head Start"},"geometry":{"type":"Polygon","coordinates":[[[-71.135357,42.3933504],[-71.135396,42.3933522],[-71.135395,42.393364],[-71.1354247,42.3933652],[-71.1354207,42.3934145],[-71.1354946,42.3934178],[-71.1354906,42.3934684],[-71.1355499,42.393471],[-71.1355442,42.393543],[-71.1354254,42.3935378],[-71.135423,42.3935677],[-71.1353525,42.3935646],[-71.1353551,42.3935317],[-71.1353134,42.3935299],[-71.1353162,42.3934943],[-71.1352798,42.3934927],[-71.1352807,42.393481],[-71.1352621,42.3934801],[-71.1352638,42.393458],[-71.1352785,42.3934586],[-71.1352797,42.3934433],[-71.1353176,42.3934449],[-71.1353243,42.3933598],[-71.1353562,42.3933611],[-71.135357,42.3933504]]]}},{"type":"Feature","id":29727565,"properties":{"osmId":29727565,"category":"academic","addr:housenumber":"14","addr:state":"MA","addr:street":"Professors Row","building":"university","ele":"21","gnis:feature_id":"1972002","name":"Anthony House","source":"USGS Geonames"},"geometry":{"type":"Polygon","coordinates":[[[-71.118318,42.4052862],[-71.1184512,42.4052886],[-71.1184464,42.405435],[-71.1183132,42.4054326],[-71.118318,42.4052862]]]}},{"type":"Feature","id":29727598,"properties":{"osmId":29727598,"category":"residential","addr:housenumber":"75","addr:state":"MA","addr:street":"Packard Avenue","building":"dormitory","ele":"19","gnis:feature_id":"1973006","name":"Lewis Hall","source":"USGS Geonames"},"geometry":{"type":"Polygon","coordinates":[[[-71.1226663,42.4044013],[-71.1229883,42.4045193],[-71.1229965,42.404507],[-71.123038,42.4045223],[-71.1229792,42.4046105],[-71.1229986,42.4046177],[-71.1229333,42.4047156],[-71.1230467,42.4047572],[-71.1230196,42.404798],[-71.1229784,42.4047829],[-71.1227226,42.4051662],[-71.1226169,42.4051274],[-71.1225658,42.4052038],[-71.1225264,42.4051894],[-71.1225539,42.4051483],[-71.1222736,42.4050456],[-71.1223087,42.404993],[-71.122278,42.4049817],[-71.1222981,42.4049516],[-71.1224912,42.4050224],[-71.1225602,42.404919],[-71.1227029,42.4049713],[-71.1228145,42.404804],[-71.1227425,42.4047776],[-71.12286,42.4046016],[-71.1228459,42.4045964],[-71.1228544,42.4045837],[-71.1226601,42.4045125],[-71.1226749,42.4044904],[-71.1225864,42.4044579],[-71.1226066,42.4044276],[-71.1226406,42.40444],[-71.1226663,42.4044013]]]}},{"type":"Feature","id":29730332,"properties":{"osmId":29730332,"category":"academic","addr:housenumber":"14","addr:state":"MA","addr:street":"Upper Campus Road","building":"university","ele":"34","gnis:feature_id":"1973231","name":"Miner Hall","source":"USGS Geonames"},"geometry":{"type":"Polygon","coordinates":[[[-71.1178024,42.4066379],[-71.1177307,42.4066129],[-71.1176985,42.4066007],[-71.117849,42.4063836],[-71.1180354,42.4064545],[-71.1179569,42.4065678],[-71.1178861,42.4066698],[-71.1178024,42.4066379]]]}},{"type":"Feature","id":29730354,"properties":{"osmId":29730354,"category":"library","addr:housenumber":"35","addr:state":"MA","addr:street":"Professors Row","amenity":"library","building":"yes","ele":"35","gnis:feature_id":"1973884","name":"Tisch Library","opening_hours:url":"https://tischlibrary.tufts.edu/about-library/visit/hours","operator:type":"university","source":"USGS Geonames","website":"https://tischlibrary.tufts.edu/","wikidata":"Q31431614"},"geometry":{"type":"Polygon","coordinates":[[[-71.1185838,42.4057488],[-71.1186627,42.4057748],[-71.1186711,42.4057628],[-71.1187651,42.4057986],[-71.1187551,42.4058129],[-71.118825,42.4058395],[-71.1187837,42.4058992],[-71.1188753,42.4059341],[-71.1188901,42.4059126],[-71.1188958,42.4059131],[-71.1189012,42.4059135],[-71.1189065,42.4059141],[-71.1189118,42.4059147],[-71.1189172,42.4059155],[-71.1189225,42.4059162],[-71.1189279,42.4059171],[-71.1189331,42.405918],[-71.1189384,42.405919],[-71.1189436,42.4059201],[-71.1189489,42.4059212],[-71.118954,42.4059223],[-71.1189592,42.4059236],[-71.1189643,42.405925],[-71.1189694,42.4059264],[-71.1189745,42.4059278],[-71.1189794,42.4059294],[-71.1189844,42.4059309],[-71.1189894,42.4059325],[-71.1189943,42.4059343],[-71.1189992,42.4059361],[-71.119004,42.4059379],[-71.1190088,42.4059398],[-71.1190135,42.4059417],[-71.1190182,42.4059438],[-71.1190228,42.4059459],[-71.1190274,42.405948],[-71.119032,42.4059502],[-71.1190365,42.4059525],[-71.1190409,42.4059548],[-71.1190452,42.4059572],[-71.1190496,42.4059596],[-71.1190538,42.4059621],[-71.1190581,42.4059646],[-71.1190622,42.4059673],[-71.1190663,42.4059699],[-71.1190703,42.4059726],[-71.1190743,42.4059753],[-71.1190781,42.4059781],[-71.119082,42.405981],[-71.1190858,42.4059839],[-71.1190894,42.4059869],[-71.119093,42.4059899],[-71.1190965,42.4059929],[-71.1191,42.405996],[-71.1191034,42.4059991],[-71.1191068,42.4060023],[-71.11911,42.4060055],[-71.1190975,42.4060235],[-71.119166,42.4060495],[-71.1192073,42.40599],[-71.119372,42.4060527],[-71.1193674,42.4060594],[-71.1194333,42.4060844],[-71.1193779,42.4061643],[-71.1196151,42.4062546],[-71.1194798,42.4064498],[-71.1193472,42.4063993],[-71.1193372,42.4064138],[-71.1193177,42.406442],[-71.1193635,42.4064595],[-71.1193452,42.406486],[-71.1193271,42.4065121],[-71.1192778,42.4064933],[-71.1192528,42.4065294],[-71.1193605,42.4065704],[-71.1193673,42.4065734],[-71.119237,42.4067546],[-71.1191861,42.4067355],[-71.1191543,42.4067234],[-71.1191183,42.4067097],[-71.1187685,42.4065765],[-71.1186202,42.40652],[-71.1186939,42.4064137],[-71.118488,42.4063353],[-71.1184575,42.4063793],[-71.1182001,42.4062813],[-71.1182182,42.4062551],[-71.1181569,42.4062316],[-71.1182232,42.406136],[-71.1182936,42.4061628],[-71.1183195,42.4061255],[-71.1183143,42.4061232],[-71.1183075,42.4061201],[-71.1183009,42.4061168],[-71.1182945,42.4061134],[-71.1182882,42.4061097],[-71.1182822,42.4061059],[-71.1182762,42.406102],[-71.1182706,42.4060979],[-71.118265,42.4060937],[-71.1182597,42.4060893],[-71.1182546,42.4060848],[-71.1182498,42.4060802],[-71.1182451,42.4060754],[-71.1182406,42.4060705],[-71.1182364,42.4060655],[-71.1182324,42.4060605],[-71.1182287,42.4060552],[-71.1182252,42.40605],[-71.118222,42.4060446],[-71.118219,42.4060392],[-71.1182163,42.4060336],[-71.1182139,42.406028],[-71.1182116,42.4060224],[-71.1182097,42.4060167],[-71.118208,42.4060109],[-71.1182067,42.4060051],[-71.1182055,42.4059993],[-71.1182047,42.4059934],[-71.1182042,42.4059876],[-71.118204,42.4059817],[-71.1182039,42.4059759],[-71.1182041,42.4059699],[-71.1182048,42.4059641],[-71.1182056,42.4059582],[-71.1182067,42.4059524],[-71.1182081,42.4059466],[-71.1182097,42.4059409],[-71.1182116,42.4059351],[-71.1182137,42.4059295],[-71.1182162,42.4059239],[-71.1182189,42.4059184],[-71.118222,42.4059129],[-71.1182229,42.4059114],[-71.1182286,42.4059022],[-71.1182324,42.4058971],[-71.1182363,42.405892],[-71.1182405,42.4058869],[-71.118245,42.4058821],[-71.1182497,42.4058773],[-71.1182545,42.4058727],[-71.1182597,42.4058682],[-71.1182649,42.4058638],[-71.1182704,42.4058596],[-71.1182761,42.4058555],[-71.118282,42.4058515],[-71.1182881,42.4058478],[-71.1182944,42.4058442],[-71.1183008,42.4058407],[-71.1183074,42.4058374],[-71.1183141,42.4058342],[-71.118321,42.4058313],[-71.1183279,42.4058285],[-71.1183351,42.4058259],[-71.1183424,42.4058236],[-71.1183497,42.4058214],[-71.1183571,42.4058194],[-71.1183647,42.4058176],[-71.1183724,42.4058159],[-71.11838,42.4058145],[-71.1183878,42.4058132],[-71.1183957,42.4058123],[-71.1184035,42.4058114],[-71.1184114,42.4058108],[-71.1184193,42.4058104],[-71.1184273,42.4058102],[-71.1184352,42.4058102],[-71.1184431,42.4058104],[-71.1184511,42.4058108],[-71.118459,42.4058114],[-71.1184668,42.4058122],[-71.1184747,42.4058133],[-71.1184824,42.4058145],[-71.1184901,42.4058159],[-71.1184977,42.4058175],[-71.1185052,42.4058193],[-71.1185127,42.4058213],[-71.1185201,42.4058235],[-71.1185273,42.4058259],[-71.1185361,42.4058139],[-71.1185838,42.4057488]]]}},{"type":"Feature","id":29730380,"properties":{"osmId":29730380,"category":"religious","addr:city":"Somerville","addr:housenumber":"11","addr:postcode":"02144","addr:state":"MA","addr:street":"North Street","amenity":"place_of_worship","building":"yes","denomination":"jehovahs_witness","religion":"christian"},"geometry":{"type":"Polygon","coordinates":[[[-71.1307841,42.4062285],[-71.130905,42.4062738],[-71.1307669,42.4064746],[-71.1306461,42.4064293],[-71.1307841,42.4062285]]]}},{"type":"Feature","id":29740257,"properties":{"osmId":29740257,"category":"medical","addr:city":"Arlington","addr:housenumber":"33","addr:state":"MA","addr:street":"Broadway","amenity":"clinic","building":"yes","healthcare":"clinic","name":"Beth Israel Lahey Clinic Primary Care"},"geometry":{"type":"Polygon","coordinates":[[[-71.1352884,42.407823],[-71.1359452,42.4081272],[-71.1356898,42.40843],[-71.135432,42.4083106],[-71.1353941,42.4083556],[-71.1353388,42.40833],[-71.1353769,42.408285],[-71.135033,42.4081258],[-71.1352884,42.407823]]]}},{"type":"Feature","id":29740462,"properties":{"osmId":29740462,"category":"academic","addr:housenumber":"1;177;179","addr:street":"Powder House Boulevard","building":"school","building:levels":"3","roof:levels":"0"},"geometry":{"type":"Polygon","coordinates":[[[-71.1262466,42.4059624],[-71.126715,42.4061423],[-71.1267349,42.4061139],[-71.1268175,42.4061456],[-71.1267985,42.4061728],[-71.1268898,42.4062079],[-71.126672,42.4065194],[-71.1264006,42.4064151],[-71.126496,42.4062786],[-71.1262496,42.406184],[-71.1262238,42.4062209],[-71.126089,42.4061692],[-71.1261462,42.4060874],[-71.1261145,42.4060752],[-71.1261393,42.4060395],[-71.1261813,42.4060556],[-71.1262466,42.4059624]]]}},{"type":"Feature","id":29740841,"properties":{"osmId":29740841,"category":"academic","addr:housenumber":"2","addr:state":"MA","addr:street":"North Hill Road","building":"university","ele":"28","gnis:feature_id":"1972992","name":"Lane Hall","source":"USGS Geonames"},"geometry":{"type":"Polygon","coordinates":[[[-71.1198296,42.4090111],[-71.1199658,42.40909],[-71.1201169,42.4091775],[-71.1199854,42.4093022],[-71.1196981,42.4091357],[-71.1198296,42.4090111]]]}},{"type":"Feature","id":29744889,"properties":{"osmId":29744889,"category":"medical","addr:housenumber":"124","addr:street":"Professors Row","amenity":"clinic","building":"yes","gnis:feature_id":"1972871","healthcare":"clinic","name":"Tufts University Health Service"},"geometry":{"type":"Polygon","coordinates":[[[-71.1237185,42.4069431],[-71.1239226,42.4070209],[-71.1238081,42.4071857],[-71.1238501,42.4072018],[-71.1237971,42.407278],[-71.1235511,42.4071841],[-71.1237185,42.4069431]]]}},{"type":"Feature","id":29786784,"properties":{"osmId":29786784,"category":"academic","addr:city":"Medford","addr:housenumber":"80","addr:postcode":"02155","addr:street":"George Street","building":"university","building:levels":"3","roof:levels":"1","roof:shape":"flat"},"geometry":{"type":"Polygon","coordinates":[[[-71.1151187,42.411624],[-71.1155466,42.4117776],[-71.1153012,42.4121532],[-71.1151495,42.4120987],[-71.1151644,42.412076],[-71.1149977,42.4120162],[-71.1149885,42.4120302],[-71.1148674,42.4119868],[-71.1149252,42.4118984],[-71.1149367,42.4119026],[-71.1151187,42.411624]]]}},{"type":"Feature","id":29787099,"properties":{"osmId":29787099,"category":"religious","addr:housenumber":"9","addr:street":"Beech Street","amenity":"place_of_worship","building":"yes","denomination":"jehovahs_witness","ele":"8","gnis:feature_id":"1971419","name":"Kingdom Hall of Jehovahs Witnesses","religion":"christian"},"geometry":{"type":"Polygon","coordinates":[[[-71.12042,42.3908257],[-71.1205946,42.3909673],[-71.1204722,42.3910502],[-71.1202976,42.3909088],[-71.12042,42.3908257]]]}},{"type":"Feature","id":29787564,"properties":{"osmId":29787564,"category":"academic","addr:city":"Medford","addr:housename":"Dowling Hall","addr:housenumber":"419","addr:postcode":"02155","addr:state":"MA","addr:street":"Boston Avenue","amenity":"parking","building":"university","name":"Dowling Hall","parking":"multi-storey","phone":"+1-617-627-2000"},"geometry":{"type":"Polygon","coordinates":[[[-71.1182564,42.4081217],[-71.1182847,42.4081543],[-71.1183099,42.4081834],[-71.1185202,42.4084127],[-71.1187888,42.4087353],[-71.1186001,42.4088252],[-71.1185808,42.4088345],[-71.1183912,42.4089248],[-71.1183091,42.4088301],[-71.1181331,42.4086272],[-71.1178588,42.408311],[-71.1180567,42.4082168],[-71.1182564,42.4081217]]]}},{"type":"Feature","id":29788344,"properties":{"osmId":29788344,"category":"residential","addr:housenumber":"80","addr:street":"Professors Row","building":"dormitory"},"geometry":{"type":"Polygon","coordinates":[[[-71.1218252,42.4063046],[-71.1219233,42.406342],[-71.1218015,42.4065174],[-71.1216501,42.4064596],[-71.1217097,42.406374],[-71.1217202,42.406378],[-71.1217691,42.4063077],[-71.1218118,42.406324],[-71.1218252,42.4063046]]]}},{"type":"Feature","id":29796935,"properties":{"osmId":29796935,"category":"religious","addr:housenumber":"3","addr:street":"The Green","amenity":"place_of_worship","building":"yes","ele":"42","gnis:feature_id":"1972744","name":"Goddard Chapel","religion":"multifaith","wikidata":"Q30612460"},"geometry":{"type":"Polygon","coordinates":[[[-71.1194389,42.4069745],[-71.1196289,42.4070506],[-71.1194776,42.4072564],[-71.119293,42.4071823],[-71.1193178,42.4071486],[-71.1192264,42.4071119],[-71.1192814,42.4070371],[-71.1193675,42.4070716],[-71.1193832,42.4070503],[-71.1193948,42.4070345],[-71.1194227,42.4069965],[-71.1194389,42.4069745]]]}},{"type":"Feature","id":29820657,"properties":{"osmId":29820657,"category":"academic","addr:city":"Cambridge","addr:housenumber":"33","addr:postcode":"02140","addr:state":"MA","addr:street":"Matignon Road","building":"school","building:levels":"4","check_date":"2024-09-23","start_date":"1900"},"geometry":{"type":"Polygon","coordinates":[[[-71.1321609,42.4017517],[-71.1324242,42.4019621],[-71.1323264,42.4020289],[-71.1321328,42.4018742],[-71.132063,42.4019218],[-71.1320382,42.401902],[-71.1320186,42.4019154],[-71.1319971,42.4018982],[-71.1320168,42.4018847],[-71.131997,42.4018689],[-71.1320673,42.4018209],[-71.1320637,42.401818],[-71.1321609,42.4017517]]]}},{"type":"Feature","id":29821172,"properties":{"osmId":29821172,"category":"religious","addr:housenumber":"67","addr:street":"Curtis Street","amenity":"place_of_worship","building":"yes","name":"Unity Church of God","religion":"christian"},"geometry":{"type":"Polygon","coordinates":[[[-71.125318,42.4053928],[-71.1256631,42.4055192],[-71.125554,42.4056828],[-71.1252089,42.4055564],[-71.125318,42.4053928]]]}},{"type":"Feature","id":29821513,"properties":{"osmId":29821513,"category":"athletic","building":"yes"},"geometry":{"type":"Polygon","coordinates":[[[-71.1137585,42.4085077],[-71.113835,42.4085135],[-71.113826,42.4085789],[-71.1137496,42.4085731],[-71.1137585,42.4085077]]]}},{"type":"Feature","id":29822970,"properties":{"osmId":29822970,"category":"academic","addr:housenumber":"44;46","addr:state":"MA","addr:street":"Professors Row","building":"university","ele":"12","gnis:feature_id":"1973142","name":"Mayer Campus Center","source":"USGS Geonames"},"geometry":{"type":"Polygon","coordinates":[[[-71.1197449,42.4053318],[-71.1200333,42.4054374],[-71.1200576,42.4054009],[-71.1202738,42.4054802],[-71.1202457,42.4055222],[-71.1202582,42.4055268],[-71.1202897,42.4055383],[-71.1203184,42.4054965],[-71.1204069,42.4053638],[-71.1206512,42.4054533],[-71.1204721,42.4057216],[-71.1203527,42.4056779],[-71.1203137,42.4057363],[-71.120048,42.4056389],[-71.1200143,42.4056895],[-71.1199223,42.4056558],[-71.1199011,42.4056875],[-71.1198616,42.4056731],[-71.1197937,42.4057749],[-71.1195917,42.4057008],[-71.1197214,42.4055065],[-71.1196466,42.4054791],[-71.1197449,42.4053318]]]}},{"type":"Feature","id":29828132,"properties":{"osmId":29828132,"category":"academic","addr:housenumber":"2","addr:state":"MA","addr:street":"The Green","building":"university","ele":"43","gnis:feature_id":"1972094","name":"Bendetson Hall","source":"USGS Geonames"},"geometry":{"type":"Polygon","coordinates":[[[-71.1197045,42.4080346],[-71.1198492,42.4080869],[-71.1198257,42.4081226],[-71.1198852,42.4081441],[-71.1198162,42.408249],[-71.1197581,42.408228],[-71.1197472,42.4082446],[-71.1195787,42.4081837],[-71.119589,42.4081682],[-71.1195433,42.4081518],[-71.1196116,42.4080478],[-71.1196796,42.4080724],[-71.1197045,42.4080346]]]}},{"type":"Feature","id":29828339,"properties":{"osmId":29828339,"category":"residential","addr:state":"MA","building":"dormitory","ele":"27","gnis:feature_id":"1972852","name":"Hillside Housing 2","source":"USGS Geonames"},"geometry":{"type":"Polygon","coordinates":[[[-71.1196573,42.4087794],[-71.1197127,42.4088564],[-71.1194294,42.4089686],[-71.1193739,42.4088915],[-71.119501,42.4088412],[-71.1196358,42.4087879],[-71.1196573,42.4087794]]]}},{"type":"Feature","id":29828350,"properties":{"osmId":29828350,"category":"academic","addr:housenumber":"6","addr:state":"MA","addr:street":"The Green","building":"university","ele":"23","gnis:feature_id":"1972487","name":"East Hall","source":"USGS Geonames","wikidata":"Q30612847"},"geometry":{"type":"Polygon","coordinates":[[[-71.1186112,42.4075185],[-71.1189679,42.4076543],[-71.118885,42.4077738],[-71.1185284,42.407638],[-71.1186112,42.4075185]]]}},{"type":"Feature","id":29829724,"properties":{"osmId":29829724,"category":"academic","addr:housenumber":"37","addr:street":"Hicks Avenue","building":"school"},"geometry":{"type":"Polygon","coordinates":[[[-71.1019983,42.4011597],[-71.1023253,42.4012405],[-71.1022071,42.4015029],[-71.1022653,42.4015174],[-71.102235,42.4015847],[-71.1022743,42.4015944],[-71.1021941,42.4017725],[-71.1021024,42.4017499],[-71.1020885,42.4017807],[-71.1014855,42.4016316],[-71.101602,42.4013725],[-71.1018725,42.4014394],[-71.1019983,42.4011597]]]}},{"type":"Feature","id":29931795,"properties":{"osmId":29931795,"category":"religious","addr:city":"Cambridge","addr:housenumber":"25","addr:postcode":"02140","addr:state":"MA","addr:street":"Orchard Street","amenity":"place_of_worship","building":"yes","denomination":"baptist","ele":"9","gnis:feature_id":"1971544","name":"Hope Fellowship Church","religion":"christian"},"geometry":{"type":"Polygon","coordinates":[[[-71.1195342,42.390823],[-71.119726,42.3909939],[-71.1195999,42.3910717],[-71.1194081,42.3909006],[-71.1195342,42.390823]]]}},{"type":"Feature","id":29933964,"properties":{"osmId":29933964,"category":"library","addr:city":"Somerville","addr:housenumber":"40","addr:postcode":"02144","addr:state":"MA","addr:street":"College Avenue","amenity":"library","building":"civic","check_date":"2025-12-15","contact:email":"library@somervillema.gov","contact:website":"http://www.somervillepubliclibrary.org/","ele":"8","email":"library@somervillema.gov","gnis:feature_id":"1974022","internet_access":"wlan","internet_access:fee":"no","name":"Somerville Library West Branch","opening_hours":"Mo 10:00-21:00; Tu 10:00-18:00; We 10:00-18:00; Th 10:00-21:00; Fr 09:00-18:00","operator":"Somerville Public Library","phone":"+1-617-623-5000","source":"USGS Geonames","website":"https://www.somervillepubliclibrary.org/","wikidata":"Q7986557"},"geometry":{"type":"Polygon","coordinates":[[[-71.1216873,42.3980117],[-71.1218728,42.3980738],[-71.1217733,42.398237],[-71.1215848,42.3981739],[-71.1216158,42.3981228],[-71.1215832,42.3981119],[-71.1216213,42.3980494],[-71.1216571,42.3980614],[-71.1216873,42.3980117]]]}},{"type":"Feature","id":29935513,"properties":{"osmId":29935513,"category":"residential","building":"dormitory","name":"Hillside Housing 1"},"geometry":{"type":"Polygon","coordinates":[[[-71.1192874,42.4089759],[-71.1193418,42.4090516],[-71.1190474,42.4091681],[-71.1189929,42.4090924],[-71.1192874,42.4089759]]]}},{"type":"Feature","id":29938976,"properties":{"osmId":29938976,"category":"academic","addr:housenumber":"8","addr:state":"MA","addr:street":"Professors Row","building":"university","building:levels":"2","ele":"21","gnis:feature_id":"1972230","name":"Capen House","roof:levels":"1","source":"USGS Geonames"},"geometry":{"type":"Polygon","coordinates":[[[-71.1181094,42.4052879],[-71.1181506,42.4054168],[-71.1179879,42.4054454],[-71.1179467,42.4053165],[-71.1181094,42.4052879]]]}},{"type":"Feature","id":29939421,"properties":{"osmId":29939421,"category":"religious","addr:housenumber":"15","addr:street":"Notre Dame Avenue","building":"church"},"geometry":{"type":"Polygon","coordinates":[[[-71.1313624,42.3918659],[-71.1314143,42.3918653],[-71.1314145,42.3918746],[-71.1315083,42.3918736],[-71.1315089,42.3919053],[-71.131496,42.3919055],[-71.1314964,42.3919297],[-71.1315153,42.3919295],[-71.1315168,42.3920104],[-71.131448,42.3920111],[-71.1314483,42.3920265],[-71.131344,42.3920276],[-71.1313438,42.3920179],[-71.1312743,42.3920186],[-71.1312715,42.3918738],[-71.1313625,42.3918729],[-71.1313624,42.3918659]]]}},{"type":"Feature","id":29939504,"properties":{"osmId":29939504,"category":"academic","addr:housenumber":"4","addr:state":"MA","addr:street":"The Green","building":"university","ele":"43","gnis:feature_id":"1973443","name":"Packard Hall","source":"USGS Geonames","wikidata":"Q30682898"},"geometry":{"type":"Polygon","coordinates":[[[-71.1193525,42.4078167],[-71.119496,42.4078732],[-71.119416,42.4079883],[-71.1194303,42.4079945],[-71.119439,42.4079833],[-71.1195074,42.4080093],[-71.1194725,42.4080619],[-71.1194027,42.4080352],[-71.1194134,42.408018],[-71.1193995,42.4080124],[-71.1193906,42.4080265],[-71.1193328,42.4080385],[-71.1192742,42.4080187],[-71.119254,42.4079722],[-71.1193525,42.4078167]]]}},{"type":"Feature","id":29940512,"properties":{"osmId":29940512,"category":"religious","addr:housenumber":"31","addr:street":"College Avenue","amenity":"place_of_worship","building":"yes","check_date":"2025-12-16","denomination":"baptist","name":"Somerville Comunity Baptist Church","religion":"christian","website":"https://www.ilovesbc.org"},"geometry":{"type":"Polygon","coordinates":[[[-71.1212765,42.3974076],[-71.1215161,42.397501],[-71.1213013,42.3978034],[-71.1211285,42.3977359],[-71.1212188,42.3976087],[-71.1211522,42.3975827],[-71.1212765,42.3974076]]]}},{"type":"Feature","id":167007938,"properties":{"osmId":167007938,"category":"academic","addr:city":"Somerville","addr:housenumber":"169","addr:postcode":"02144","addr:state":"MA","addr:street":"Holland Street","building":"university","building:levels":"3","check_date":"2024-02-12","contact:website":"https://access.tufts.edu/accounting-office-contact-list","fax":"+1-617-627-2451","gnis:feature_id":"1973514","name":"Tufts Administration Building","operator":"Tufts University"},"geometry":{"type":"Polygon","coordinates":[[[-71.1251073,42.4015294],[-71.1248449,42.401262],[-71.1248203,42.4012351],[-71.1248779,42.4012062],[-71.1248547,42.4011809],[-71.125422,42.400896],[-71.1252972,42.4007595],[-71.1254204,42.4006976],[-71.1254779,42.4007605],[-71.12546,42.4007694],[-71.1258925,42.4012424],[-71.1259076,42.4012349],[-71.1259672,42.4013001],[-71.1258408,42.4013635],[-71.125714,42.4012246],[-71.1251073,42.4015294]]]}},{"type":"Feature","id":200090901,"properties":{"osmId":200090901,"category":"academic","addr:housenumber":"1","addr:street":"Capen Court","amenity":"school","building":"school","education":"school","ele":"9","gnis:feature_id":"603096","name":"Conwell School","source":"Office of Geographic Information (MassGIS), Commonwealth of Massachusetts, Information Technology Division"},"geometry":{"type":"Polygon","coordinates":[[[-71.1292258,42.4149181],[-71.1292376,42.4149062],[-71.1292042,42.4148881],[-71.1291938,42.4148986],[-71.1290667,42.4148296],[-71.1290755,42.4148206],[-71.1289444,42.4147494],[-71.1289996,42.4146936],[-71.1290335,42.414712],[-71.1290539,42.4146914],[-71.1290188,42.4146724],[-71.1291126,42.4145774],[-71.1292102,42.4146304],[-71.1291929,42.4146479],[-71.1292616,42.4146852],[-71.1292267,42.4147205],[-71.129352,42.4147886],[-71.1293431,42.4147976],[-71.1294098,42.4148338],[-71.129559,42.4146829],[-71.1294271,42.4146113],[-71.129479,42.4145588],[-71.1294405,42.4145379],[-71.129506,42.4144717],[-71.1295452,42.414493],[-71.1295567,42.4144813],[-71.1297232,42.4145717],[-71.1298252,42.4144685],[-71.1298691,42.4144241],[-71.1297935,42.414383],[-71.1297855,42.4143911],[-71.1297408,42.4143668],[-71.1297489,42.4143585],[-71.1296508,42.4143052],[-71.129642,42.4143141],[-71.1295933,42.4142877],[-71.1296011,42.4142799],[-71.12943,42.414187],[-71.1294601,42.4141565],[-71.1294508,42.4141514],[-71.1294807,42.4141212],[-71.1294909,42.4141267],[-71.129567,42.4140497],[-71.1295525,42.4140418],[-71.1295676,42.4140266],[-71.1295805,42.4140337],[-71.1296167,42.413997],[-71.1296037,42.41399],[-71.1296356,42.4139577],[-71.1296466,42.4139637],[-71.1297212,42.4138882],[-71.1297078,42.4138809],[-71.1297385,42.4138498],[-71.1297493,42.4138557],[-71.1297861,42.4138185],[-71.1299166,42.4138894],[-71.1299254,42.4138804],[-71.1299765,42.4139081],[-71.1299693,42.4139154],[-71.1300637,42.4139666],[-71.1300717,42.4139584],[-71.1301231,42.4139863],[-71.1301163,42.4139932],[-71.130332,42.4141103],[-71.1303122,42.4141304],[-71.1303255,42.4141376],[-71.1302789,42.4141848],[-71.1302684,42.4141791],[-71.1301762,42.4142723],[-71.1302054,42.4142882],[-71.1302124,42.4143077],[-71.1301344,42.4143867],[-71.1301064,42.4143907],[-71.1300745,42.4143734],[-71.129968,42.4144812],[-71.1298996,42.4144441],[-71.1298587,42.4144855],[-71.1297434,42.4146021],[-71.1297772,42.4146204],[-71.1298027,42.4145947],[-71.1298812,42.4146373],[-71.1297863,42.4147333],[-71.1297752,42.4147273],[-71.1296795,42.4148241],[-71.1296893,42.4148294],[-71.1295908,42.4149291],[-71.1295675,42.4149164],[-71.12953,42.4149543],[-71.1295929,42.4149884],[-71.1294744,42.4151083],[-71.1293666,42.4150498],[-71.1294039,42.4150121],[-71.129388,42.4150035],[-71.1293749,42.4150169],[-71.1292474,42.4149477],[-71.1292589,42.4149361],[-71.1292258,42.4149181]]]}},{"type":"Feature","id":214525505,"properties":{"osmId":214525505,"category":"athletic","building":"yes"},"geometry":{"type":"Polygon","coordinates":[[[-71.1147708,42.4079691],[-71.1146699,42.4080185],[-71.114624,42.4079671],[-71.1147249,42.4079177],[-71.1147708,42.4079691]]]}},{"type":"Feature","id":214525887,"properties":{"osmId":214525887,"category":"athletic","building":"yes"},"geometry":{"type":"Polygon","coordinates":[[[-71.114885,42.4078928],[-71.1148325,42.4079173],[-71.1148191,42.4079015],[-71.1147578,42.40793],[-71.1147418,42.4079112],[-71.1148557,42.4078582],[-71.114885,42.4078928]]]}},{"type":"Feature","id":214526004,"properties":{"osmId":214526004,"category":"athletic","building":"yes"},"geometry":{"type":"Polygon","coordinates":[[[-71.1126556,42.4078416],[-71.1125518,42.4078611],[-71.1125438,42.4078376],[-71.1126475,42.4078181],[-71.1126556,42.4078416]]]}},{"type":"Feature","id":214526027,"properties":{"osmId":214526027,"category":"athletic","building":"yes"},"geometry":{"type":"Polygon","coordinates":[[[-71.1158414,42.4076703],[-71.1158053,42.4077522],[-71.1157531,42.4077396],[-71.1157893,42.4076577],[-71.1158414,42.4076703]]]}},{"type":"Feature","id":214526591,"properties":{"osmId":214526591,"category":"athletic","building":"yes"},"geometry":{"type":"Polygon","coordinates":[[[-71.1142464,42.4079003],[-71.114188,42.4079273],[-71.114144,42.4078751],[-71.1142023,42.4078481],[-71.1142464,42.4079003]]]}},{"type":"Feature","id":214526866,"properties":{"osmId":214526866,"category":"athletic","building":"yes"},"geometry":{"type":"Polygon","coordinates":[[[-71.1128223,42.4076253],[-71.112791,42.4076326],[-71.1127567,42.4075512],[-71.1127881,42.407544],[-71.1128223,42.4076253]]]}},{"type":"Feature","id":229581008,"properties":{"osmId":229581008,"category":"academic","addr:housenumber":"12","addr:state":"MA","addr:street":"Upper Campus Road","building":"university","ele":"33","gnis:feature_id":"1973444","name":"Paige Hall","source":"USGS Geonames"},"geometry":{"type":"Polygon","coordinates":[[[-71.1176604,42.4067144],[-71.1176334,42.4067042],[-71.1174766,42.4069304],[-71.1176018,42.4069751],[-71.1176815,42.4068539],[-71.1178054,42.4068983],[-71.117828,42.4068637],[-71.1178738,42.4067938],[-71.1177318,42.4067398],[-71.1176604,42.4067144]]]}},{"type":"Feature","id":229587436,"properties":{"osmId":229587436,"category":"academic","addr:housenumber":"474","addr:state":"MA","addr:street":"Boston Avenue","building":"university","ele":"12","gnis:feature_id":"1972400","name":"Curtis Hall","source":"USGS Geonames"},"geometry":{"type":"Polygon","coordinates":[[[-71.1164341,42.4068057],[-71.116431,42.4069187],[-71.1164425,42.4069258],[-71.1164432,42.4069569],[-71.1164429,42.4069958],[-71.1165799,42.4070125],[-71.116585,42.407003],[-71.1166027,42.4069252],[-71.1166317,42.4069233],[-71.1166329,42.4067922],[-71.1166093,42.406793],[-71.116581,42.4066656],[-71.1163151,42.406693],[-71.1163395,42.4068146],[-71.1164341,42.4068057]]]}},{"type":"Feature","id":229619130,"properties":{"osmId":229619130,"category":"athletic","addr:housenumber":"50","addr:state":"MA","addr:street":"Talbot Avenue","building":"yes","ele":"11","gnis:feature_id":"1972918","leisure":"sports_centre","name":"Jackson Gymnasium","source":"USGS Geonames"},"geometry":{"type":"Polygon","coordinates":[[[-71.1194519,42.4044568],[-71.1198375,42.4045577],[-71.1198305,42.4045728],[-71.1199591,42.4046057],[-71.1199102,42.4047105],[-71.1197875,42.404679],[-71.1197637,42.40473],[-71.119684,42.4047096],[-71.1194378,42.4046464],[-71.1193777,42.4046305],[-71.1194221,42.4045266],[-71.1194519,42.4044568]]]}},{"type":"Feature","id":235179871,"properties":{"osmId":235179871,"category":"academic","addr:housenumber":"60;70","addr:street":"North Union Street","building":"school","website":"https://www.arlington.k12.ma.us/thompson/","wheelchair":"yes"},"geometry":{"type":"Polygon","coordinates":[[[-71.1378266,42.4121722],[-71.1378159,42.4119357],[-71.1386028,42.4119317],[-71.1387183,42.4118061],[-71.1386833,42.4117887],[-71.1388256,42.4116326],[-71.1391208,42.4117792],[-71.139053,42.4118536],[-71.1391841,42.4119188],[-71.1390114,42.4121084],[-71.1389134,42.4120595],[-71.1388756,42.4120999],[-71.1387904,42.4120491],[-71.1387587,42.4120839],[-71.138714,42.4120841],[-71.1387148,42.4121576],[-71.1378266,42.4121722]]]}},{"type":"Feature","id":543805351,"properties":{"osmId":543805351,"category":"academic","addr:city":"Medford","addr:housenumber":"200","addr:postcode":"02155","addr:state":"MA","addr:street":"College Avenue","building":"university","building:levels":"5","name":"Science & Engineering Complex"},"geometry":{"type":"Polygon","coordinates":[[[-71.1167234,42.4060337],[-71.1165796,42.4059772],[-71.1163968,42.4060469],[-71.1162416,42.4058415],[-71.1162721,42.4058316],[-71.1162582,42.4058098],[-71.1165258,42.4057063],[-71.1165876,42.4056204],[-71.116614,42.4055836],[-71.1166376,42.4055897],[-71.1166535,42.4055724],[-71.1169358,42.4056792],[-71.1169204,42.4056986],[-71.1169891,42.4057217],[-71.1168081,42.4059871],[-71.1167705,42.4059736],[-71.1167234,42.4060337]]]}},{"type":"Feature","id":645450772,"properties":{"osmId":645450772,"category":"academic","addr:city":"Cambridge","addr:postcode":"02140","addr:state":"MA","building":"school","building:levels":"3","check_date":"2024-09-23"},"geometry":{"type":"Polygon","coordinates":[[[-71.1332396,42.4024822],[-71.1332588,42.4024967],[-71.1332764,42.4024847],[-71.1332826,42.4024897],[-71.13339,42.4024958],[-71.133356,42.4027997],[-71.1334191,42.4028044],[-71.1334105,42.4028885],[-71.1334098,42.4028924],[-71.1334082,42.4028964],[-71.1334059,42.4029001],[-71.1334028,42.4029034],[-71.1333991,42.4029064],[-71.1333948,42.4029089],[-71.13339,42.4029108],[-71.1333848,42.4029122],[-71.1333795,42.402913],[-71.133374,42.402913],[-71.1333685,42.4029126],[-71.1333633,42.4029115],[-71.1333583,42.4029097],[-71.1333539,42.4029074],[-71.1333499,42.4029047],[-71.1333465,42.4029014],[-71.1333438,42.4028979],[-71.133342,42.4028941],[-71.133341,42.4028901],[-71.1333408,42.4028872],[-71.1331329,42.4028751],[-71.1331348,42.4028583],[-71.1330793,42.4028576],[-71.1330848,42.4028106],[-71.1330614,42.4028082],[-71.1330792,42.4026486],[-71.1331355,42.4026513],[-71.1331436,42.4025721],[-71.1331272,42.4025589],[-71.1332396,42.4024822]]]}},{"type":"Feature","id":645450795,"properties":{"osmId":645450795,"category":"religious","building":"yes"},"geometry":{"type":"Polygon","coordinates":[[[-71.1334653,42.4033297],[-71.1334282,42.403355],[-71.1334511,42.4033733],[-71.1334882,42.4033479],[-71.1334653,42.4033297]]]}},{"type":"Feature","id":645450796,"properties":{"osmId":645450796,"category":"religious","building":"yes"},"geometry":{"type":"Polygon","coordinates":[[[-71.1337508,42.4035199],[-71.133724,42.4035336],[-71.1336988,42.4035067],[-71.1337256,42.403493],[-71.1337508,42.4035199]]]}},{"type":"Feature","id":745180417,"properties":{"osmId":745180417,"category":"academic","addr:city":"Medford","addr:housenumber":"200","addr:postcode":"02155","addr:state":"MA","addr:street":"College Avenue","building":"university","name":"Robinson Hall"},"geometry":{"type":"Polygon","coordinates":[[[-71.1169596,42.4060459],[-71.1168081,42.4059871],[-71.1169891,42.4057217],[-71.1170784,42.4055918],[-71.1172571,42.4056631],[-71.1170423,42.4059617],[-71.1170254,42.405955],[-71.1169596,42.4060459]]]}},{"type":"Feature","id":978251442,"properties":{"osmId":978251442,"category":"academic","addr:city":"Medford","addr:housenumber":"177","addr:postcode":"02155","addr:state":"MA","addr:street":"College Avenue","building":"university","name":"Joyce Cummings Center"},"geometry":{"type":"Polygon","coordinates":[[[-71.1167165,42.4082768],[-71.1167326,42.408257],[-71.116754,42.4082471],[-71.1167648,42.4082669],[-71.1167883,42.4082572],[-71.1168613,42.4082273],[-71.1164187,42.4076153],[-71.1164079,42.407625],[-71.1163519,42.4076755],[-71.1163329,42.4076926],[-71.1163651,42.4077322],[-71.1163141,42.4077797],[-71.116282,42.4077639],[-71.116265,42.4077807],[-71.1162393,42.4078059],[-71.1161247,42.4079187],[-71.1160808,42.4079619],[-71.1161422,42.4079936],[-71.1166601,42.408261],[-71.1166762,42.4082511],[-71.1167165,42.4082768]]]}},{"type":"Feature","id":1340180874,"properties":{"osmId":1340180874,"category":"residential","building":"dormitory"},"geometry":{"type":"Polygon","coordinates":[[[-71.1228799,42.4073395],[-71.1229457,42.4072432],[-71.1221008,42.4069221],[-71.1220381,42.4070173],[-71.1228799,42.4073395]]]}},{"type":"Feature","id":1340180875,"properties":{"osmId":1340180875,"category":"residential","building":"dormitory"},"geometry":{"type":"Polygon","coordinates":[[[-71.1227477,42.4075258],[-71.1219059,42.4072046],[-71.1219726,42.4071104],[-71.122232,42.4072078],[-71.1223939,42.4072711],[-71.1228162,42.4074309],[-71.1227477,42.4075258]]]}},{"type":"Feature","id":1340180876,"properties":{"osmId":1340180876,"category":"residential","building":"dormitory"},"geometry":{"type":"Polygon","coordinates":[[[-71.1226973,42.4077008],[-71.1227552,42.4076129],[-71.1218606,42.4072679],[-71.1217905,42.4073591],[-71.1226973,42.4077008]]]}}]}