{"type":"FeatureCollection","features":[{"type":"Feature","id":323567965,"properties":{"osmId":323567965,"category":"religious","addr:city":"New Orleans","addr:housenumber":"8321","addr:postcode":"70118","addr:state":"LA","addr:street":"Burthe Street","amenity":"place_of_worship","building":"church","denomination":"roman_catholic","diocese":"New Orleans","ele":"2","fax":"+1 504-866-7330","gnis:feature_id":"557090","name":"Saint Joan of Arc Catholic Church","phone":"+1 504-866-7330","religion":"christian"},"geometry":{"type":"Polygon","coordinates":[[[-90.1344184,29.9473498],[-90.1343907,29.9473757],[-90.1344187,29.9473982],[-90.1343787,29.9474356],[-90.1343507,29.947413],[-90.1343219,29.9474399],[-90.1341478,29.9472985],[-90.1341424,29.9473036],[-90.1340872,29.9472588],[-90.1342003,29.9471533],[-90.1342537,29.9471966],[-90.1342426,29.947207],[-90.1344184,29.9473498]]]}},{"type":"Feature","id":327285930,"properties":{"osmId":327285930,"category":"library","amenity":"library","building":"yes","name":"New Orleans Public Library - Nix Memorial Branch"},"geometry":{"type":"Polygon","coordinates":[[[-90.127801,29.9486743],[-90.1276507,29.948553],[-90.1276558,29.9485482],[-90.1276367,29.9485328],[-90.1277318,29.9484434],[-90.1277444,29.9484536],[-90.1277505,29.9484479],[-90.1279072,29.9485744],[-90.127801,29.9486743]]]}},{"type":"Feature","id":327436033,"properties":{"osmId":327436033,"category":"academic","amenity":"parking","building":"yes","name":"Diboll Complex","parking":"multi-storey"},"geometry":{"type":"Polygon","coordinates":[[[-90.1169791,29.9431217],[-90.1169643,29.9431245],[-90.1169672,29.9431341],[-90.1169295,29.9431429],[-90.1169273,29.9431379],[-90.1169145,29.9431422],[-90.1164787,29.9429647],[-90.1164717,29.9429502],[-90.1164557,29.9429524],[-90.1164486,29.9429211],[-90.1164562,29.9429193],[-90.1164524,29.9429013],[-90.1167483,29.9423501],[-90.1167602,29.9423472],[-90.1167579,29.9423416],[-90.1167945,29.9423309],[-90.1167961,29.9423345],[-90.1168278,29.9423225],[-90.1172722,29.9425035],[-90.1172865,29.942549],[-90.1169791,29.9431217]]]}},{"type":"Feature","id":327436386,"properties":{"osmId":327436386,"category":"academic","addr:housenumber":"6319","addr:street":"Willow Street","building":"university","name":"Bea Field Alumni House"},"geometry":{"type":"Polygon","coordinates":[[[-90.1171043,29.9412785],[-90.1170439,29.9413975],[-90.1169896,29.941377],[-90.1169831,29.9413802],[-90.1169622,29.9413723],[-90.1169584,29.9413635],[-90.1169312,29.9413533],[-90.1168684,29.9414795],[-90.1168558,29.9414747],[-90.1168501,29.9414862],[-90.1167846,29.9414615],[-90.1168283,29.9413736],[-90.1168171,29.9413694],[-90.1168617,29.9412797],[-90.1169202,29.9413018],[-90.1169591,29.9412237],[-90.1171043,29.9412785]]]}},{"type":"Feature","id":327436422,"properties":{"osmId":327436422,"category":"athletic","building":"yes","leisure":"sports_centre","name":"Reily Student Recreation Center"},"geometry":{"type":"Polygon","coordinates":[[[-90.1163889,29.943033],[-90.1169738,29.9432712],[-90.1170114,29.943311],[-90.1170318,29.9433654],[-90.1170279,29.943427],[-90.1171447,29.9434746],[-90.1171529,29.9434593],[-90.1172144,29.9434843],[-90.1172087,29.9434948],[-90.1173194,29.9435399],[-90.1173359,29.9435466],[-90.1173428,29.9435337],[-90.1173973,29.9435559],[-90.1173908,29.943568],[-90.1175157,29.9436189],[-90.1175218,29.9436076],[-90.1175747,29.9436291],[-90.1175706,29.9436368],[-90.117635,29.943663],[-90.1176396,29.9436545],[-90.117754,29.9437011],[-90.1177599,29.94369],[-90.1178127,29.9437115],[-90.1178074,29.9437215],[-90.1179303,29.9437716],[-90.1177885,29.9440357],[-90.1171846,29.9437897],[-90.1171282,29.9438947],[-90.1168801,29.9437937],[-90.1169291,29.9437026],[-90.1166502,29.943589],[-90.1166152,29.9436542],[-90.1165805,29.9436402],[-90.1165338,29.9437272],[-90.1161091,29.9435541],[-90.1163889,29.943033]]]}},{"type":"Feature","id":327436446,"properties":{"osmId":327436446,"category":"academic","building":"yes"},"geometry":{"type":"Polygon","coordinates":[[[-90.1161478,29.9442632],[-90.1158632,29.944155],[-90.1158676,29.9441465],[-90.1157955,29.9441195],[-90.1158042,29.9440944],[-90.1157846,29.9440893],[-90.1158244,29.9439973],[-90.1158405,29.9440035],[-90.1158602,29.9439412],[-90.1159848,29.9437495],[-90.1160539,29.9436173],[-90.1164416,29.9437579],[-90.1164407,29.943772],[-90.1164663,29.9437901],[-90.1161478,29.9442632]]]}},{"type":"Feature","id":327436460,"properties":{"osmId":327436460,"category":"academic","building":"yes"},"geometry":{"type":"Polygon","coordinates":[[[-90.1189266,29.9422825],[-90.1189654,29.9423062],[-90.1189525,29.9423222],[-90.1189959,29.9423486],[-90.1189731,29.942377],[-90.11898,29.9423812],[-90.1189386,29.9424326],[-90.1189336,29.9424296],[-90.1189142,29.9424537],[-90.1189039,29.9424474],[-90.1188907,29.9424638],[-90.1188415,29.9424337],[-90.1188528,29.9424196],[-90.1188195,29.9423993],[-90.1188575,29.942352],[-90.1188664,29.9423575],[-90.1189266,29.9422825]]]}},{"type":"Feature","id":327436469,"properties":{"osmId":327436469,"category":"athletic","building":"stadium","name":"Turchin Stadium"},"geometry":{"type":"Polygon","coordinates":[[[-90.1150967,29.9454919],[-90.1151191,29.9455013],[-90.1151018,29.9455378],[-90.1151102,29.9455416],[-90.1151354,29.9454903],[-90.1151482,29.9454953],[-90.1152084,29.9454585],[-90.1152605,29.9454437],[-90.1153336,29.945442],[-90.1153296,29.9454848],[-90.1152944,29.9454899],[-90.1152872,29.9455602],[-90.1152393,29.9455739],[-90.1152053,29.9455981],[-90.1151642,29.9455628],[-90.1151189,29.9455954],[-90.115093,29.9456442],[-90.115102,29.945648],[-90.1150508,29.9457534],[-90.1150452,29.9457516],[-90.1149977,29.9458423],[-90.1149776,29.9459019],[-90.1149247,29.9458839],[-90.1149124,29.9459089],[-90.1148795,29.9458982],[-90.1150967,29.9454919]]]}},{"type":"Feature","id":327436515,"properties":{"osmId":327436515,"category":"academic","building":"university","name":"Tony Sofio Baseball Pavilion"},"geometry":{"type":"Polygon","coordinates":[[[-90.1160909,29.946011],[-90.1161748,29.9458519],[-90.1164223,29.9459509],[-90.1163384,29.94611],[-90.1160909,29.946011]]]}},{"type":"Feature","id":327436532,"properties":{"osmId":327436532,"category":"academic","building":"yes"},"geometry":{"type":"Polygon","coordinates":[[[-90.1178759,29.9433497],[-90.1178335,29.9433313],[-90.1178793,29.9432512],[-90.1179217,29.9432696],[-90.1178759,29.9433497]]]}},{"type":"Feature","id":327436557,"properties":{"osmId":327436557,"category":"academic","building":"yes"},"geometry":{"type":"Polygon","coordinates":[[[-90.115855,29.9468046],[-90.1158831,29.9467763],[-90.115916,29.9468011],[-90.115888,29.9468294],[-90.115855,29.9468046]]]}},{"type":"Feature","id":327436564,"properties":{"osmId":327436564,"category":"academic","building":"yes"},"geometry":{"type":"Polygon","coordinates":[[[-90.116037,29.9466153],[-90.1160093,29.9465941],[-90.1160519,29.9465517],[-90.1160797,29.946573],[-90.116037,29.9466153]]]}},{"type":"Feature","id":327436590,"properties":{"osmId":327436590,"category":"academic","building":"yes"},"geometry":{"type":"Polygon","coordinates":[[[-90.1159752,29.9457882],[-90.1160098,29.9457391],[-90.1161575,29.945818],[-90.1161229,29.9458671],[-90.1159752,29.9457882]]]}},{"type":"Feature","id":327436595,"properties":{"osmId":327436595,"category":"academic","building":"university","name":"Warehouse"},"geometry":{"type":"Polygon","coordinates":[[[-90.1156736,29.9468764],[-90.1156479,29.9467953],[-90.1158021,29.9467582],[-90.1158278,29.9468393],[-90.1156736,29.9468764]]]}},{"type":"Feature","id":327436626,"properties":{"osmId":327436626,"category":"residential","building":"residential","name":"Décou-Labat Residences","old_name":"Willow Residences","operator":"Tulane University","residential":"university"},"geometry":{"type":"Polygon","coordinates":[[[-90.118387,29.9431928],[-90.1183214,29.9431669],[-90.1183308,29.943149],[-90.1183171,29.9431435],[-90.1183289,29.943121],[-90.118344,29.943127],[-90.1183621,29.9430923],[-90.1183472,29.9430864],[-90.1183593,29.9430632],[-90.1183734,29.9430688],[-90.1183834,29.9430496],[-90.1183958,29.9430546],[-90.1184032,29.9430405],[-90.1183898,29.9430352],[-90.1184031,29.9430097],[-90.1184175,29.9430155],[-90.1184373,29.9429777],[-90.1184256,29.9429731],[-90.1184365,29.9429523],[-90.1184481,29.9429569],[-90.1184574,29.9429392],[-90.1184688,29.9429438],[-90.1184776,29.9429269],[-90.1184636,29.9429214],[-90.1184764,29.942897],[-90.1184923,29.9429034],[-90.1185105,29.9428685],[-90.1184985,29.9428637],[-90.1185114,29.942839],[-90.1185228,29.9428435],[-90.1185322,29.9428255],[-90.1185461,29.942831],[-90.1185547,29.9428147],[-90.1185426,29.9428099],[-90.1185549,29.9427864],[-90.1185685,29.9427918],[-90.1185872,29.9427559],[-90.1185692,29.9427487],[-90.1185799,29.9427281],[-90.1185965,29.9427347],[-90.1186074,29.9427139],[-90.1186221,29.9427197],[-90.1186299,29.9427048],[-90.1186133,29.9426983],[-90.1186259,29.9426742],[-90.1186431,29.942681],[-90.118662,29.9426448],[-90.1186459,29.9426384],[-90.1186521,29.9426265],[-90.1186327,29.9426188],[-90.1186465,29.9425922],[-90.1186327,29.9425868],[-90.1186652,29.9425246],[-90.1187598,29.942562],[-90.1187566,29.942568],[-90.1187708,29.9425736],[-90.1187435,29.9426259],[-90.1187477,29.9426276],[-90.1186842,29.9427492],[-90.1186703,29.9427436],[-90.1186095,29.9428601],[-90.1185947,29.9428542],[-90.1185438,29.9429518],[-90.118533,29.9429476],[-90.1184714,29.9430657],[-90.1184565,29.9430598],[-90.118387,29.9431928]]]}},{"type":"Feature","id":327443119,"properties":{"osmId":327443119,"category":"academic","building":"yes","building:levels":"3","height":"15","name":"Alcee Fortier Hall","roof:shape":"hipped"},"geometry":{"type":"Polygon","coordinates":[[[-90.121782,29.9382517],[-90.1216908,29.9382038],[-90.1218752,29.9379376],[-90.1219664,29.9379855],[-90.121782,29.9382517]]]}},{"type":"Feature","id":327443120,"properties":{"osmId":327443120,"category":"academic","building":"yes","building:levels":"6","height":"20","name":"Biever Hall","roof:shape":"flat"},"geometry":{"type":"Polygon","coordinates":[[[-90.1206733,29.9367741],[-90.1206587,29.9367682],[-90.1206887,29.9367119],[-90.1207107,29.9367208],[-90.1207941,29.9365643],[-90.1208485,29.9365864],[-90.1208681,29.9365496],[-90.1208973,29.9365614],[-90.1208777,29.9365981],[-90.1209252,29.9366174],[-90.1208403,29.9367766],[-90.1208528,29.9367816],[-90.1208212,29.9368407],[-90.120799,29.9368317],[-90.1207153,29.9369888],[-90.1207385,29.9369982],[-90.1207,29.9370704],[-90.1206668,29.937057],[-90.1205836,29.937213],[-90.120598,29.9372188],[-90.1205669,29.937277],[-90.1205441,29.9372678],[-90.1204607,29.9374241],[-90.1204062,29.937402],[-90.1203867,29.9374387],[-90.1203598,29.9374278],[-90.1203808,29.9373885],[-90.1203304,29.9373681],[-90.1204133,29.9372126],[-90.1204016,29.9372078],[-90.1204349,29.9371455],[-90.1204556,29.9371539],[-90.1205385,29.9369984],[-90.1205247,29.9369928],[-90.1205154,29.936989],[-90.1205309,29.9369599],[-90.1205172,29.9369544],[-90.120539,29.9369135],[-90.1205611,29.9369225],[-90.1205883,29.9369335],[-90.1206733,29.9367741]]]}},{"type":"Feature","id":327443121,"properties":{"osmId":327443121,"category":"academic","building":"yes","building:levels":"4","height":"22","name":"Bobet Hall","roof:shape":"flat","wheelchair":"yes"},"geometry":{"type":"Polygon","coordinates":[[[-90.1214449,29.9353035],[-90.1213594,29.9354715],[-90.1212746,29.9354388],[-90.1212803,29.9354276],[-90.1210767,29.9353635],[-90.1208786,29.9352726],[-90.1208758,29.9352782],[-90.1207899,29.935245],[-90.1208725,29.9350826],[-90.1214449,29.9353035]]]}},{"type":"Feature","id":327443122,"properties":{"osmId":327443122,"category":"academic","building":"yes","building:levels":"6","height":"35","name":"Boggs Center for Energy and Biotechnology","roof:shape":"hipped"},"geometry":{"type":"Polygon","coordinates":[[[-90.1205618,29.9377855],[-90.1206182,29.9376952],[-90.1206029,29.9376879],[-90.1206511,29.9376108],[-90.1206694,29.9376195],[-90.1207261,29.9375287],[-90.1211583,29.9377336],[-90.12111,29.9378108],[-90.1211223,29.9378166],[-90.1210581,29.9379194],[-90.1210455,29.9379134],[-90.1209966,29.9379916],[-90.1205618,29.9377855]]]}},{"type":"Feature","id":327443123,"properties":{"osmId":327443123,"category":"academic","building":"yes","height":"23","name":"Butler House"},"geometry":{"type":"Polygon","coordinates":[[[-90.1189961,29.9419139],[-90.1189388,29.9418875],[-90.1189163,29.9419245],[-90.118774,29.9418589],[-90.1187969,29.9418212],[-90.1187381,29.9417941],[-90.1188502,29.9416099],[-90.1189077,29.9416364],[-90.1189283,29.9416025],[-90.1190706,29.9416681],[-90.1190494,29.9417029],[-90.1191079,29.9417299],[-90.1189961,29.9419139]]]}},{"type":"Feature","id":327443124,"properties":{"osmId":327443124,"category":"academic","building":"yes","height":"21","name":"Communication/Music Complex"},"geometry":{"type":"Polygon","coordinates":[[[-90.1202857,29.933783],[-90.1204426,29.9334709],[-90.12072,29.9335766],[-90.1206881,29.9336402],[-90.1206574,29.9336285],[-90.1206377,29.9336677],[-90.120807,29.9337322],[-90.1208738,29.9335992],[-90.1208787,29.9336011],[-90.1208948,29.9335689],[-90.1208858,29.9335655],[-90.1209187,29.9335],[-90.1211522,29.933589],[-90.1211471,29.9335993],[-90.121209,29.9336229],[-90.1212039,29.9336332],[-90.1212651,29.9336565],[-90.1212498,29.9336869],[-90.1213567,29.9337277],[-90.1212495,29.933941],[-90.1211951,29.9339202],[-90.1211858,29.9339387],[-90.1212068,29.9339468],[-90.1211479,29.9340641],[-90.1210828,29.9340393],[-90.1210628,29.9340792],[-90.1202857,29.933783]]]}},{"type":"Feature","id":327443125,"properties":{"osmId":327443125,"category":"academic","building":"yes","building:levels":"4","height":"21","name":"Dinwiddie Hall","roof:shape":"gabled"},"geometry":{"type":"Polygon","coordinates":[[[-90.1224452,29.9348489],[-90.1223792,29.9349492],[-90.1223396,29.9349294],[-90.1222838,29.9350141],[-90.1223021,29.9350233],[-90.1223038,29.9350375],[-90.1222915,29.9350562],[-90.122273,29.935059],[-90.122234,29.9351182],[-90.1222201,29.9351113],[-90.1222061,29.9351326],[-90.1222508,29.9351549],[-90.122234,29.9351808],[-90.12224,29.9351842],[-90.1222039,29.9352401],[-90.1221972,29.9352367],[-90.1221829,29.9352598],[-90.1219695,29.9351532],[-90.1220342,29.9350549],[-90.1220627,29.9350692],[-90.1220531,29.9350837],[-90.1220729,29.9350936],[-90.1220807,29.9350817],[-90.1220696,29.9350762],[-90.1221058,29.9350212],[-90.1220563,29.9349966],[-90.1221265,29.9348898],[-90.1221725,29.9349128],[-90.1222012,29.9348692],[-90.1221593,29.9348483],[-90.1222297,29.9347413],[-90.1223422,29.9347975],[-90.1224452,29.9348489]]]}},{"type":"Feature","id":327443126,"properties":{"osmId":327443126,"category":"athletic","addr:housenumber":"6401","addr:street":"Freret Street","building":"yes","leisure":"stadium","name":"Fogelman Arena","wikidata":"Q5267618","wikipedia":"en:Devlin Fieldhouse"},"geometry":{"type":"Polygon","coordinates":[[[-90.1203415,29.93914],[-90.120337,29.9391442],[-90.1202857,29.9391189],[-90.1203109,29.9390827],[-90.1203065,29.9390805],[-90.1203393,29.9390333],[-90.1203467,29.9390372],[-90.1205055,29.9388088],[-90.1204951,29.9388034],[-90.1205299,29.9387534],[-90.1205947,29.9387405],[-90.120647,29.9387682],[-90.1206427,29.9387744],[-90.1207716,29.9388424],[-90.1207911,29.9388143],[-90.1209302,29.9388877],[-90.1209125,29.9389131],[-90.1210301,29.9389752],[-90.121035,29.9389681],[-90.1210835,29.9389937],[-90.1211027,29.9390542],[-90.1210712,29.9390995],[-90.1210659,29.9390967],[-90.120907,29.9393252],[-90.1209136,29.9393287],[-90.1208561,29.9394114],[-90.1203415,29.93914]]]}},{"type":"Feature","id":327443127,"properties":{"osmId":327443127,"category":"academic","addr:housenumber":"6823","addr:street":"Saint Charles Avenue","building":"yes","building:levels":"4","height":"23","name":"Gibson Hall","roof:shape":"hipped"},"geometry":{"type":"Polygon","coordinates":[[[-90.1230453,29.9354388],[-90.1230512,29.9354295],[-90.1231646,29.9354835],[-90.1230539,29.9356601],[-90.1229392,29.9356055],[-90.1229446,29.9355969],[-90.1224636,29.935368],[-90.1224585,29.935376],[-90.1223472,29.935323],[-90.1224569,29.9351482],[-90.122568,29.9352011],[-90.1225629,29.9352093],[-90.1230453,29.9354388]]]}},{"type":"Feature","id":327443128,"properties":{"osmId":327443128,"category":"academic","building":"yes","description":"Also includes the H. Sophie Newcomb Memorial College Institute on the 3rd floor","height":"16","name":"Dining Room at The Commons"},"geometry":{"type":"Polygon","coordinates":[[[-90.1209852,29.9404436],[-90.1206109,29.9402922],[-90.120844,29.9399449],[-90.1209342,29.9399865],[-90.1209885,29.9399079],[-90.1212471,29.9400499],[-90.1214692,29.9401315],[-90.1212246,29.9404377],[-90.1211789,29.940571],[-90.1209852,29.9404436]]]}},{"type":"Feature","id":327443129,"properties":{"osmId":327443129,"category":"academic","building":"yes","height":"13","name":"Hebert Hall"},"geometry":{"type":"Polygon","coordinates":[[[-90.1226959,29.9367686],[-90.1227254,29.9367686],[-90.1227254,29.9368027],[-90.1226963,29.9368027],[-90.1226962,29.9368358],[-90.1225748,29.9368357],[-90.1225748,29.9367984],[-90.1225189,29.9367983],[-90.1225191,29.9366855],[-90.1222963,29.9366853],[-90.1222965,29.9365379],[-90.1226962,29.9365383],[-90.1226959,29.9367686]]]}},{"type":"Feature","id":327443141,"properties":{"osmId":327443141,"category":"academic","addr:housenumber":"1033","addr:street":"Audubon Street","building":"yes"},"geometry":{"type":"Polygon","coordinates":[[[-90.122681,29.9405061],[-90.1227648,29.9404014],[-90.1228822,29.9404727],[-90.1228501,29.9405128],[-90.1229564,29.9405773],[-90.1229047,29.9406419],[-90.122681,29.9405061]]]}},{"type":"Feature","id":327443143,"properties":{"osmId":327443143,"category":"religious","addr:housenumber":"1037","addr:postcode":"70119","addr:state":"LA","addr:street":"Audubon Street","amenity":"place_of_worship","building":"yes","denomination":"roman_catholic","diocese":"New Orleans","fax":"+1 504-272-0904","name":"Tulane Catholic - St. Martin de Porres Chapel","phone":"+1 504-866-0984","religion":"christian"},"geometry":{"type":"Polygon","coordinates":[[[-90.1228813,29.9406727],[-90.1228073,29.9407669],[-90.122772,29.9407459],[-90.1227537,29.9407689],[-90.1226093,29.9406829],[-90.1226276,29.9406598],[-90.1226045,29.940646],[-90.1226785,29.9405518],[-90.1228813,29.9406727]]]}},{"type":"Feature","id":327443147,"properties":{"osmId":327443147,"category":"religious","addr:housenumber":"1101","addr:street":"Broadway Street","building":"chapel","name":"Rogers Memorial Chapel","operator":"Tulane University"},"geometry":{"type":"Polygon","coordinates":[[[-90.1229665,29.9415663],[-90.1231262,29.9416644],[-90.1230861,29.9417139],[-90.1230949,29.9417526],[-90.122999,29.9418759],[-90.1228241,29.9417694],[-90.1228303,29.941762],[-90.1227535,29.9417157],[-90.1227469,29.9417238],[-90.122694,29.9416913],[-90.1227314,29.9416451],[-90.1227847,29.9416778],[-90.1227769,29.9416875],[-90.122838,29.941725],[-90.1229665,29.9415663]]]}},{"type":"Feature","id":327443153,"properties":{"osmId":327443153,"category":"academic","addr:housenumber":"1326","addr:street":"Audubon Street","building":"yes"},"geometry":{"type":"Polygon","coordinates":[[[-90.1214678,29.9431669],[-90.1214291,29.9432162],[-90.1213855,29.9431902],[-90.1213727,29.9432065],[-90.1212854,29.9431546],[-90.1212742,29.9431689],[-90.1212276,29.9431411],[-90.1212904,29.9430612],[-90.1214678,29.9431669]]]}},{"type":"Feature","id":327443155,"properties":{"osmId":327443155,"category":"academic","addr:housenumber":"1332","addr:street":"Audubon Street","building":"yes"},"geometry":{"type":"Polygon","coordinates":[[[-90.1211472,29.9431988],[-90.121199,29.9431333],[-90.1213701,29.943236],[-90.1213183,29.9433015],[-90.1211472,29.9431988]]]}},{"type":"Feature","id":327443156,"properties":{"osmId":327443156,"category":"academic","addr:housenumber":"1338","addr:street":"Audubon Street","building":"yes"},"geometry":{"type":"Polygon","coordinates":[[[-90.1211561,29.943232],[-90.1212455,29.9432857],[-90.1212504,29.9432795],[-90.1213115,29.9433161],[-90.121307,29.9433219],[-90.1213594,29.9433533],[-90.1213178,29.9434059],[-90.1212838,29.9433854],[-90.1212706,29.943402],[-90.1211018,29.9433006],[-90.1211561,29.943232]]]}},{"type":"Feature","id":327443230,"properties":{"osmId":327443230,"category":"academic","addr:housenumber":"6325","addr:street":"Freret Street","building":"university","height":"8","name":"Law Annex"},"geometry":{"type":"Polygon","coordinates":[[[-90.1189545,29.9377505],[-90.1190007,29.9377691],[-90.1190093,29.937753],[-90.1190489,29.9377689],[-90.1190402,29.9377854],[-90.1190524,29.9377904],[-90.1190279,29.9378367],[-90.119069,29.9378532],[-90.1190282,29.9379301],[-90.118986,29.9379131],[-90.1189814,29.9379218],[-90.1188844,29.9378828],[-90.1189545,29.9377505]]]}},{"type":"Feature","id":327443240,"properties":{"osmId":327443240,"category":"academic","addr:housenumber":"7014","addr:street":"Zimple Street","building":"yes"},"geometry":{"type":"Polygon","coordinates":[[[-90.1225407,29.9402158],[-90.1226239,29.9402642],[-90.1224487,29.9404926],[-90.1223656,29.9404443],[-90.1225407,29.9402158]]]}},{"type":"Feature","id":327443241,"properties":{"osmId":327443241,"category":"academic","addr:housenumber":"7025","addr:street":"Freret Street","building":"yes"},"geometry":{"type":"Polygon","coordinates":[[[-90.1227603,29.9398555],[-90.1226923,29.9399457],[-90.1226807,29.939939],[-90.1226235,29.9400148],[-90.1225359,29.9399647],[-90.1225941,29.9398877],[-90.122584,29.9398819],[-90.122651,29.939793],[-90.1227603,29.9398555]]]}},{"type":"Feature","id":327443242,"properties":{"osmId":327443242,"category":"academic","addr:housenumber":"7029","addr:street":"Freret Street","building":"yes"},"geometry":{"type":"Polygon","coordinates":[[[-90.1227308,29.9400677],[-90.1226481,29.9400188],[-90.1227851,29.9398429],[-90.1227902,29.9398459],[-90.1228049,29.939827],[-90.1228784,29.9398704],[-90.1228635,29.9398894],[-90.1228677,29.9398919],[-90.1227308,29.9400677]]]}},{"type":"Feature","id":327443243,"properties":{"osmId":327443243,"category":"academic","addr:housenumber":"7031","addr:street":"Freret Street","building":"yes"},"geometry":{"type":"Polygon","coordinates":[[[-90.1228786,29.9399035],[-90.1229624,29.9399511],[-90.1229502,29.9399674],[-90.1229551,29.9399702],[-90.1229291,29.9400048],[-90.1229342,29.9400077],[-90.1228794,29.9400807],[-90.1228462,29.9400618],[-90.122837,29.9400741],[-90.1228169,29.9400626],[-90.1227985,29.9400871],[-90.1227626,29.9400667],[-90.1227822,29.9400406],[-90.1227777,29.9400381],[-90.1228786,29.9399035]]]}},{"type":"Feature","id":327443244,"properties":{"osmId":327443244,"category":"religious","addr:housenumber":"7037","addr:street":"Freret Street","amenity":"place_of_worship","building":"yes","name":"Chabad-Lubavitch of Louisiana","religion":"jewish"},"geometry":{"type":"Polygon","coordinates":[[[-90.1230524,29.9400306],[-90.1231385,29.9400797],[-90.1231236,29.9400996],[-90.1231305,29.9401035],[-90.1230271,29.9402348],[-90.1229375,29.9401835],[-90.1230524,29.9400306]]]}},{"type":"Feature","id":327443277,"properties":{"osmId":327443277,"category":"library","amenity":"library","building":"yes","building:levels":"6","name":"Howard Tilton Memorial Library","roof:shape":"flat","wheelchair":"yes","wikidata":"Q16466615","wikipedia":"en:Howard-Tilton Memorial Library"},"geometry":{"type":"Polygon","coordinates":[[[-90.1225864,29.9397246],[-90.1221138,29.9403925],[-90.1217098,29.9401737],[-90.1221824,29.9395078],[-90.1225864,29.9397246]]]}},{"type":"Feature","id":327443278,"properties":{"osmId":327443278,"category":"academic","building":"yes","building:levels":"3","name":"Joseph Merrick Jones Hall","roof:shape":"flat"},"geometry":{"type":"Polygon","coordinates":[[[-90.1212683,29.9398136],[-90.1212638,29.9398112],[-90.1212494,29.9398314],[-90.1210783,29.9397389],[-90.1210316,29.9398044],[-90.1208973,29.9397317],[-90.1209095,29.9397146],[-90.1208966,29.9397077],[-90.1209298,29.9396612],[-90.1209409,29.9396672],[-90.1209479,29.9396573],[-90.1209159,29.93964],[-90.1209295,29.9396209],[-90.1209178,29.9396145],[-90.1209457,29.9395754],[-90.1209889,29.9395988],[-90.1211464,29.9393778],[-90.1211362,29.9393723],[-90.1211754,29.9393174],[-90.1211903,29.9393254],[-90.1212832,29.9391951],[-90.1215834,29.9393575],[-90.1215687,29.9393781],[-90.1215761,29.939382],[-90.1212683,29.9398136]]]}},{"type":"Feature","id":327443279,"properties":{"osmId":327443279,"category":"academic","building":"yes","height":"13","name":"Lavin-Bernick University Center (LBC)","wheelchair":"yes"},"geometry":{"type":"Polygon","coordinates":[[[-90.1201783,29.9393607],[-90.120379,29.9394646],[-90.1203412,29.93952],[-90.1205203,29.9396127],[-90.120695,29.9393567],[-90.1208942,29.9394535],[-90.1206593,29.9398073],[-90.1208451,29.9399044],[-90.1206699,29.9401553],[-90.120453,29.9400448],[-90.1203862,29.9401426],[-90.1198383,29.939859],[-90.1201783,29.9393607]]]}},{"type":"Feature","id":327443281,"properties":{"osmId":327443281,"category":"academic","building":"yes","height":"30","name":"Monroe Hall"},"geometry":{"type":"Polygon","coordinates":[[[-90.1202444,29.9338817],[-90.1203565,29.9339236],[-90.1203773,29.9338814],[-90.1204001,29.93389],[-90.1204076,29.9338747],[-90.120447,29.9338895],[-90.1204497,29.933884],[-90.1205453,29.9339197],[-90.12054,29.9339304],[-90.1206656,29.9339773],[-90.1206376,29.9340342],[-90.12081,29.9340987],[-90.120787,29.9341455],[-90.1208024,29.9341512],[-90.1207778,29.9342013],[-90.120765,29.9341965],[-90.1207106,29.9343068],[-90.1207171,29.9343092],[-90.1207047,29.9343343],[-90.1206934,29.9343301],[-90.1206516,29.934415],[-90.1206379,29.9344098],[-90.1206293,29.9344273],[-90.1206394,29.934431],[-90.1206188,29.9344727],[-90.1205829,29.9344593],[-90.1205933,29.9344383],[-90.1205266,29.9344134],[-90.1205122,29.9344426],[-90.1204829,29.9344317],[-90.120487,29.9344233],[-90.1204611,29.9344136],[-90.1204263,29.9344843],[-90.1203635,29.9344608],[-90.1203435,29.9344533],[-90.1203181,29.934505],[-90.120291,29.9344949],[-90.1201776,29.934725],[-90.1202198,29.9347407],[-90.1201927,29.9347958],[-90.1201417,29.9347767],[-90.1201594,29.9347407],[-90.1200609,29.934704],[-90.1200704,29.9346847],[-90.1199287,29.9346318],[-90.1199246,29.9346401],[-90.1199001,29.934631],[-90.1199032,29.9346247],[-90.1198822,29.9346168],[-90.1202444,29.9338817]]]}},{"type":"Feature","id":327443282,"properties":{"osmId":327443282,"category":"academic","addr:housenumber":"1229","addr:street":"Broadway Street","building":"yes","name":"Newcomb Hall"},"geometry":{"type":"Polygon","coordinates":[[[-90.122327,29.9417218],[-90.1223328,29.9417253],[-90.1223283,29.9417295],[-90.1223552,29.9417508],[-90.1223555,29.941786],[-90.1223426,29.9418071],[-90.1223194,29.941819],[-90.1222906,29.9418218],[-90.1222651,29.9418107],[-90.1222608,29.9418166],[-90.1222562,29.9418138],[-90.1220584,29.9420648],[-90.1219817,29.942019],[-90.121973,29.9420297],[-90.1219262,29.9420012],[-90.1219337,29.9419902],[-90.1218506,29.9419406],[-90.1220497,29.9416879],[-90.1220379,29.9416808],[-90.1221091,29.9415904],[-90.1221205,29.9415972],[-90.1223196,29.9413447],[-90.1224052,29.9413962],[-90.1224116,29.9413869],[-90.1224574,29.941413],[-90.12245,29.9414227],[-90.1225267,29.9414685],[-90.122327,29.9417218]]]}},{"type":"Feature","id":327443285,"properties":{"osmId":327443285,"category":"academic","building":"yes","height":"15","name":"Norman Mayer Building"},"geometry":{"type":"Polygon","coordinates":[[[-90.1230393,29.936229],[-90.1230058,29.9362129],[-90.1229588,29.9362873],[-90.12303,29.9363214],[-90.1230077,29.9363567],[-90.1229722,29.9363397],[-90.1228677,29.936505],[-90.1226989,29.9364241],[-90.1227949,29.9362721],[-90.1228304,29.9362891],[-90.1229092,29.9361644],[-90.1228877,29.936154],[-90.1229622,29.936036],[-90.1229512,29.9360307],[-90.123027,29.9359108],[-90.1231907,29.9359893],[-90.1230393,29.936229]]]}},{"type":"Feature","id":327443288,"properties":{"osmId":327443288,"category":"academic","addr:housenumber":"6360","addr:street":"Freret Street","building":"garage","height":"25","name":"Recreational Sports Complex/Parking Garage","wheelchair":"yes"},"geometry":{"type":"Polygon","coordinates":[[[-90.1192171,29.9375397],[-90.1192354,29.9375148],[-90.1192273,29.9375003],[-90.119269,29.9374435],[-90.1192904,29.9374437],[-90.1195505,29.9370897],[-90.1202228,29.9374644],[-90.1202362,29.9374461],[-90.1203072,29.9374857],[-90.1202866,29.9375136],[-90.1203959,29.9375745],[-90.1200716,29.938016],[-90.1192171,29.9375397]]]}},{"type":"Feature","id":327443289,"properties":{"osmId":327443289,"category":"academic","building":"yes","height":"14","name":"Robert C. Cudd Hall","roof:shape":"hipped"},"geometry":{"type":"Polygon","coordinates":[[[-90.1222483,29.9369952],[-90.1223404,29.9368512],[-90.1225031,29.9369301],[-90.1224989,29.9369367],[-90.1226097,29.9369904],[-90.1225263,29.9371208],[-90.1224323,29.9370752],[-90.1224278,29.9370823],[-90.1222483,29.9369952]]]}},{"type":"Feature","id":327443290,"properties":{"osmId":327443290,"category":"academic","building":"yes","building:levels":"3","height":"16","name":"Mussafer Hall","roof:shape":"gabled","wikidata":"Q7851950","wikipedia":"en:Tulane University School of Social Work"},"geometry":{"type":"Polygon","coordinates":[[[-90.122293,29.9373244],[-90.1223601,29.9371024],[-90.1225139,29.9371442],[-90.122138,29.9377264],[-90.1220553,29.9376858],[-90.122293,29.9373244]]]}},{"type":"Feature","id":327443291,"properties":{"osmId":327443291,"category":"academic","building":"yes","building:levels":"2","height":"9","name":"Stallings Hall","roof:shape":"flat"},"geometry":{"type":"Polygon","coordinates":[[[-90.1216656,29.9349769],[-90.1218477,29.9350521],[-90.1217842,29.9351687],[-90.1217739,29.9351644],[-90.1217777,29.9351575],[-90.1217252,29.9351358],[-90.1216806,29.9352177],[-90.1217431,29.9352435],[-90.1216827,29.9353543],[-90.121501,29.9352792],[-90.1216656,29.9349769]]]}},{"type":"Feature","id":327443292,"properties":{"osmId":327443292,"category":"academic","building":"yes","height":"19","name":"Tilton Memorial Hall"},"geometry":{"type":"Polygon","coordinates":[[[-90.1236377,29.935458],[-90.1235668,29.9355716],[-90.1235859,29.9355807],[-90.1235483,29.9356409],[-90.1235287,29.9356316],[-90.1234571,29.9357463],[-90.1234433,29.9357398],[-90.1233569,29.9358783],[-90.1232232,29.935815],[-90.1233093,29.9356769],[-90.1232978,29.9356714],[-90.1233479,29.9355912],[-90.1233209,29.9355784],[-90.12339,29.9354678],[-90.1234169,29.9354805],[-90.1234781,29.9353824],[-90.1236377,29.935458]]]}},{"type":"Feature","id":327443293,"properties":{"osmId":327443293,"category":"academic","building":"yes","height":"12","name":"Warren House"},"geometry":{"type":"Polygon","coordinates":[[[-90.1203363,29.9412824],[-90.120261,29.9413895],[-90.1202056,29.94136],[-90.1201037,29.9415048],[-90.120121,29.941514],[-90.1200159,29.9416634],[-90.1200258,29.9416844],[-90.1200079,29.9417099],[-90.1199869,29.9417097],[-90.1199793,29.9417206],[-90.119973,29.9417172],[-90.1199391,29.9417655],[-90.1199448,29.9417685],[-90.11992,29.9418039],[-90.1199141,29.9418008],[-90.1198877,29.9418382],[-90.1199354,29.9418636],[-90.1198644,29.9419645],[-90.1195424,29.9417926],[-90.1196125,29.941693],[-90.1197543,29.9417686],[-90.1198361,29.9416523],[-90.1197754,29.9416199],[-90.119845,29.941521],[-90.1197664,29.941479],[-90.119813,29.9414128],[-90.1199819,29.9415029],[-90.1199959,29.941483],[-90.1200073,29.941489],[-90.1200161,29.9414765],[-90.1199702,29.9414519],[-90.1200849,29.9412889],[-90.1198191,29.9411472],[-90.1198947,29.9410424],[-90.1203363,29.9412824]]]}},{"type":"Feature","id":327443294,"properties":{"osmId":327443294,"category":"other","access":"private","addr:city":"New Orleans","addr:housenumber":"6365","addr:postcode":"70118","addr:state":"LA","addr:street":"Saint Charles Avenue","alt_name":"West Road Parking Garage","amenity":"parking","authentication:app":"yes","building":"garage","capacity:disabled":"5","height":"27","name":"West Road Garage","note":"Loyola University parking permit only; community member permits valid on 4th floor and above only; resident permit parking on weekends and holidays only, must exit by 6:00 AM next regular business day","operator":"Loyola University New Orleans","operator:wikidata":"Q172430","parking":"multi-storey","private:conditional":"residents @ (Sa-Su, PH, SH 00:00-30:00)","ref":"15","ref:ParkMobile":"2481"},"geometry":{"type":"Polygon","coordinates":[[[-90.1211127,29.936509],[-90.1210746,29.9364918],[-90.1208198,29.936377],[-90.1210436,29.9360001],[-90.1209851,29.9359737],[-90.121233,29.9355564],[-90.121255,29.9355193],[-90.1213927,29.9355814],[-90.1215208,29.9353657],[-90.1215804,29.935392],[-90.1215949,29.9353677],[-90.1216603,29.9353977],[-90.1215232,29.9356285],[-90.1214932,29.935615],[-90.121449,29.9356893],[-90.1215284,29.9357251],[-90.1215678,29.9357428],[-90.1211127,29.936509]]]}},{"type":"Feature","id":327443295,"properties":{"osmId":327443295,"category":"academic","building":"university","name":"Woldenberg Art Center"},"geometry":{"type":"Polygon","coordinates":[[[-90.1208106,29.9420392],[-90.120808,29.9420433],[-90.1205588,29.9419099],[-90.1205901,29.9418673],[-90.1205448,29.9418423],[-90.1207793,29.9415201],[-90.1209589,29.9416192],[-90.1209351,29.9416519],[-90.1211985,29.9417973],[-90.121224,29.9417624],[-90.1215102,29.9419204],[-90.1214144,29.942052],[-90.1213979,29.9420429],[-90.1213417,29.9421201],[-90.1216019,29.9422637],[-90.1215294,29.9423633],[-90.1215094,29.9423523],[-90.1214748,29.9423999],[-90.1208106,29.9420392]]]}},{"type":"Feature","id":327443298,"properties":{"osmId":327443298,"category":"academic","building":"yes"},"geometry":{"type":"Polygon","coordinates":[[[-90.12057,29.9426071],[-90.1206326,29.9426445],[-90.1205605,29.942736],[-90.1206252,29.9427746],[-90.1206019,29.9428042],[-90.1206208,29.9428155],[-90.1205844,29.9428617],[-90.1205636,29.9428492],[-90.1205436,29.9428746],[-90.1204164,29.9427981],[-90.12057,29.9426071]]]}},{"type":"Feature","id":327443299,"properties":{"osmId":327443299,"category":"academic","building":"university","building:levels":"3","height":"9","name":"Richardson Building","roof:shape":"hipped"},"geometry":{"type":"Polygon","coordinates":[[[-90.1219102,29.9363519],[-90.1216355,29.936507],[-90.1215772,29.9364286],[-90.1215501,29.9364439],[-90.1214599,29.9363228],[-90.1213994,29.936357],[-90.12137,29.9363174],[-90.1214041,29.936259],[-90.1214373,29.9362403],[-90.1214166,29.9362125],[-90.1216912,29.9360575],[-90.1219102,29.9363519]]]}},{"type":"Feature","id":327443300,"properties":{"osmId":327443300,"category":"academic","building":"university","building:levels":"2","height":"9","name":"Navy R.O.T.C. Building","roof:shape":"flat"},"geometry":{"type":"Polygon","coordinates":[[[-90.1201886,29.9385323],[-90.1203637,29.9386218],[-90.1203422,29.9386536],[-90.1203723,29.9386689],[-90.1203532,29.9386973],[-90.1203709,29.9387063],[-90.1202851,29.9388336],[-90.1202722,29.938827],[-90.1202547,29.9388529],[-90.1202173,29.9388338],[-90.1201947,29.9388674],[-90.1200223,29.9387793],[-90.1201886,29.9385323]]]}},{"type":"Feature","id":327443309,"properties":{"osmId":327443309,"category":"academic","building":"university","name":"Student Health Center"},"geometry":{"type":"Polygon","coordinates":[[[-90.1203299,29.9425845],[-90.1203013,29.9426214],[-90.1203474,29.9426485],[-90.1202839,29.9427304],[-90.1202358,29.9427021],[-90.1202096,29.9427359],[-90.1200224,29.9426257],[-90.1200497,29.9425905],[-90.1200316,29.9425798],[-90.1200953,29.9424977],[-90.1201137,29.9425085],[-90.120141,29.9424734],[-90.1203299,29.9425845]]]}},{"type":"Feature","id":327443310,"properties":{"osmId":327443310,"category":"academic","building":"yes"},"geometry":{"type":"Polygon","coordinates":[[[-90.1232079,29.9403053],[-90.1231114,29.9402488],[-90.1231526,29.9401953],[-90.1231437,29.94019],[-90.1231806,29.9401422],[-90.1231883,29.9401467],[-90.12322,29.9401056],[-90.1232251,29.9401086],[-90.1232356,29.940095],[-90.1232804,29.9401213],[-90.1232716,29.9401327],[-90.1233195,29.9401607],[-90.1232079,29.9403053]]]}},{"type":"Feature","id":327443312,"properties":{"osmId":327443312,"category":"academic","building":"university","name":"Telecommunications"},"geometry":{"type":"Polygon","coordinates":[[[-90.1184695,29.9389252],[-90.1185889,29.9389734],[-90.1185793,29.9389914],[-90.1185949,29.9389977],[-90.1185846,29.939017],[-90.1185692,29.9390108],[-90.1185218,29.9390997],[-90.1184766,29.9390814],[-90.1184711,29.9390917],[-90.1184564,29.9390857],[-90.1184616,29.9390759],[-90.118402,29.9390518],[-90.1184695,29.9389252]]]}},{"type":"Feature","id":327443315,"properties":{"osmId":327443315,"category":"academic","building":"yes","height":"13","name":"Paterson House"},"geometry":{"type":"Polygon","coordinates":[[[-90.1179435,29.9405044],[-90.1178643,29.9404684],[-90.1179925,29.9402543],[-90.1178226,29.9401771],[-90.1178916,29.9400495],[-90.1180458,29.94012],[-90.1181527,29.9399416],[-90.1179822,29.9398641],[-90.118023,29.939796],[-90.1182886,29.9399167],[-90.1182781,29.9399342],[-90.1183245,29.9399553],[-90.1181628,29.9402252],[-90.1181218,29.9402066],[-90.1179435,29.9405044]]]}},{"type":"Feature","id":327443316,"properties":{"osmId":327443316,"category":"academic","building":"university","name":"Caroline Richardson Building"},"geometry":{"type":"Polygon","coordinates":[[[-90.1204413,29.9419643],[-90.1205388,29.9420142],[-90.1205107,29.9420559],[-90.1205014,29.9420511],[-90.1204807,29.9420817],[-90.120581,29.9421362],[-90.1205895,29.9421251],[-90.1206464,29.9421543],[-90.1206405,29.942163],[-90.1206743,29.942181],[-90.1205441,29.9423645],[-90.1204173,29.9422978],[-90.1203747,29.9423611],[-90.1202178,29.9422804],[-90.1204413,29.9419643]]]}},{"type":"Feature","id":327443317,"properties":{"osmId":327443317,"category":"academic","building":"yes","height":"14"},"geometry":{"type":"Polygon","coordinates":[[[-90.119197,29.9359893],[-90.1192359,29.9359187],[-90.119184,29.9358982],[-90.1191929,29.9358837],[-90.119243,29.9359047],[-90.1192866,29.9358266],[-90.1195269,29.9359251],[-90.1195377,29.9359052],[-90.1195731,29.9359009],[-90.1196245,29.9358057],[-90.1198334,29.9358914],[-90.1197773,29.935995],[-90.1197914,29.9360008],[-90.1197708,29.9360389],[-90.1199301,29.9361042],[-90.1198509,29.936253],[-90.119197,29.9359893]]]}},{"type":"Feature","id":327443320,"properties":{"osmId":327443320,"category":"academic","building":"university","height":"21","name":"Sharp Hall"},"geometry":{"type":"Polygon","coordinates":[[[-90.1191235,29.9393651],[-90.1190781,29.9394507],[-90.1190499,29.9394394],[-90.1190297,29.9394775],[-90.1187576,29.9393681],[-90.1185676,29.9392917],[-90.1184871,29.9394434],[-90.1184417,29.9394252],[-90.1182629,29.9397626],[-90.1181237,29.9397066],[-90.1183761,29.9392305],[-90.1183199,29.939208],[-90.1183786,29.9390973],[-90.1184507,29.9391263],[-90.1184571,29.9391142],[-90.1184665,29.9391179],[-90.1184739,29.9391039],[-90.1191235,29.9393651]]]}},{"type":"Feature","id":327443322,"properties":{"osmId":327443322,"category":"academic","building":"university","description":"School of Architecture Building","height":"28","name":"Richardson Memorial Hall"},"geometry":{"type":"Polygon","coordinates":[[[-90.1217028,29.9359147],[-90.121586,29.9358584],[-90.1217091,29.9356647],[-90.1216789,29.9356501],[-90.1216925,29.9356288],[-90.121663,29.9356145],[-90.1217673,29.9354504],[-90.1218248,29.9354781],[-90.1219593,29.9352667],[-90.1220736,29.9353218],[-90.1219403,29.9355313],[-90.1219531,29.9355375],[-90.1219253,29.9355812],[-90.1219856,29.9356101],[-90.1219243,29.9357065],[-90.1218615,29.9356763],[-90.1218442,29.9357035],[-90.1218388,29.9357009],[-90.1217028,29.9359147]]]}},{"type":"Feature","id":327443331,"properties":{"osmId":327443331,"category":"academic","building":"university"},"geometry":{"type":"Polygon","coordinates":[[[-90.1219761,29.9428394],[-90.1219194,29.9429116],[-90.121947,29.9429281],[-90.1219811,29.9428847],[-90.1221023,29.9429569],[-90.1220933,29.9429674],[-90.1221128,29.9429791],[-90.1220655,29.9430384],[-90.1220468,29.9430271],[-90.1220042,29.9430818],[-90.122027,29.9430954],[-90.121985,29.9431489],[-90.1219905,29.9431522],[-90.121936,29.9432216],[-90.1217589,29.943116],[-90.1218125,29.9430478],[-90.1218824,29.9430894],[-90.1219458,29.9430087],[-90.1219154,29.9429906],[-90.1219102,29.9429971],[-90.1219084,29.9429961],[-90.121891,29.9430178],[-90.1218636,29.9430015],[-90.1218814,29.94298],[-90.1218707,29.9429735],[-90.1218449,29.9430063],[-90.1217794,29.9429642],[-90.1218183,29.942915],[-90.1217157,29.9428539],[-90.1216632,29.9429206],[-90.121602,29.9428841],[-90.1216122,29.9428711],[-90.121599,29.9428633],[-90.1216688,29.9427745],[-90.1216108,29.94274],[-90.1216587,29.942679],[-90.1217384,29.9427265],[-90.1217538,29.9427069],[-90.1219761,29.9428394]]]}},{"type":"Feature","id":327443332,"properties":{"osmId":327443332,"category":"academic","building":"yes"},"geometry":{"type":"Polygon","coordinates":[[[-90.1188573,29.9403506],[-90.1188239,29.9403324],[-90.1188523,29.9402933],[-90.1188856,29.9403115],[-90.1188573,29.9403506]]]}},{"type":"Feature","id":327443333,"properties":{"osmId":327443333,"category":"academic","building":"yes"},"geometry":{"type":"Polygon","coordinates":[[[-90.121519,29.9427368],[-90.1214875,29.9427775],[-90.1214473,29.9427539],[-90.1214788,29.9427132],[-90.121519,29.9427368]]]}},{"type":"Feature","id":327443337,"properties":{"osmId":327443337,"category":"academic","building":"yes"},"geometry":{"type":"Polygon","coordinates":[[[-90.121615,29.9385397],[-90.1216417,29.9384992],[-90.1216686,29.9385127],[-90.1216419,29.9385532],[-90.121615,29.9385397]]]}},{"type":"Feature","id":327443349,"properties":{"osmId":327443349,"category":"academic","building":"yes"},"geometry":{"type":"Polygon","coordinates":[[[-90.1205271,29.9428778],[-90.1205114,29.9428975],[-90.1204141,29.9428383],[-90.1204298,29.9428187],[-90.1205271,29.9428778]]]}},{"type":"Feature","id":327443353,"properties":{"osmId":327443353,"category":"academic","building":"yes"},"geometry":{"type":"Polygon","coordinates":[[[-90.1207324,29.9427746],[-90.1207957,29.9428124],[-90.1206128,29.943045],[-90.1205495,29.9430073],[-90.1207324,29.9427746]]]}},{"type":"Feature","id":327443357,"properties":{"osmId":327443357,"category":"academic","building":"yes"},"geometry":{"type":"Polygon","coordinates":[[[-90.1197334,29.9362488],[-90.1197483,29.9362195],[-90.1198556,29.9362609],[-90.1198406,29.9362902],[-90.1197334,29.9362488]]]}},{"type":"Feature","id":327443360,"properties":{"osmId":327443360,"category":"academic","building":"yes"},"geometry":{"type":"Polygon","coordinates":[[[-90.1212789,29.9430228],[-90.1213345,29.9429526],[-90.1214895,29.9430457],[-90.1214339,29.9431159],[-90.1212789,29.9430228]]]}},{"type":"Feature","id":327443368,"properties":{"osmId":327443368,"category":"academic","building":"yes"},"geometry":{"type":"Polygon","coordinates":[[[-90.1201304,29.9379758],[-90.1201962,29.937887],[-90.1202348,29.9379087],[-90.1201691,29.9379975],[-90.1201304,29.9379758]]]}},{"type":"Feature","id":327443376,"properties":{"osmId":327443376,"category":"religious","addr:housenumber":"7033","addr:street":"Freret Street","amenity":"place_of_worship","building":"yes","name":"Chabad Center of Tulane","religion":"jewish"},"geometry":{"type":"Polygon","coordinates":[[[-90.1229847,29.9399689],[-90.1230604,29.9400139],[-90.1229352,29.9401736],[-90.1228596,29.9401286],[-90.1229847,29.9399689]]]}},{"type":"Feature","id":327443382,"properties":{"osmId":327443382,"category":"academic","building":"yes"},"geometry":{"type":"Polygon","coordinates":[[[-90.1209075,29.9432242],[-90.1208771,29.943206],[-90.1209281,29.9431407],[-90.1209585,29.9431589],[-90.1209075,29.9432242]]]}},{"type":"Feature","id":327443386,"properties":{"osmId":327443386,"category":"academic","building":"yes"},"geometry":{"type":"Polygon","coordinates":[[[-90.1215758,29.9429987],[-90.1215511,29.9429839],[-90.1215841,29.9429423],[-90.1216088,29.9429572],[-90.1215758,29.9429987]]]}},{"type":"Feature","id":327443388,"properties":{"osmId":327443388,"category":"academic","building":"yes"},"geometry":{"type":"Polygon","coordinates":[[[-90.118716,29.9405495],[-90.1186814,29.9405307],[-90.1187093,29.9404922],[-90.1187438,29.9405111],[-90.118716,29.9405495]]]}},{"type":"Feature","id":327443389,"properties":{"osmId":327443389,"category":"academic","building":"yes"},"geometry":{"type":"Polygon","coordinates":[[[-90.1197279,29.9414609],[-90.1197652,29.9414814],[-90.11973,29.9415301],[-90.1196926,29.9415095],[-90.1197279,29.9414609]]]}},{"type":"Feature","id":327443409,"properties":{"osmId":327443409,"category":"academic","building":"yes","height":"32"},"geometry":{"type":"Polygon","coordinates":[[[-90.1191505,29.9394001],[-90.1191955,29.9393356],[-90.1190557,29.9392616],[-90.119147,29.9391306],[-90.1192633,29.9391922],[-90.1192464,29.9392165],[-90.1193514,29.939272],[-90.1193598,29.93926],[-90.1192666,29.9392107],[-90.1193181,29.9391368],[-90.1193097,29.9391323],[-90.1193392,29.93909],[-90.1193343,29.9390208],[-90.1193006,29.939003],[-90.1194073,29.93885],[-90.1194398,29.9388672],[-90.1195111,29.9388397],[-90.1195421,29.9387952],[-90.1195518,29.9388003],[-90.1196076,29.9387203],[-90.119694,29.938766],[-90.1197019,29.9387547],[-90.1198295,29.9388222],[-90.1198227,29.9388319],[-90.1198795,29.9388619],[-90.11986,29.9388898],[-90.1197541,29.9390417],[-90.1198099,29.9390712],[-90.1197165,29.9392051],[-90.1196636,29.9391771],[-90.1195295,29.9393796],[-90.1196787,29.9394585],[-90.1197331,29.9394873],[-90.119621,29.9396479],[-90.1196149,29.9396447],[-90.1195037,29.9398042],[-90.1193639,29.9397302],[-90.1193744,29.9397151],[-90.1193182,29.9396853],[-90.1194183,29.9395418],[-90.1191505,29.9394001]]]}},{"type":"Feature","id":327443410,"properties":{"osmId":327443410,"category":"academic","building":"yes","height":"17","name":"Weatherhead Hall"},"geometry":{"type":"Polygon","coordinates":[[[-90.1189972,29.9419999],[-90.1190352,29.9419515],[-90.1190608,29.9419657],[-90.1191743,29.9417808],[-90.1192866,29.9418394],[-90.1192951,29.9418244],[-90.1193373,29.9418453],[-90.119321,29.9418686],[-90.1193109,29.9418625],[-90.1192994,29.9418771],[-90.1193061,29.941882],[-90.119244,29.941983],[-90.11938,29.9420645],[-90.1194562,29.9419566],[-90.1194293,29.9419404],[-90.1194494,29.9419148],[-90.1194359,29.9419067],[-90.1194856,29.9418434],[-90.1195313,29.9418706],[-90.1195257,29.9418778],[-90.1195497,29.9418921],[-90.1195584,29.941881],[-90.1198139,29.9420332],[-90.1198275,29.9420158],[-90.1198525,29.9420307],[-90.1198288,29.9420609],[-90.1198174,29.9420542],[-90.1198028,29.9420728],[-90.1198049,29.9420748],[-90.1196497,29.942288],[-90.1196414,29.94228],[-90.1195906,29.9423488],[-90.1194643,29.9422795],[-90.1196161,29.9420776],[-90.1194745,29.9419985],[-90.1194229,29.9420787],[-90.1194557,29.9420984],[-90.1194291,29.9421349],[-90.1194148,29.9421264],[-90.119403,29.9421415],[-90.1194092,29.9421451],[-90.1193603,29.9422074],[-90.1192757,29.9421571],[-90.1192717,29.9421621],[-90.1189972,29.9419999]]]}},{"type":"Feature","id":327443411,"properties":{"osmId":327443411,"category":"academic","building":"yes","height":"18","name":"McAlister Auditorium"},"geometry":{"type":"Polygon","coordinates":[[[-90.1186877,29.9396847],[-90.118738,29.9397137],[-90.1187671,29.9396707],[-90.1188527,29.9397188],[-90.1188375,29.9397403],[-90.1188687,29.9397557],[-90.1189122,29.9397581],[-90.1189375,29.9397208],[-90.1190827,29.9398021],[-90.1190565,29.9398362],[-90.1190665,29.9398571],[-90.1190752,29.939878],[-90.1191181,29.9399029],[-90.1191371,29.939879],[-90.1191494,29.9398669],[-90.119173,29.9398585],[-90.119187,29.9398583],[-90.1192075,29.9398646],[-90.1192205,29.9398753],[-90.1192279,29.9398864],[-90.119231,29.9398991],[-90.1192313,29.9399142],[-90.1192198,29.9399333],[-90.1192079,29.9399487],[-90.1192363,29.939964],[-90.1192168,29.9399913],[-90.1192428,29.9400054],[-90.1191461,29.9401406],[-90.1191195,29.9401269],[-90.1191014,29.9401537],[-90.1190721,29.9401379],[-90.1190549,29.9401635],[-90.1190351,29.9401776],[-90.1190079,29.9401794],[-90.1189939,29.9401768],[-90.1189729,29.9401652],[-90.1189647,29.9401492],[-90.1189607,29.9401314],[-90.1189655,29.9401179],[-90.1189865,29.9400892],[-90.1189451,29.9400651],[-90.1189155,29.9400689],[-90.1188874,29.940069],[-90.1188659,29.9401031],[-90.1187188,29.9400238],[-90.118746,29.9399845],[-90.1187337,29.9399586],[-90.118695,29.9399395],[-90.1186802,29.9399601],[-90.1185931,29.9399132],[-90.1186241,29.9398698],[-90.1185748,29.939844],[-90.1186877,29.9396847]]]}},{"type":"Feature","id":327443412,"properties":{"osmId":327443412,"category":"academic","building":"university","height":"38","name":"Monroe Hall"},"geometry":{"type":"Polygon","coordinates":[[[-90.1187081,29.9389917],[-90.1185495,29.9389274],[-90.1188552,29.9383555],[-90.1188786,29.9383437],[-90.1188915,29.9383194],[-90.1190361,29.938378],[-90.1187081,29.9389917]]]}},{"type":"Feature","id":327443414,"properties":{"osmId":327443414,"category":"academic","building":"yes"},"geometry":{"type":"Polygon","coordinates":[[[-90.1225384,29.940149],[-90.1224299,29.9400829],[-90.1224897,29.9400085],[-90.1225614,29.9400521],[-90.1225893,29.9400174],[-90.122626,29.9400398],[-90.1225384,29.940149]]]}},{"type":"Feature","id":327443419,"properties":{"osmId":327443419,"category":"academic","building":"yes"},"geometry":{"type":"Polygon","coordinates":[[[-90.1183332,29.941104],[-90.1184019,29.9411351],[-90.1183932,29.9411498],[-90.1183763,29.941143],[-90.1183687,29.941156],[-90.1183169,29.9411316],[-90.1183332,29.941104]]]}},{"type":"Feature","id":327443424,"properties":{"osmId":327443424,"category":"academic","building":"yes","height":"11","name":"Katherine & William Mayer Residences"},"geometry":{"type":"Polygon","coordinates":[[[-90.1192443,29.9409743],[-90.1192318,29.9409686],[-90.1193413,29.9407868],[-90.1194017,29.9408144],[-90.1194021,29.9408138],[-90.1195893,29.9408993],[-90.1195909,29.9408965],[-90.1197177,29.9409551],[-90.1197217,29.9409485],[-90.1197621,29.9409693],[-90.1197568,29.9409764],[-90.1197729,29.9409837],[-90.1197754,29.9409807],[-90.1198205,29.9410054],[-90.119778,29.9410685],[-90.119796,29.9410798],[-90.1196762,29.941257],[-90.1196403,29.9412383],[-90.1196267,29.9412609],[-90.119578,29.9412386],[-90.1195847,29.9412275],[-90.1195599,29.9412162],[-90.1195843,29.9411757],[-90.1195514,29.9411589],[-90.1196177,29.9410586],[-90.119677,29.9410907],[-90.119711,29.9410426],[-90.1196106,29.940989],[-90.1195808,29.9410385],[-90.1195066,29.9410046],[-90.1195282,29.9409687],[-90.11948,29.9409467],[-90.119465,29.9409715],[-90.119393,29.9409382],[-90.1193988,29.9409284],[-90.1193717,29.9409164],[-90.1193024,29.9410264],[-90.1194316,29.9410867],[-90.1194133,29.9411156],[-90.1195057,29.9411578],[-90.1194654,29.9412247],[-90.1194357,29.9412111],[-90.1194119,29.9412506],[-90.1192705,29.9411861],[-90.1192914,29.9411513],[-90.1192463,29.9411307],[-90.1192314,29.9411554],[-90.1192238,29.941152],[-90.1191979,29.941195],[-90.1192467,29.9412173],[-90.1192402,29.941228],[-90.119253,29.9412338],[-90.1192328,29.9412673],[-90.1192211,29.9412619],[-90.1192108,29.941279],[-90.1192217,29.941284],[-90.1192017,29.941317],[-90.1191902,29.9413117],[-90.1191813,29.9413265],[-90.1191924,29.9413316],[-90.119173,29.9413638],[-90.119162,29.9413587],[-90.1191525,29.9413743],[-90.1191659,29.9413804],[-90.1191435,29.9414177],[-90.1191305,29.9414118],[-90.1191233,29.9414238],[-90.119134,29.9414286],[-90.119113,29.9414634],[-90.1191011,29.9414579],[-90.1190947,29.9414698],[-90.1190838,29.9414645],[-90.1190379,29.9415411],[-90.1189362,29.9414929],[-90.1192443,29.9409743]]]}},{"type":"Feature","id":327443426,"properties":{"osmId":327443426,"category":"academic","building":"yes","demolished:building":"yes","height":"9","name":"Bruff Commons"},"geometry":{"type":"Polygon","coordinates":[[[-90.1185757,29.9407096],[-90.1188938,29.9408569],[-90.1188626,29.9409081],[-90.1188915,29.9409215],[-90.1188515,29.9409866],[-90.1188207,29.9409723],[-90.1186566,29.9412394],[-90.1183404,29.941093],[-90.1185757,29.9407096]]]}},{"type":"Feature","id":327446304,"properties":{"osmId":327446304,"category":"academic","building":"yes","name":"Greenville Hall"},"geometry":{"type":"Polygon","coordinates":[[[-90.1277104,29.936746],[-90.127803,29.9366272],[-90.1277819,29.9366147],[-90.1277816,29.9365904],[-90.1277994,29.9365676],[-90.1278304,29.9365627],[-90.1279108,29.9366102],[-90.1278897,29.9366373],[-90.1279514,29.9366737],[-90.1280254,29.9365787],[-90.1280426,29.9365888],[-90.128049,29.9365806],[-90.1281305,29.9366288],[-90.1279354,29.9368791],[-90.1277104,29.936746]]]}},{"type":"Feature","id":327446470,"properties":{"osmId":327446470,"category":"academic","addr:housenumber":"7315","addr:street":"Dominican Street","building":"yes"},"geometry":{"type":"Polygon","coordinates":[[[-90.1289797,29.9367058],[-90.1289086,29.9366639],[-90.1290018,29.9365442],[-90.1290275,29.9365594],[-90.1290301,29.9365562],[-90.1290754,29.9365829],[-90.1289797,29.9367058]]]}},{"type":"Feature","id":327446472,"properties":{"osmId":327446472,"category":"academic","building":"yes","name":"St. Mary's Hall Visual Arts"},"geometry":{"type":"Polygon","coordinates":[[[-90.1281777,29.9358356],[-90.1282457,29.9357481],[-90.1282549,29.9357535],[-90.1283301,29.9356577],[-90.1283178,29.9356504],[-90.1283396,29.9356227],[-90.1284034,29.9356607],[-90.128413,29.9356484],[-90.1284522,29.9356717],[-90.1284163,29.9357175],[-90.1285547,29.9358],[-90.1285138,29.9358521],[-90.1283739,29.9357688],[-90.1283436,29.9358074],[-90.1284887,29.9358939],[-90.1284147,29.935989],[-90.1283829,29.9359701],[-90.1283894,29.9359617],[-90.1281777,29.9358356]]]}},{"type":"Feature","id":327446496,"properties":{"osmId":327446496,"category":"academic","building":"yes"},"geometry":{"type":"Polygon","coordinates":[[[-90.1284305,29.9373807],[-90.1283451,29.9374862],[-90.1283589,29.9374947],[-90.128342,29.9375156],[-90.128332,29.9375094],[-90.1283161,29.937529],[-90.1283042,29.9375216],[-90.1282665,29.9375681],[-90.1282143,29.937536],[-90.1281963,29.9375582],[-90.1280944,29.9374956],[-90.1281331,29.9374479],[-90.1280896,29.9374211],[-90.1281206,29.9373829],[-90.1281582,29.937406],[-90.1281975,29.9373575],[-90.1282182,29.9373701],[-90.1282829,29.9372901],[-90.1284305,29.9373807]]]}},{"type":"Feature","id":327614744,"properties":{"osmId":327614744,"category":"religious","addr:housenumber":"4926","addr:street":"South Claiborne Avenue","amenity":"place_of_worship","building":"yes","denomination":"jehovahs_witness","religion":"christian"},"geometry":{"type":"Polygon","coordinates":[[[-90.1077823,29.940031],[-90.1076052,29.940025],[-90.1076068,29.9399877],[-90.1076009,29.9399875],[-90.1076033,29.9399331],[-90.1076304,29.9399341],[-90.1076373,29.9397812],[-90.1077932,29.9397865],[-90.1077823,29.940031]]]}},{"type":"Feature","id":327838595,"properties":{"osmId":327838595,"category":"library","addr:city":"New Orleans","addr:housenumber":"5120","addr:postcode":"70115","addr:state":"LA","addr:street":"Saint Charles Avenue","amenity":"library","building":"yes","ele":"2","gnis:feature_id":"550645","name":"New Orleans Public Library - Milton H Latter Branch","opening_hours":"Mo-Th 10:00-20:00; Fr-Sa 10:00-17:00; Su 13:00-17:00","phone":"+1 504-596-2625","source":"USGS Geonames","website":"https://nolalibrary.org/"},"geometry":{"type":"Polygon","coordinates":[[[-90.110128,29.9265703],[-90.1101911,29.9265723],[-90.1101945,29.9264695],[-90.1103336,29.9264751],[-90.1103294,29.9265552],[-90.1103685,29.9265568],[-90.1103661,29.9266026],[-90.1103804,29.9266032],[-90.1103762,29.9266816],[-90.1103551,29.9266808],[-90.1103511,29.9267565],[-90.1103141,29.926755],[-90.1103138,29.926762],[-90.1101544,29.9267555],[-90.1101548,29.9267486],[-90.1101187,29.9267472],[-90.110128,29.9265703]]]}},{"type":"Feature","id":946763877,"properties":{"osmId":946763877,"category":"academic","building":"university","name":"Barbara Greenbaum House"},"geometry":{"type":"Polygon","coordinates":[[[-90.122978,29.941387],[-90.1229192,29.9414638],[-90.1232061,29.9416281],[-90.123405,29.9413642],[-90.1232892,29.941299],[-90.1228712,29.9410545],[-90.1227195,29.9412503],[-90.1228071,29.9413039],[-90.1228192,29.9412848],[-90.1228791,29.9413233],[-90.1229455,29.9412443],[-90.1229798,29.9412652],[-90.1230028,29.9412372],[-90.1231866,29.9413563],[-90.1231072,29.9414558],[-90.122978,29.941387]]]}},{"type":"Feature","id":1033068916,"properties":{"osmId":1033068916,"category":"academic","building":"yes","name":"Goldring/Woldenburg Buisness Complex"},"geometry":{"type":"Polygon","coordinates":[[[-90.11986,29.9388898],[-90.12001,29.9389647],[-90.1199746,29.9389914],[-90.1199561,29.9390354],[-90.1199499,29.9390768],[-90.1199453,29.9391182],[-90.1199191,29.9391462],[-90.1198929,29.9391502],[-90.1198667,29.9391769],[-90.1198575,29.939201],[-90.1198667,29.9392397],[-90.1198544,29.9392757],[-90.1198251,29.9392931],[-90.1198036,29.9393118],[-90.119799,29.9393358],[-90.1197913,29.9393718],[-90.1197758,29.9393932],[-90.1197404,29.9394066],[-90.1197127,29.9394199],[-90.1196911,29.9394453],[-90.1196787,29.9394585],[-90.1195295,29.9393796],[-90.1196636,29.9391771],[-90.1197165,29.9392051],[-90.1198099,29.9390712],[-90.1197541,29.9390417],[-90.11986,29.9388898]]]}}]}