{"type":"FeatureCollection","features":[{"type":"Feature","id":60008651,"properties":{"osmId":60008651,"category":"religious","addr:city":"Sacramento","addr:housenumber":"1019","addr:postcode":"95814","addr:state":"CA","addr:street":"11th Street","amenity":"place_of_worship","building":"cathedral","denomination":"roman_catholic","diocese":"Sacramento","ele":"8","height":"66","image":"https://commons.wikimedia.org/wiki/File:Blessed_Sacrament_Cathedral_in_Sacramento_California_01.jpg","image_1":"https://commons.wikimedia.org/wiki/File:Blessed_Sacrament_Cathedral_in_Sacramento_California_Sign.jpg","name":"Cathedral of the Blessed Sacrament","phone":"+1 916-444-3071","religion":"christian","source":"Yahoo,GNIS","website":"https://www.cathedralsacramento.org/","website_1":"https://www.scd.org","wikidata":"Q940570","_wikiTried":true},"geometry":{"type":"Polygon","coordinates":[[[-121.4919872,38.579096],[-121.4920615,38.5791142],[-121.4920446,38.5791565],[-121.4921937,38.5791929],[-121.4921854,38.5792136],[-121.4922538,38.5792304],[-121.4922697,38.5791924],[-121.4922975,38.5791871],[-121.492307,38.579177],[-121.4923208,38.5791449],[-121.4923351,38.5791114],[-121.4923459,38.5790863],[-121.4923623,38.579048],[-121.4923769,38.579014],[-121.492383,38.5789997],[-121.4923793,38.5789832],[-121.492366,38.5789735],[-121.4923838,38.5789305],[-121.4923135,38.5789128],[-121.4923063,38.5789303],[-121.4920853,38.5788746],[-121.492097,38.5788462],[-121.4918562,38.5787855],[-121.4918462,38.5788098],[-121.4917242,38.5787791],[-121.4917031,38.5788283],[-121.4916147,38.5790355],[-121.4917062,38.5790579],[-121.4916983,38.5790772],[-121.4917373,38.579087],[-121.4917319,38.5791],[-121.4918042,38.5791181],[-121.4918016,38.5791246],[-121.4918944,38.5791475],[-121.4918971,38.5791409],[-121.4919628,38.579157],[-121.4919872,38.579096]]]}},{"type":"Feature","id":62147980,"properties":{"osmId":62147980,"category":"religious","amenity":"place_of_worship","building":"yes","denomination":"presbyterian","ele":"7","name":"Westminster Presbyterian Church","religion":"christian","source":"Yahoo,GNIS","wikidata":"Q16243236","_wikiTried":true},"geometry":{"type":"Polygon","coordinates":[[[-121.4910381,38.5745845],[-121.4912131,38.5741874],[-121.4907068,38.5740471],[-121.4905359,38.5744486],[-121.4910381,38.5745845]]]}},{"type":"Feature","id":120719540,"properties":{"osmId":120719540,"category":"library","addr:state":"CA","amenity":"library","building":"public","building:levels":"6","gnis:feature_id":"1826931","name":"California State Resources Agency Library","source":"USGS Geonames","wikidata":"Q5021042","_wikiTried":true},"geometry":{"type":"Polygon","coordinates":[[[-121.4966228,38.5760765],[-121.4967891,38.5756907],[-121.4960219,38.5754768],[-121.4959836,38.575559],[-121.4960434,38.5755774],[-121.4960541,38.5756236],[-121.496038,38.5756739],[-121.4960533,38.5757225],[-121.4960533,38.5757812],[-121.4961292,38.5758039],[-121.4961016,38.5758525],[-121.4961131,38.5758962],[-121.4961722,38.5759339],[-121.4961636,38.5759551],[-121.4966228,38.5760765]]]}},{"type":"Feature","id":252838130,"properties":{"osmId":252838130,"category":"academic","addr:city":"Sacramento","addr:housenumber":"1","addr:postcode":"95814","addr:state":"CA","addr:street":"Capitol Mall","amenity":"university","building":"university","building:levels":"8","education":"university","name":"Drexel University Sacramento","_wikiTried":true},"geometry":{"type":"Polygon","coordinates":[[[-121.506593,38.5804905],[-121.5062583,38.5804012],[-121.506275,38.580363],[-121.5062288,38.5803507],[-121.5060945,38.580313],[-121.505932,38.5806585],[-121.5055997,38.5805625],[-121.5056138,38.5805325],[-121.5055089,38.5805022],[-121.505549,38.5804174],[-121.5057356,38.5802281],[-121.5057585,38.5802353],[-121.5057694,38.5802122],[-121.5057836,38.5801907],[-121.5058093,38.5801629],[-121.5058417,38.5801429],[-121.5058767,38.5801308],[-121.5059186,38.5801224],[-121.5059614,38.5801259],[-121.5060656,38.5801532],[-121.5060696,38.5801422],[-121.5061964,38.5801758],[-121.5062991,38.5802024],[-121.5063501,38.5802174],[-121.5063621,38.5801924],[-121.5066974,38.5802807],[-121.506593,38.5804905]]]}},{"type":"Feature","id":313991370,"properties":{"osmId":313991370,"category":"athletic","addr:city":"Sacramento","addr:housenumber":"500","addr:postcode":"95814","addr:state":"CA","addr:street":"David J Stern Walk","building":"civic","leisure":"stadium","name":"Golden 1 Center","name:en":"Golden 1 Center","name:zh":"金州第一中心","sport":"basketball","toilets:wheelchair":"yes","website":"https://www.golden1center.com","wheelchair":"yes","wikidata":"Q7011384","wikipedia":"en:Golden 1 Center","_wikiTried":true},"geometry":{"type":"Polygon","coordinates":[[[-121.5004832,38.5803083],[-121.5004373,38.5804256],[-121.5003856,38.580545],[-121.5003266,38.5806744],[-121.5002819,38.5807366],[-121.5001863,38.5808609],[-121.5001601,38.5808861],[-121.5001198,38.5809141],[-121.5000717,38.5809289],[-121.5000335,38.5809355],[-121.4996887,38.5809574],[-121.4996126,38.5809474],[-121.4994992,38.580925],[-121.4993979,38.5809003],[-121.4993048,38.5808715],[-121.4992242,38.580843],[-121.4991555,38.5808097],[-121.4991033,38.5807727],[-121.4990524,38.5807185],[-121.4990138,38.580662],[-121.4989782,38.5806026],[-121.4989399,38.5805249],[-121.498913,38.5804479],[-121.498446,38.5803241],[-121.4984562,38.5803006],[-121.498596,38.5799802],[-121.4986375,38.5798872],[-121.4986505,38.5798599],[-121.4985836,38.579841],[-121.4986008,38.5798005],[-121.4986725,38.5796322],[-121.4987106,38.5795398],[-121.4987276,38.5794956],[-121.498768,38.5793971],[-121.5000926,38.579747],[-121.5002175,38.5797806],[-121.500252,38.5798024],[-121.5002843,38.5798413],[-121.5003448,38.5799143],[-121.5004007,38.5799975],[-121.5004571,38.5801013],[-121.5004938,38.5801796],[-121.5005037,38.5802162],[-121.500496,38.5802605],[-121.5004832,38.5803083]]]}},{"type":"Feature","id":331127165,"properties":{"osmId":331127165,"category":"library","addr:city":"Sacramento","addr:housenumber":"828","addr:postcode":"95814","addr:state":"CA","addr:street":"I Street","amenity":"library","building":"office","ele":"9","gnis:feature_id":"1826936","name":"Sacramento Central Public Library","phone":"+1 916 264 2700","source":"USGS Geonames","source:geometry":"Bing","website":"https://www.saclibrary.org/","_wikiTried":true},"geometry":{"type":"Polygon","coordinates":[[[-121.4956351,38.5818338],[-121.495592,38.5819329],[-121.4951182,38.5818068],[-121.4951236,38.5817945],[-121.495029,38.5817693],[-121.4950667,38.5816826],[-121.4946843,38.5815809],[-121.4947453,38.5814407],[-121.4947824,38.5813554],[-121.4951649,38.5814572],[-121.4951333,38.5815298],[-121.4952674,38.5815655],[-121.4957017,38.581681],[-121.4956351,38.5818338]]]}},{"type":"Feature","id":331292612,"properties":{"osmId":331292612,"category":"library","addr:city":"Sacramento","addr:housenumber":"111","addr:postcode":"95814","addr:state":"CA","addr:street":"I Street","amenity":"library","building":"commercial","email":"library.csrm@parks.ca.gov","name":"California State Railroad Museum Library and Archivers","opening_hours":"Mo-Fr 08:00-17:00 || \"by appointment\"","operator":"California Department of Parks and Recreation","operator:short":"California State Parks","operator:type":"government","operator:website":"https://www.parks.ca.gov/","operator:wikidata":"Q2933976","operator:wikipedia":"California State Parks","phone":"+1 916-323-8073","source:geometry":"Bing","website":"https://www.californiarailroad.museum/visit/library","_wikiTried":true},"geometry":{"type":"Polygon","coordinates":[[[-121.5044256,38.584799],[-121.5042912,38.5847633],[-121.5043131,38.584713],[-121.5043805,38.5845584],[-121.5045148,38.5845941],[-121.5044256,38.584799]]]}},{"type":"Feature","id":331343907,"properties":{"osmId":331343907,"category":"other","addr:city":"Sacramento","addr:housenumber":"1800","addr:state":"CA","addr:street":"I Street","amenity":"university","building":"yes","name":"State Capital Center","operator":"University of Southern California","phone":"+1-916-637-8970","source:geometry":"Bing","website":"https://priceschool.usc.edu/programs/sacramento/about/scc/","_wikiTried":true},"geometry":{"type":"Polygon","coordinates":[[[-121.4820094,38.5783556],[-121.4817504,38.5782866],[-121.4817729,38.5782351],[-121.4818629,38.5780285],[-121.4818959,38.5779528],[-121.4819488,38.5779669],[-121.4819765,38.5779033],[-121.4820242,38.577916],[-121.4820307,38.5779011],[-121.482189,38.5779433],[-121.4820094,38.5783556]]]}},{"type":"Feature","id":438205117,"properties":{"osmId":438205117,"category":"library","amenity":"library","building":"yes","name":"Sacramento County Public Law Library","_wikiTried":true},"geometry":{"type":"Polygon","coordinates":[[[-121.4928198,38.584908],[-121.4929226,38.5846912],[-121.4926289,38.5846061],[-121.4925261,38.5848228],[-121.4928198,38.584908]]]}},{"type":"Feature","id":534677855,"properties":{"osmId":534677855,"category":"religious","building":"church"},"geometry":{"type":"Polygon","coordinates":[[[-121.5014126,38.5685005],[-121.5013074,38.5684743],[-121.5013675,38.5683262],[-121.5014727,38.5683523],[-121.5014126,38.5685005]]]}},{"type":"Feature","id":545123213,"properties":{"osmId":545123213,"category":"academic","addr:housenumber":"1630","addr:street":"12th Street","building":"school","building:levels":"1"},"geometry":{"type":"Polygon","coordinates":[[[-121.4942259,38.572123],[-121.4943859,38.5721652],[-121.4942916,38.5723838],[-121.4941316,38.5723416],[-121.4942259,38.572123]]]}},{"type":"Feature","id":611931761,"properties":{"osmId":611931761,"category":"religious","building":"church"},"geometry":{"type":"Polygon","coordinates":[[[-121.5014476,38.5702838],[-121.5012751,38.5706863],[-121.5014922,38.5707432],[-121.5015055,38.5707121],[-121.501526,38.5707175],[-121.5015936,38.57056],[-121.5015735,38.5705548],[-121.501587,38.5705233],[-121.5015404,38.5705111],[-121.5016186,38.5703286],[-121.5014476,38.5702838]]]}},{"type":"Feature","id":685623463,"properties":{"osmId":685623463,"category":"religious","amenity":"place_of_worship","building":"yes","denomination":"lutheran","name":"Saint Johns Lutheran Church","religion":"christian","_wikiTried":true},"geometry":{"type":"Polygon","coordinates":[[[-121.484543,38.5759195],[-121.4845776,38.575836],[-121.484533,38.5758281],[-121.4845769,38.5757325],[-121.4846222,38.5757421],[-121.4846407,38.5757037],[-121.4845815,38.5756874],[-121.4845853,38.5756784],[-121.4845722,38.5756748],[-121.4845984,38.5756141],[-121.4844923,38.5755846],[-121.4844692,38.5756471],[-121.4844561,38.5756423],[-121.4844546,38.5756531],[-121.4844061,38.5756435],[-121.4844107,38.5756297],[-121.4843369,38.5756123],[-121.4843292,38.5756345],[-121.4842469,38.5756123],[-121.484193,38.5757445],[-121.4842976,38.5757716],[-121.4842653,38.5758492],[-121.4841577,38.5758209],[-121.4841053,38.575949],[-121.4842915,38.5759971],[-121.4843092,38.5759616],[-121.48432,38.5759857],[-121.484353,38.5760097],[-121.4843923,38.5760176],[-121.4844338,38.5760176],[-121.4844707,38.5760013],[-121.4844969,38.5759791],[-121.484503,38.5759622],[-121.4845146,38.5759652],[-121.4845361,38.5759183],[-121.484543,38.5759195]]]}},{"type":"Feature","id":823294936,"properties":{"osmId":823294936,"category":"religious","building":"church"},"geometry":{"type":"Polygon","coordinates":[[[-121.4948952,38.5698504],[-121.4948362,38.5697382],[-121.4947303,38.5697718],[-121.4947209,38.5697529],[-121.4946163,38.5697938],[-121.4946243,38.5698148],[-121.4945854,38.5698871],[-121.4946069,38.5699112],[-121.494678,38.5699333],[-121.4946994,38.569928],[-121.4947048,38.5699406],[-121.4948107,38.5699008],[-121.494804,38.5698871],[-121.4948952,38.5698504]]]}},{"type":"Feature","id":1223932324,"properties":{"osmId":1223932324,"category":"religious","building":"yes"},"geometry":{"type":"Polygon","coordinates":[[[-121.4881959,38.5819937],[-121.4881792,38.5820337],[-121.4881886,38.5820361],[-121.4881809,38.5820544],[-121.4881981,38.5820587],[-121.4881925,38.5820721],[-121.4882665,38.582091],[-121.4882632,38.582099],[-121.4883145,38.5821122],[-121.4883137,38.5821204],[-121.488378,38.5821368],[-121.4884144,38.5820494],[-121.4881959,38.5819937]]]}},{"type":"Feature","id":1223932328,"properties":{"osmId":1223932328,"category":"religious","building":"church"},"geometry":{"type":"Polygon","coordinates":[[[-121.4882255,38.5822535],[-121.4882047,38.5822481],[-121.4882002,38.5822351],[-121.4881889,38.5822269],[-121.4881738,38.5822245],[-121.488155,38.5822257],[-121.4881437,38.5822316],[-121.4881225,38.5822261],[-121.488113,38.5822484],[-121.488108,38.5822471],[-121.488071,38.5823342],[-121.4880833,38.5823373],[-121.4880675,38.5823744],[-121.4881135,38.5823864],[-121.4881591,38.5823982],[-121.4881738,38.5823635],[-121.4881842,38.5823662],[-121.4882218,38.5822776],[-121.4882159,38.5822761],[-121.4882255,38.5822535]]]}},{"type":"Feature","id":1223932329,"properties":{"osmId":1223932329,"category":"religious","building":"yes"},"geometry":{"type":"Polygon","coordinates":[[[-121.4882038,38.5820935],[-121.4881617,38.5820832],[-121.4881479,38.5821175],[-121.4881899,38.5821278],[-121.4882038,38.5820935]]]}}]}