{"type":"FeatureCollection","features":[{"type":"Feature","id":60726107,"properties":{"osmId":60726107,"category":"athletic","addr:city":"Fairbanks","addr:housenumber":"2010","addr:postcode":"99701","addr:state":"AK","addr:street":"2nd Avenue","building":"yes","leisure":"sports_centre","name":"Carlson Center","phone":"+1-907-451-7800","sport":"multi;ice_hockey;basketball","website":"https://fnsb.gov/985/Carlson-Center","wikidata":"Q5042905"},"geometry":{"type":"Polygon","coordinates":[[[-147.7649375,64.8424043],[-147.7649316,64.8423975],[-147.7649033,64.8423646],[-147.7648899,64.8423491],[-147.7648755,64.8423323],[-147.7647439,64.8421798],[-147.7647209,64.8421532],[-147.7647666,64.8421462],[-147.764826,64.842137],[-147.7648853,64.8421278],[-147.7649113,64.8421237],[-147.7649039,64.8421151],[-147.764911,64.8421139],[-147.76477,64.8419496],[-147.7647623,64.8419406],[-147.7646563,64.8419203],[-147.7646285,64.841915],[-147.7644916,64.8418874],[-147.7644038,64.8417855],[-147.7643819,64.8417812],[-147.7642461,64.8417545],[-147.7641065,64.841727],[-147.7640718,64.8417201],[-147.7640037,64.8417306],[-147.7638971,64.8417471],[-147.7637874,64.841764],[-147.763516,64.8417081],[-147.7633901,64.8418257],[-147.7632774,64.8418429],[-147.7631857,64.8418569],[-147.7631207,64.8418668],[-147.7631041,64.8418818],[-147.7630986,64.8418867],[-147.7630024,64.8419732],[-147.762956,64.8420148],[-147.7629636,64.8420236],[-147.7634917,64.8426352],[-147.7635935,64.8426556],[-147.7637141,64.8426797],[-147.7637435,64.8426856],[-147.7638575,64.8426677],[-147.7638846,64.8426634],[-147.7639135,64.8426589],[-147.76421,64.8426125],[-147.7643132,64.8427326],[-147.7645977,64.8426884],[-147.7646879,64.8426744],[-147.7647956,64.8426577],[-147.7646918,64.8425369],[-147.7646998,64.8425357],[-147.764748,64.8425281],[-147.7647963,64.8425206],[-147.7648159,64.8425175],[-147.7649375,64.8424043]]]}},{"type":"Feature","id":60779941,"properties":{"osmId":60779941,"category":"academic","building":"school"},"geometry":{"type":"Polygon","coordinates":[[[-147.7238642,64.8472415],[-147.7235395,64.8472681],[-147.7233671,64.8468891],[-147.7236918,64.8468624],[-147.7238642,64.8472415]]]}},{"type":"Feature","id":60779944,"properties":{"osmId":60779944,"category":"religious","amenity":"place_of_worship","building":"church","name":"Immaculate Conception Parish","religion":"christian","wikidata":"Q6004366","wikipedia":"en:Immaculate Conception Church (Fairbanks, Alaska)"},"geometry":{"type":"Polygon","coordinates":[[[-147.7219271,64.8454632],[-147.7218028,64.845474],[-147.7217868,64.8454407],[-147.7216475,64.8454528],[-147.7216311,64.8454189],[-147.7214785,64.8454321],[-147.7214293,64.8453299],[-147.7216406,64.8453115],[-147.721575,64.8451751],[-147.7216789,64.8451661],[-147.72178,64.8451573],[-147.7219271,64.8454632]]]}},{"type":"Feature","id":60952127,"properties":{"osmId":60952127,"category":"medical","addr:housenumber":"1001","addr:street":"Noble Street","amenity":"clinic","building":"yes","healthcare":"clinic","name":"Tanana Valley Clinc","opening_hours":"Mo-Fr 08:00-17:00"},"geometry":{"type":"Polygon","coordinates":[[[-147.713902,64.8392691],[-147.7130979,64.8393163],[-147.7130543,64.839182],[-147.7129517,64.839188],[-147.7129195,64.8390888],[-147.7130221,64.8390828],[-147.7129739,64.8389344],[-147.713778,64.8388872],[-147.713902,64.8392691]]]}},{"type":"Feature","id":108849536,"properties":{"osmId":108849536,"category":"library","addr:city":"Fairbanks","addr:housenumber":"1215","addr:postcode":"99701","addr:state":"AK","addr:street":"Cowles Street","amenity":"library","building":"public","name":"Noel Wien Public Library","opening_hours":"Mo-We 10:00-20:00; Th-Fr 10:00-18:00; Sa 10:00-17:00","operator":"Fairbanks North Star Borough Library System","operator:type":"public","phone":"+1 907-459-1020","website":"https://www.fnsb.gov/613/Noel-Wien-Public-Library"},"geometry":{"type":"Polygon","coordinates":[[[-147.7378324,64.8381738],[-147.7377458,64.8382142],[-147.7373842,64.8382144],[-147.7373849,64.8383928],[-147.73731,64.8383928],[-147.7373098,64.8383261],[-147.7367298,64.8383266],[-147.7365237,64.8382435],[-147.7365233,64.8381599],[-147.7363319,64.8381601],[-147.7363316,64.8380842],[-147.7362503,64.8380842],[-147.7362499,64.8379966],[-147.7356376,64.837997],[-147.7356366,64.8377688],[-147.7358321,64.8376865],[-147.7363832,64.8376861],[-147.7365844,64.8376035],[-147.7373127,64.837603],[-147.7373133,64.8377335],[-147.7377034,64.8377332],[-147.7378978,64.8378171],[-147.7378982,64.8379092],[-147.7377026,64.8379094],[-147.737703,64.8379922],[-147.7376128,64.8379923],[-147.7376129,64.8380246],[-147.7378318,64.8380245],[-147.7378324,64.8381738]]]}},{"type":"Feature","id":203717762,"properties":{"osmId":203717762,"category":"academic","addr:city":"Fairbanks","addr:housenumber":"1450","addr:postcode":"99701","addr:state":"AK","addr:street":"Cowles Street","building":"school"},"geometry":{"type":"Polygon","coordinates":[[[-147.7353905,64.8348063],[-147.7349063,64.8348598],[-147.7349068,64.8348708],[-147.7337878,64.8349974],[-147.7336104,64.8347043],[-147.7347338,64.8345802],[-147.7347456,64.8345923],[-147.7352158,64.83454],[-147.7350265,64.8341845],[-147.7361101,64.8340567],[-147.7361316,64.8340761],[-147.736263,64.8340602],[-147.7362308,64.8345027],[-147.7362978,64.8345038],[-147.7362871,64.8345631],[-147.7362227,64.8345723],[-147.7362227,64.8348871],[-147.7354986,64.8349623],[-147.7353905,64.8348063]]]}},{"type":"Feature","id":203717772,"properties":{"osmId":203717772,"category":"medical","amenity":"clinic","building":"yes","healthcare":"clinic","name":"Fairbanks Imaging Center","source":"Bing"},"geometry":{"type":"Polygon","coordinates":[[[-147.7394596,64.830259],[-147.7389407,64.830258],[-147.7389403,64.8302985],[-147.7386533,64.830298],[-147.7386537,64.8302592],[-147.738624,64.8302591],[-147.7386243,64.8302225],[-147.7385401,64.8302224],[-147.7385411,64.8301297],[-147.7386202,64.8301298],[-147.7386206,64.8300924],[-147.7386406,64.8300924],[-147.7386416,64.8299933],[-147.7386743,64.8299934],[-147.7386752,64.8299049],[-147.738698,64.8299049],[-147.7386989,64.8298168],[-147.7387246,64.8298169],[-147.7387271,64.829572],[-147.7393642,64.8295731],[-147.7393598,64.8300044],[-147.7394622,64.8300046],[-147.7394614,64.8300838],[-147.7394596,64.830259]]]}},{"type":"Feature","id":203717789,"properties":{"osmId":203717789,"category":"medical","addr:city":"Fairbanks","addr:housenumber":"1650","addr:postcode":"99701","addr:street":"Cowles Street","amenity":"hospital","beds":"152","building":"hospital","emergency":"yes","healthcare":"hospital","name":"Fairbanks Memorial Hospital","phone":"+1 907 452 8181","source":"Bing","website":"http://www.fmhdc.com/","wikidata":"Q50036850"},"geometry":{"type":"Polygon","coordinates":[[[-147.743749,64.8311082],[-147.7434701,64.8311629],[-147.7434889,64.8311857],[-147.7431992,64.8312336],[-147.7431777,64.8312142],[-147.7428854,64.8312679],[-147.743116,64.8314914],[-147.7430248,64.8315074],[-147.7431162,64.8315986],[-147.742823,64.8316504],[-147.7427291,64.8315626],[-147.7426361,64.8315758],[-147.7423805,64.8313162],[-147.7420157,64.8313801],[-147.7420723,64.8314339],[-147.7418634,64.8314755],[-147.7417025,64.8313066],[-147.7412733,64.8313842],[-147.7413189,64.8314298],[-147.7412036,64.8314469],[-147.7408576,64.8315154],[-147.741048,64.8317184],[-147.7398518,64.831942],[-147.7399215,64.8320139],[-147.7398706,64.8320264],[-147.7400234,64.832177],[-147.7400449,64.8321724],[-147.74012,64.8322431],[-147.7402514,64.8322226],[-147.7403352,64.832315],[-147.740348,64.832313],[-147.7404191,64.8323866],[-147.740407,64.8323874],[-147.7406082,64.8325842],[-147.7405572,64.8325927],[-147.7406403,64.8326749],[-147.7396949,64.8328448],[-147.739711,64.8328608],[-147.7394521,64.8329064],[-147.7394226,64.8328768],[-147.739352,64.8328889],[-147.7392845,64.8329007],[-147.7391289,64.8327479],[-147.7391938,64.8327358],[-147.739255,64.8327245],[-147.7392912,64.8327176],[-147.7392496,64.8326703],[-147.7393408,64.8326538],[-147.7392195,64.8325311],[-147.7389479,64.8325796],[-147.7388607,64.8324884],[-147.7388245,64.8324946],[-147.7387387,64.8324108],[-147.7387749,64.832404],[-147.7386555,64.8322842],[-147.7385952,64.8322945],[-147.7386421,64.8323424],[-147.7382961,64.8324051],[-147.7383068,64.8324165],[-147.7379179,64.8324872],[-147.7379058,64.8324758],[-147.7375223,64.8325437],[-147.7373627,64.832388],[-147.737482,64.832368],[-147.7374968,64.8323812],[-147.737647,64.8323521],[-147.7375706,64.8322768],[-147.7377342,64.8322505],[-147.7376658,64.8321821],[-147.7377047,64.8321753],[-147.7376966,64.8321673],[-147.7379099,64.8321296],[-147.7378857,64.8321011],[-147.7378522,64.8320971],[-147.7376671,64.8319055],[-147.7376148,64.8319158],[-147.7376204,64.8319259],[-147.7374916,64.8319363],[-147.737395,64.8319442],[-147.7372897,64.8317326],[-147.7373897,64.8317218],[-147.7375035,64.8317096],[-147.7375122,64.831711],[-147.7375343,64.8317076],[-147.7374217,64.8315838],[-147.7373709,64.8314286],[-147.7374586,64.831412],[-147.7375103,64.8314753],[-147.7380621,64.831379],[-147.7380916,64.8314121],[-147.7387118,64.8312998],[-147.7381829,64.8307533],[-147.7382727,64.8307322],[-147.7382223,64.8306849],[-147.7383363,64.8306616],[-147.7386099,64.8306108],[-147.7385978,64.8305954],[-147.7387346,64.8305697],[-147.7388258,64.8306627],[-147.7387628,64.8306741],[-147.7391559,64.8310721],[-147.7391688,64.8310704],[-147.7392402,64.8310608],[-147.7393207,64.8311321],[-147.7396667,64.8310694],[-147.7398866,64.8312986],[-147.7409059,64.8311184],[-147.7413216,64.8311412],[-147.741496,64.8311082],[-147.7414209,64.8310363],[-147.7420083,64.8309268],[-147.7418071,64.8307226],[-147.7419224,64.8306975],[-147.7418473,64.830637],[-147.7420217,64.8306074],[-147.742078,64.8306724],[-147.7422738,64.8306359],[-147.7424777,64.8308412],[-147.7427935,64.8307881],[-147.7427667,64.8307675],[-147.7430564,64.8307219],[-147.7430939,64.8307447],[-147.7433898,64.8306894],[-147.7434158,64.8307196],[-147.7435606,64.8306945],[-147.7436151,64.8307419],[-147.7434434,64.8307719],[-147.7434917,64.8308058],[-147.7432066,64.8308565],[-147.743228,64.8308862],[-147.7429284,64.8309312],[-147.7429016,64.8309039],[-147.7425903,64.8309656],[-147.7426466,64.8310215],[-147.7427083,64.8310078],[-147.7427727,64.8310716],[-147.7427137,64.8310865],[-147.742762,64.8311458],[-147.7430543,64.8310967],[-147.7430356,64.8310705],[-147.7433226,64.8310192],[-147.7433467,64.8310397],[-147.7436417,64.8309872],[-147.7436551,64.8310169],[-147.7438188,64.8309986],[-147.7438778,64.831058],[-147.7437222,64.8310842],[-147.743749,64.8311082]]]}},{"type":"Feature","id":210300639,"properties":{"osmId":210300639,"category":"academic","addr:housename":"UAF Community and Technical College","addr:housenumber":"604","addr:postcode":"99701","addr:street":"Barnette Street","amenity":"college","building":"university","name":"UAF Community and Technical College","wikidata":"Q7863734"},"geometry":{"type":"Polygon","coordinates":[[[-147.7259308,64.8408069],[-147.7261194,64.8408273],[-147.7261287,64.8408116],[-147.727121,64.8409187],[-147.7271113,64.8409349],[-147.7272016,64.8409447],[-147.7270393,64.8412165],[-147.7269092,64.8412024],[-147.7268799,64.8412514],[-147.7259056,64.8411463],[-147.7259349,64.8410973],[-147.7257681,64.8410793],[-147.7259308,64.8408069]]]}},{"type":"Feature","id":210332751,"properties":{"osmId":210332751,"category":"academic","addr:city":"Fairbanks","addr:housenumber":"901","addr:postcode":"99701","addr:state":"AK","addr:street":"Airport Way","building":"school"},"geometry":{"type":"Polygon","coordinates":[[[-147.7316335,64.836388],[-147.7316817,64.8364649],[-147.7317408,64.836567],[-147.7325264,64.8364768],[-147.7325857,64.8365796],[-147.7332509,64.8365055],[-147.7333206,64.8365602],[-147.73368,64.8364963],[-147.7336264,64.8364439],[-147.7335808,64.8364005],[-147.7339748,64.8363058],[-147.734007,64.836356],[-147.7342377,64.8363309],[-147.7342216,64.8363012],[-147.7343854,64.8362819],[-147.7342647,64.8360698],[-147.7341036,64.8360891],[-147.7340929,64.8360663],[-147.7338409,64.8360846],[-147.733857,64.8361394],[-147.7334084,64.8361353],[-147.7333365,64.8360184],[-147.7340124,64.8359454],[-147.7339802,64.8358747],[-147.734255,64.8358444],[-147.7342018,64.8357559],[-147.734195,64.8357459],[-147.7341601,64.8357487],[-147.7340877,64.8356216],[-147.7329918,64.835738],[-147.7331648,64.8360366],[-147.7328505,64.8360714],[-147.7328376,64.8360503],[-147.7327646,64.8360554],[-147.7327518,64.8360343],[-147.7326788,64.8360372],[-147.7324353,64.8356283],[-147.7332667,64.8355371],[-147.7331733,64.8353748],[-147.7329905,64.8351014],[-147.7331112,64.8350854],[-147.7330307,64.8349463],[-147.7315342,64.8351038],[-147.731652,64.8352451],[-147.7317542,64.8352315],[-147.7319739,64.835553],[-147.731901,64.8355627],[-147.7318934,64.8355348],[-147.7316308,64.8355577],[-147.7320973,64.8363378],[-147.7316335,64.836388]]]}},{"type":"Feature","id":210335051,"properties":{"osmId":210335051,"category":"medical","addr:city":"Fairbanks","addr:housenumber":"1025","addr:state":"AK","addr:street":"West Barnette Street","building":"hospital"},"geometry":{"type":"Polygon","coordinates":[[[-147.7266975,64.8373774],[-147.7266579,64.8374554],[-147.7265601,64.8374445],[-147.7264452,64.8376841],[-147.72683,64.8377323],[-147.7269606,64.8377463],[-147.7269788,64.8377144],[-147.7271238,64.837765],[-147.7272433,64.8377319],[-147.7271801,64.8376921],[-147.727207,64.8376391],[-147.7272945,64.8376151],[-147.7273345,64.8375386],[-147.72722,64.8375272],[-147.7272337,64.8375089],[-147.7271929,64.8375049],[-147.7272285,64.8374281],[-147.7266975,64.8373774]]]}},{"type":"Feature","id":210335052,"properties":{"osmId":210335052,"category":"athletic","access":"customers","addr:city":"Fairbanks","addr:housenumber":"931","addr:postcode":"99701","addr:state":"AK","addr:street":"Airport Way","building":"yes","leisure":"sports_centre","name":"Hamme Pool","sport":"swimming"},"geometry":{"type":"Polygon","coordinates":[[[-147.7341525,64.8355708],[-147.7342599,64.8357496],[-147.7342018,64.8357559],[-147.734255,64.8358444],[-147.7343853,64.8360613],[-147.7352813,64.835964],[-147.7349903,64.8354798],[-147.7341525,64.8355708]]]}},{"type":"Feature","id":227776262,"properties":{"osmId":227776262,"category":"academic","addr:city":"Fairbanks","addr:housenumber":"1401","addr:postcode":"99701","addr:state":"AK","addr:street":"Bainbridge Boulevard","building":"school","name":"Randy Smith Middle School"},"geometry":{"type":"Polygon","coordinates":[[[-147.7507113,64.8555282],[-147.7502002,64.8554264],[-147.7500701,64.8555443],[-147.749781,64.8554867],[-147.7498646,64.855367],[-147.7497565,64.8553314],[-147.7497346,64.8553435],[-147.7494085,64.8552363],[-147.7496321,64.8551135],[-147.7497766,64.855161],[-147.7499591,64.8550607],[-147.7498427,64.8550224],[-147.7500737,64.8548956],[-147.7501902,64.8549338],[-147.7505034,64.8547619],[-147.7503911,64.8547249],[-147.7506203,64.8545991],[-147.7507326,64.854636],[-147.7509628,64.8545095],[-147.7511449,64.8545694],[-147.7512233,64.8545282],[-147.7514371,64.8545992],[-147.7507233,64.8550645],[-147.7508696,64.8550936],[-147.7507304,64.8552199],[-147.751002,64.8552739],[-147.7509606,64.8553102],[-147.7509976,64.8553178],[-147.7507876,64.8555015],[-147.7507506,64.8554938],[-147.7507113,64.8555282]]]}},{"type":"Feature","id":227776263,"properties":{"osmId":227776263,"category":"academic","addr:city":"Fairbanks","addr:housenumber":"1501","addr:postcode":"99701","addr:state":"AK","addr:street":"Hampstead Avenue","building":"school","name":"Anne Wien Elementary School"},"geometry":{"type":"Polygon","coordinates":[[[-147.7471388,64.8570701],[-147.7472243,64.8570183],[-147.7471797,64.857005],[-147.7473046,64.8569294],[-147.7477242,64.8570546],[-147.7480527,64.8568558],[-147.7482618,64.8569181],[-147.7483393,64.8569126],[-147.7483481,64.8569071],[-147.7484365,64.8568539],[-147.7487558,64.8569491],[-147.7486761,64.8569973],[-147.7486882,64.8570324],[-147.7487404,64.8570287],[-147.7488752,64.8570689],[-147.7487572,64.8571404],[-147.7487956,64.8571518],[-147.7486154,64.8572609],[-147.748664,64.8572753],[-147.748674,64.8572693],[-147.7487245,64.8572844],[-147.7487717,64.8572558],[-147.7489517,64.8573095],[-147.7489045,64.8573381],[-147.748986,64.8573624],[-147.748976,64.8573684],[-147.7491496,64.8574202],[-147.7487148,64.8576833],[-147.7485057,64.857621],[-147.7484603,64.8576485],[-147.7482236,64.8575779],[-147.7482166,64.8575475],[-147.7481403,64.857553],[-147.7480365,64.8576159],[-147.7479941,64.8576032],[-147.7478851,64.8576692],[-147.7477172,64.8576192],[-147.7476467,64.8576241],[-147.7475526,64.8576811],[-147.7472284,64.8575844],[-147.7473226,64.8575274],[-147.7473093,64.8574921],[-147.7471464,64.8574435],[-147.7472565,64.8573769],[-147.7472132,64.857364],[-147.7473783,64.8572641],[-147.7472487,64.8572254],[-147.7472922,64.8571991],[-147.7470466,64.8571259],[-147.7470989,64.8570942],[-147.7470253,64.8570723],[-147.7470652,64.8570482],[-147.7471388,64.8570701]]]}},{"type":"Feature","id":289851922,"properties":{"osmId":289851922,"category":"religious","addr:city":"Fairbanks","addr:housenumber":"1602","addr:postcode":"99701","addr:state":"AK","addr:street":"10th Avenue","amenity":"place_of_worship","building":"church","name":"The Salvation Army Fairbanks","phone":"+1-907-452-3103","website":"https://fairbanks.salvationarmy.org/fairbanks_corps/"},"geometry":{"type":"Polygon","coordinates":[[[-147.7485318,64.8415409],[-147.7490555,64.8415308],[-147.7490379,64.8414236],[-147.7491913,64.8414211],[-147.7491853,64.8413146],[-147.7490288,64.8413175],[-147.7489878,64.8413183],[-147.7489563,64.8413189],[-147.7489469,64.8413191],[-147.748764,64.8413226],[-147.748743,64.841323],[-147.7487206,64.8413234],[-147.7486292,64.8413252],[-147.7486356,64.8414257],[-147.7485684,64.8414268],[-147.7485667,64.8414268],[-147.7485428,64.8414272],[-147.7485197,64.8414276],[-147.7485135,64.8414277],[-147.7485139,64.8414297],[-147.7485318,64.8415409]]]}},{"type":"Feature","id":289851929,"properties":{"osmId":289851929,"category":"academic","addr:city":"Fairbanks","addr:housenumber":"1042","addr:postcode":"99701","addr:state":"AK","addr:street":"Lathrop Street","building":"school","name":"Denaly Elementary School"},"geometry":{"type":"Polygon","coordinates":[[[-147.7478531,64.8404975],[-147.7479155,64.84026],[-147.7481078,64.8402692],[-147.7482614,64.8396843],[-147.7483108,64.8396866],[-147.7483208,64.8396489],[-147.748452,64.8396551],[-147.7484649,64.839606],[-147.7485442,64.8396098],[-147.748535,64.839645],[-147.7487634,64.8396559],[-147.748752,64.8396992],[-147.7488353,64.8397032],[-147.7487952,64.8398558],[-147.7487031,64.8398514],[-147.7486624,64.8400062],[-147.7487324,64.8400096],[-147.7486917,64.8401647],[-147.7486136,64.840161],[-147.7485882,64.8402578],[-147.7488984,64.8402725],[-147.7488451,64.8404754],[-147.748723,64.8404696],[-147.7487051,64.840538],[-147.7478531,64.8404975]]]}},{"type":"Feature","id":390548883,"properties":{"osmId":390548883,"category":"academic","building":"school"},"geometry":{"type":"Polygon","coordinates":[[[-147.7158877,64.8506757],[-147.7163067,64.8506774],[-147.716296,64.8511334],[-147.7163865,64.8511338],[-147.7164455,64.8511566],[-147.7164449,64.8511818],[-147.7164928,64.851182],[-147.7164878,64.8513887],[-147.716278,64.8513878],[-147.7162757,64.8514831],[-147.716355,64.8514835],[-147.7163449,64.8519085],[-147.7158395,64.8519063],[-147.7158458,64.8516397],[-147.7144312,64.8516337],[-147.7144396,64.8512772],[-147.715199,64.8512805],[-147.7152072,64.8509326],[-147.7158816,64.8509355],[-147.7158877,64.8506757]]]}},{"type":"Feature","id":392027216,"properties":{"osmId":392027216,"category":"medical","addr:city":"Fairbanks","addr:housenumber":"1717","addr:postcode":"99701","addr:state":"A:K","addr:street":"West Cowles Street","amenity":"clinic","building":"yes","healthcare":"clinic","name":"Chief Andrew Isaac Health Center","opening_hours":"Mo-Fr 08:00-17:00","phone":"+1-907-451-6682","website":"https://www.tananachiefs.org/services/health/chief-andrew-isaac-health-center/"},"geometry":{"type":"Polygon","coordinates":[[[-147.7445633,64.8327696],[-147.744775,64.8326847],[-147.7449232,64.8326253],[-147.7450089,64.832591],[-147.7450234,64.8325851],[-147.7450571,64.8325923],[-147.7450797,64.8325971],[-147.745749,64.8327399],[-147.7457567,64.8327325],[-147.7459165,64.8327656],[-147.7461498,64.8325665],[-147.7461841,64.8325405],[-147.7461912,64.832531],[-147.7461926,64.8325214],[-147.7461888,64.8325098],[-147.7461804,64.8325006],[-147.7461653,64.8324912],[-147.7461642,64.832488],[-147.7462122,64.8324889],[-147.7462552,64.832489],[-147.7462864,64.8324875],[-147.7463165,64.8324845],[-147.7463346,64.8324848],[-147.7463505,64.8324858],[-147.746356,64.8324886],[-147.7463683,64.832495],[-147.7463806,64.8325013],[-147.7463878,64.832505],[-147.7463598,64.8325104],[-147.7463734,64.832519],[-147.7464318,64.8325098],[-147.7466626,64.8326282],[-147.7466058,64.8326357],[-147.7466234,64.8326443],[-147.7466809,64.832638],[-147.7467929,64.8325988],[-147.7468258,64.8325873],[-147.7468588,64.8325758],[-147.7470751,64.8325001],[-147.7470938,64.8324994],[-147.7472159,64.8324565],[-147.7472412,64.8324475],[-147.7472576,64.8324418],[-147.7473975,64.8323925],[-147.7473995,64.8323918],[-147.7480309,64.8321695],[-147.7481619,64.8321234],[-147.7481998,64.83211],[-147.7482666,64.8320864],[-147.7483251,64.8320656],[-147.7483471,64.8320574],[-147.7483636,64.832044],[-147.7484268,64.8320225],[-147.7484549,64.8319977],[-147.7484362,64.8319882],[-147.7484213,64.8319996],[-147.7479451,64.8317572],[-147.7479664,64.8317454],[-147.7479462,64.8317359],[-147.7477813,64.8318004],[-147.7477633,64.8318031],[-147.7477418,64.8318029],[-147.7475702,64.8318033],[-147.7475369,64.8318034],[-147.7474936,64.8318035],[-147.747454,64.8318036],[-147.7474317,64.8318053],[-147.7474112,64.831808],[-147.7473951,64.8318125],[-147.7473761,64.831819],[-147.7469548,64.8319684],[-147.7469484,64.8319714],[-147.746937,64.8319767],[-147.7469222,64.8319874],[-147.74691,64.8320019],[-147.7466938,64.8322587],[-147.7466917,64.8322612],[-147.7466535,64.8322553],[-147.7466295,64.8322516],[-147.7466124,64.8322489],[-147.7465212,64.8323617],[-147.7465038,64.8323787],[-147.7464827,64.8323924],[-147.746454,64.8324055],[-147.7464261,64.8324165],[-147.7464018,64.8324236],[-147.7463758,64.83243],[-147.7463487,64.8324353],[-147.7463197,64.8324404],[-147.7462863,64.8324446],[-147.7462521,64.8324467],[-147.7462007,64.8324478],[-147.7461297,64.8324439],[-147.7461193,64.8324434],[-147.7460991,64.8324425],[-147.7460789,64.8324415],[-147.7458452,64.8324303],[-147.7458183,64.832428],[-147.7457929,64.8324242],[-147.745771,64.8324195],[-147.7457469,64.8324133],[-147.7457242,64.8324057],[-147.7456963,64.8323924],[-147.7456818,64.8323837],[-147.7456668,64.8323705],[-147.745659,64.8323609],[-147.745652,64.8323491],[-147.7456489,64.8323365],[-147.74565,64.8323226],[-147.7456546,64.8323103],[-147.7456656,64.8322969],[-147.7456751,64.8322865],[-147.7456871,64.8322768],[-147.7457649,64.8322409],[-147.7457568,64.8322374],[-147.7456898,64.8322089],[-147.7457153,64.832189],[-147.7457341,64.8321485],[-147.7457233,64.8321194],[-147.7456871,64.8320914],[-147.7456281,64.8320703],[-147.745612,64.8320692],[-147.7455396,64.8320287],[-147.7455004,64.8319566],[-147.7454924,64.831942],[-147.7454845,64.8319274],[-147.7454407,64.8318469],[-147.7454365,64.8318392],[-147.7454307,64.8318285],[-147.7454078,64.8317864],[-147.7450621,64.8318224],[-147.7450948,64.8318795],[-147.7450723,64.8318817],[-147.7450788,64.8318928],[-147.7450847,64.8319029],[-147.7451306,64.8319819],[-147.7451393,64.8319911],[-147.7452701,64.8320658],[-147.7453908,64.8320886],[-147.7453693,64.8321006],[-147.7453975,64.8321103],[-147.745368,64.8321411],[-147.7452867,64.8321311],[-147.7452741,64.832145],[-147.745166,64.8321439],[-147.7451369,64.8321405],[-147.7451078,64.8321348],[-147.7450394,64.8321046],[-147.7449522,64.8320652],[-147.7449053,64.8320572],[-147.7447819,64.8320584],[-147.7447229,64.8320555],[-147.7446894,64.8320464],[-147.7446652,64.8320321],[-147.7446478,64.8320527],[-147.7445818,64.8320557],[-147.7445689,64.8320671],[-147.7445557,64.8320787],[-147.7445214,64.8320739],[-147.7444765,64.8320748],[-147.7444275,64.832078],[-147.7443819,64.8320874],[-147.7443434,64.8321051],[-147.7441489,64.8322699],[-147.7444788,64.8323407],[-147.7440134,64.832526],[-147.7445633,64.8327696]]]}},{"type":"Feature","id":451366725,"properties":{"osmId":451366725,"category":"religious","building":"church","name":"The Church of Jesus Christ of Latter-day Saints"},"geometry":{"type":"Polygon","coordinates":[[[-147.7407489,64.8346911],[-147.7407463,64.8342726],[-147.7405924,64.8342728],[-147.7405925,64.8342872],[-147.740537,64.8342872],[-147.7404538,64.8342873],[-147.740454,64.8343219],[-147.7402033,64.8343222],[-147.7402029,64.8342654],[-147.7399169,64.8342658],[-147.7399179,64.83442],[-147.7397274,64.8344202],[-147.7397279,64.8344891],[-147.7397283,64.8345577],[-147.7399291,64.8345574],[-147.73993,64.8346951],[-147.7401979,64.8346948],[-147.7401976,64.8346569],[-147.7404564,64.8346566],[-147.7404566,64.8346915],[-147.7407489,64.8346911]]]}},{"type":"Feature","id":1017931187,"properties":{"osmId":1017931187,"category":"academic","building":"school"},"geometry":{"type":"Polygon","coordinates":[[[-147.731258,64.8378831],[-147.730802,64.8379458],[-147.7308556,64.8380109],[-147.7307269,64.8380291],[-147.7306947,64.8379823],[-147.7306518,64.8379789],[-147.7301395,64.83841],[-147.7302924,64.8384522],[-147.7301261,64.8385845],[-147.730169,64.8385902],[-147.7301288,64.8386267],[-147.7295601,64.8385052],[-147.7296004,64.8384721],[-147.7294247,64.8384362],[-147.7295977,64.8382948],[-147.7296835,64.8383148],[-147.729768,64.8382492],[-147.7296339,64.8382207],[-147.7296084,64.8382378],[-147.7293401,64.8381865],[-147.7292034,64.8381506],[-147.7292302,64.8381203],[-147.7291712,64.8381095],[-147.7292503,64.8380428],[-147.7291578,64.8380223],[-147.729198,64.8379915],[-147.7292866,64.8380114],[-147.7293858,64.8379344],[-147.7294099,64.8379419],[-147.7294341,64.837919],[-147.729886,64.8380188],[-147.7298632,64.8380416],[-147.7299906,64.8380684],[-147.7302656,64.8378421],[-147.7301784,64.8378204],[-147.7302347,64.8377771],[-147.7303018,64.8377263],[-147.7303675,64.8377012],[-147.7304332,64.8376898],[-147.7305391,64.8376875],[-147.7306464,64.8376989],[-147.7306813,64.837744],[-147.7311172,64.8376835],[-147.7311802,64.8377668],[-147.731254,64.8377565],[-147.731325,64.8378404],[-147.7312325,64.8378552],[-147.731258,64.8378831]]]}},{"type":"Feature","id":1031866178,"properties":{"osmId":1031866178,"category":"religious","building":"church"},"geometry":{"type":"Polygon","coordinates":[[[-147.7295827,64.844612],[-147.7294124,64.8445358],[-147.7294229,64.8445316],[-147.7293577,64.8445023],[-147.7294193,64.8444775],[-147.7294833,64.8445061],[-147.7296581,64.8444356],[-147.7292984,64.8442746],[-147.7295789,64.8441614],[-147.7299484,64.8443268],[-147.7299289,64.8443347],[-147.7299508,64.8443444],[-147.729998,64.8443254],[-147.7301048,64.8443732],[-147.7300576,64.8443922],[-147.7301036,64.8444128],[-147.7299703,64.8444666],[-147.7299556,64.84446],[-147.7296914,64.8445667],[-147.7297846,64.8446084],[-147.7297459,64.844624],[-147.7296544,64.8445831],[-147.7295827,64.844612]]]}},{"type":"Feature","id":1230934702,"properties":{"osmId":1230934702,"category":"medical","addr:housenumber":"1101","addr:street":"Noble Street","amenity":"clinic","building":"yes","healthcare":"clinic","name":"Tanana Valley Clinic 1st Care","opening_hours":"Mo-Su 08:00-19:00"},"geometry":{"type":"Polygon","coordinates":[[[-147.7136612,64.8387149],[-147.71339,64.8387254],[-147.7133802,64.8386897],[-147.7130696,64.8387013],[-147.713008,64.8384288],[-147.7133358,64.8384194],[-147.7133235,64.8383481],[-147.7135946,64.8383418],[-147.7136612,64.8387149]]]}}]}