{"type":"FeatureCollection","features":[{"type":"Feature","id":278812504,"properties":{"osmId":278812504,"category":"academic","addr:city":"Coral Gables","addr:housenumber":"1540","addr:postcode":"33146","addr:state":"FL","addr:street":"Levante Avenue","building":"university","description":"Department of Art and Art History building for University of Miami","name":"Department of Art and Art History"},"geometry":{"type":"Polygon","coordinates":[[[-80.284622,25.7108091],[-80.2850575,25.7107928],[-80.2851341,25.7107899],[-80.2851166,25.7104117],[-80.2851155,25.7103887],[-80.2846034,25.710408],[-80.2846107,25.7105646],[-80.284622,25.7108091]]]}},{"type":"Feature","id":278823380,"properties":{"osmId":278823380,"category":"other","addr:city":"Coral Gables","addr:housenumber":"5600","addr:postcode":"33146","addr:state":"FL","addr:street":"Pavia Street","amenity":"parking","building":"yes","building:levels":"6","name":"Pavia Garage","operator":"University of Miami","operator:type":"university","parking":"multi-storey","source":"Bing"},"geometry":{"type":"Polygon","coordinates":[[[-80.2756636,25.717593],[-80.2759494,25.7173645],[-80.2759956,25.7174114],[-80.2760233,25.7174377],[-80.2760508,25.7174674],[-80.2765834,25.7180081],[-80.2766109,25.718036],[-80.2766395,25.7180651],[-80.2766521,25.7180779],[-80.2766845,25.7181107],[-80.2766413,25.7181453],[-80.2764258,25.7183176],[-80.2763988,25.7183392],[-80.276363,25.7183029],[-80.2763452,25.7182849],[-80.2762908,25.7182296],[-80.2762662,25.7182046],[-80.2757618,25.7176926],[-80.2757389,25.7176694],[-80.2757136,25.7176437],[-80.2756946,25.7176244],[-80.2756636,25.717593]]]}},{"type":"Feature","id":278823400,"properties":{"osmId":278823400,"category":"academic","building":"university","name":"Sigma Chi","source":"Bing"},"geometry":{"type":"Polygon","coordinates":[[[-80.2833841,25.7122167],[-80.2835609,25.7122122],[-80.2835665,25.712391],[-80.2833896,25.7123955],[-80.2833841,25.7122167]]]}},{"type":"Feature","id":278823438,"properties":{"osmId":278823438,"category":"academic","addr:city":"Coral Gables","addr:housenumber":"1320","addr:postcode":"33146","addr:state":"FL","addr:street":"South Dixie Highway","building":"university","building:levels":"12","building:levels:underground":"2","name":"Gables One Tower","operator":"University of Miami"},"geometry":{"type":"Polygon","coordinates":[[[-80.2769108,25.7135216],[-80.2770896,25.7137013],[-80.2776706,25.7132318],[-80.2774917,25.7130522],[-80.2769108,25.7135216]]]}},{"type":"Feature","id":294606108,"properties":{"osmId":294606108,"category":"academic","building":"university","name":"Pi Kapppa Phi","source":"Bing"},"geometry":{"type":"Polygon","coordinates":[[[-80.2844313,25.7135976],[-80.2843162,25.7134267],[-80.2844272,25.7133661],[-80.2844735,25.713435],[-80.2845605,25.7133874],[-80.2846291,25.7134894],[-80.2844313,25.7135976]]]}},{"type":"Feature","id":294606210,"properties":{"osmId":294606210,"category":"academic","addr:city":"Coral Gables","addr:housenumber":"1541","addr:postcode":"33146","addr:state":"FL","addr:street":"Brescia Avenue","building":"university","building:levels":"1","name":"Pick Hall","source":"Bing"},"geometry":{"type":"Polygon","coordinates":[[[-80.2846763,25.7122888],[-80.2848428,25.7122822],[-80.2848272,25.711923],[-80.2846635,25.7119305],[-80.2846763,25.7122888]]]}},{"type":"Feature","id":294606233,"properties":{"osmId":294606233,"category":"academic","building":"university","name":"Lambda Chi Alpha","source":"Bing"},"geometry":{"type":"Polygon","coordinates":[[[-80.2834266,25.7137325],[-80.2836787,25.713726],[-80.2836753,25.7136197],[-80.2834232,25.7136263],[-80.2834266,25.7137325]]]}},{"type":"Feature","id":310891758,"properties":{"osmId":310891758,"category":"academic","addr:city":"Coral Gables","addr:housenumber":"5225","addr:postcode":"33146","addr:state":"FL","addr:street":"Ponce de Leon Boulevard","building":"university","building:levels":"2","name":"Toppel Career Center"},"geometry":{"type":"Polygon","coordinates":[[[-80.2755241,25.7169454],[-80.2754468,25.7170082],[-80.2753589,25.7169205],[-80.2752563,25.7170031],[-80.2752172,25.7170357],[-80.2753238,25.7171422],[-80.2752055,25.7172384],[-80.2750215,25.7170548],[-80.2751714,25.7169329],[-80.2752907,25.7168358],[-80.275298,25.7168431],[-80.2753121,25.7168571],[-80.2753802,25.7168018],[-80.2755241,25.7169454]]]}},{"type":"Feature","id":314353194,"properties":{"osmId":314353194,"category":"religious","addr:city":"Coral Gables","addr:housenumber":"1400","addr:postcode":"33146","addr:state":"FL","addr:street":"Miller Road","amenity":"place_of_worship","building":"church","denomination":"catholic","name":"Saint Augustine Church","religion":"christian"},"geometry":{"type":"Polygon","coordinates":[[[-80.283457,25.7187858],[-80.283441,25.7184414],[-80.2829543,25.7184598],[-80.2829727,25.7188556],[-80.2831217,25.71885],[-80.2831212,25.7188393],[-80.2833174,25.7188319],[-80.2833155,25.7187911],[-80.283457,25.7187858]]]}},{"type":"Feature","id":314353549,"properties":{"osmId":314353549,"category":"religious","amenity":"place_of_worship","building":"yes","denomination":"quaker","name":"Miami Friends Meeting of the Religious Society of Friends","religion":"christian"},"geometry":{"type":"Polygon","coordinates":[[[-80.276555,25.7051497],[-80.2765416,25.7049902],[-80.2768099,25.7049854],[-80.2768152,25.7051449],[-80.276555,25.7051497]]]}},{"type":"Feature","id":317634305,"properties":{"osmId":317634305,"category":"library","addr:city":"Coral Gables","addr:housenumber":"1300","addr:postcode":"33124","addr:state":"FL","addr:street":"Memorial Drive","amenity":"library","building":"yes","building:levels":"8","name":"Otto G. Richter Library","phone":"+1-305-284-3233","short_name":"Richter Library","source":"http://library.miami.edu/","website":"http://library.miami.edu/","wheelchair":"yes","wikidata":"Q35190249"},"geometry":{"type":"Polygon","coordinates":[[[-80.2793253,25.7210108],[-80.2792292,25.7209148],[-80.2791845,25.7209537],[-80.2791683,25.7209677],[-80.2790968,25.7208989],[-80.2791075,25.7208895],[-80.2790842,25.7208671],[-80.2790628,25.7208465],[-80.2790525,25.7208532],[-80.2789878,25.7207874],[-80.2790024,25.7207749],[-80.2790505,25.7207336],[-80.2789574,25.7206379],[-80.2787791,25.7207783],[-80.278604,25.7209162],[-80.2785651,25.7209468],[-80.2785442,25.7209263],[-80.2785361,25.7209184],[-80.2785331,25.7209209],[-80.2784809,25.7209635],[-80.2784884,25.7209714],[-80.2785096,25.720994],[-80.278052,25.7213685],[-80.2781582,25.7214737],[-80.2782659,25.7215805],[-80.2784256,25.7217387],[-80.2790185,25.7212569],[-80.2793253,25.7210108]]]}},{"type":"Feature","id":364271716,"properties":{"osmId":364271716,"category":"academic","addr:city":"Coral Gables","addr:housenumber":"5507","addr:postcode":"33146","addr:state":"FL","addr:street":"San Amaro Drive","building":"university","building:levels":"2","name":"Rehearsal Center"},"geometry":{"type":"Polygon","coordinates":[[[-80.2813164,25.7185293],[-80.2812246,25.7184435],[-80.2810223,25.7182546],[-80.280905,25.7181451],[-80.2808422,25.7180863],[-80.2806686,25.7182372],[-80.280737,25.7183011],[-80.2811428,25.7186802],[-80.2811561,25.7186687],[-80.2811669,25.7186592],[-80.2812854,25.7185562],[-80.2813164,25.7185293]]]}},{"type":"Feature","id":364271717,"properties":{"osmId":364271717,"category":"academic","addr:city":"Coral Gables","addr:housenumber":"5511","addr:postcode":"33146","addr:state":"FL","addr:street":"San Amaro Drive","building":"university","building:levels":"3","name":"Frost South Studio Wing","official_name":"Patricia Louise Frost Studio Building South"},"geometry":{"type":"Polygon","coordinates":[[[-80.2818402,25.7183048],[-80.2817518,25.7182187],[-80.2816573,25.7182974],[-80.2816428,25.7183095],[-80.2816005,25.7183447],[-80.2815058,25.7184237],[-80.281452,25.7184686],[-80.2815404,25.7185547],[-80.2818402,25.7183048]]]}},{"type":"Feature","id":364271718,"properties":{"osmId":364271718,"category":"academic","addr:city":"Coral Gables","addr:housenumber":"5509","addr:postcode":"33146","addr:state":"FL","addr:street":"San Amaro Drive","building":"university","building:levels":"3","name":"Foster Memorial Music Building","official_name":"Bertha Foster Memorial Music Building"},"geometry":{"type":"Polygon","coordinates":[[[-80.2814875,25.7185736],[-80.2814174,25.7185079],[-80.2813202,25.7185921],[-80.2812034,25.7186932],[-80.281193,25.7187023],[-80.281179,25.7187144],[-80.2809154,25.7189426],[-80.2809866,25.7190093],[-80.2812296,25.7187988],[-80.2812534,25.7188211],[-80.2813167,25.7187663],[-80.2812919,25.718743],[-80.2814875,25.7185736]]]}},{"type":"Feature","id":364271719,"properties":{"osmId":364271719,"category":"academic","building":"university","building:levels":"1"},"geometry":{"type":"Polygon","coordinates":[[[-80.2807335,25.7186203],[-80.2807161,25.7186475],[-80.2807356,25.7186628],[-80.2807556,25.7186447],[-80.2808338,25.7187218],[-80.2808021,25.7187485],[-80.2808465,25.7187942],[-80.2807831,25.7188475],[-80.2807282,25.7187932],[-80.2807208,25.7187977],[-80.2806954,25.7188132],[-80.2806246,25.7187504],[-80.2806774,25.7187028],[-80.2806576,25.7186802],[-80.2806228,25.7186822],[-80.2805886,25.7186738],[-80.2805593,25.7186558],[-80.2805382,25.7186301],[-80.2805276,25.7185996],[-80.2805286,25.7185677],[-80.2805412,25.7185379],[-80.2805639,25.7185133],[-80.2805942,25.7184969],[-80.2806289,25.7184902],[-80.2806641,25.7184942],[-80.2806954,25.718508],[-80.2807202,25.7185301],[-80.2807357,25.7185583],[-80.2807403,25.7185895],[-80.2807335,25.7186203]]]}},{"type":"Feature","id":364271720,"properties":{"osmId":364271720,"category":"academic","addr:city":"Coral Gables","addr:housenumber":"5489","addr:postcode":"33146","addr:state":"FL","addr:street":"San Amaro Drive","building":"university","building:levels":"2","name":"Volpe Classroom Building","official_name":"Arnold Volpe Music Classroom Building"},"geometry":{"type":"Polygon","coordinates":[[[-80.2806882,25.7190525],[-80.2805734,25.7189403],[-80.2803429,25.7187143],[-80.2802511,25.718795],[-80.2805944,25.7191304],[-80.2806801,25.7190592],[-80.2806882,25.7190525]]]}},{"type":"Feature","id":364271722,"properties":{"osmId":364271722,"category":"library","addr:city":"Coral Gables","addr:housenumber":"5469","addr:postcode":"33146","addr:state":"FL","addr:street":"San Amaro Drive","amenity":"library","building":"yes","building:levels":"2","name":"Weeks Music Library and Technology Center","official_name":"Marta and Austin Weeks Music Library and Technology Center","operator":"University of Miami","operator:type":"university","website":"https://www.library.miami.edu/musiclib/welcome.html"},"geometry":{"type":"Polygon","coordinates":[[[-80.2805529,25.7191732],[-80.2804228,25.7190454],[-80.2803615,25.7190032],[-80.2802835,25.7189729],[-80.2801659,25.7189535],[-80.2801369,25.7189573],[-80.2801043,25.7189615],[-80.2800886,25.7189626],[-80.2800881,25.7189686],[-80.280002,25.7190433],[-80.2799916,25.7190391],[-80.2799093,25.7191123],[-80.2799157,25.7191182],[-80.2799094,25.7191262],[-80.280033,25.7192448],[-80.2801318,25.7191557],[-80.2801406,25.7191638],[-80.2802261,25.7192428],[-80.2802507,25.719218],[-80.2803707,25.7193275],[-80.2804729,25.7192396],[-80.2804822,25.7192487],[-80.2805491,25.7191901],[-80.2805364,25.7191783],[-80.2805458,25.7191711],[-80.2805502,25.7191757],[-80.2805529,25.7191732]]]}},{"type":"Feature","id":366186662,"properties":{"osmId":366186662,"category":"residential","addr:city":"Coral Gables","addr:housenumber":"1211","addr:postcode":"33146","addr:state":"FL","addr:street":"Theo Dickenson Drive","building":"dormitory","building:levels":"5","name":"Eaton Residential College"},"geometry":{"type":"Polygon","coordinates":[[[-80.2791498,25.7177412],[-80.2791005,25.717716],[-80.2787558,25.7175335],[-80.2787387,25.7175596],[-80.2785445,25.7178574],[-80.2786232,25.7178984],[-80.2786028,25.7179276],[-80.2786081,25.7179306],[-80.2786172,25.7179234],[-80.2786292,25.7179235],[-80.2786367,25.7179277],[-80.2786394,25.7179344],[-80.278638,25.7179416],[-80.2786234,25.7179668],[-80.2786157,25.7179725],[-80.2786039,25.7179716],[-80.2785849,25.7179588],[-80.2785528,25.7180088],[-80.2784524,25.7179549],[-80.277928,25.7176733],[-80.277953,25.7176351],[-80.2779445,25.7176311],[-80.2779306,25.7176524],[-80.2779215,25.7176534],[-80.2779147,25.7176532],[-80.2779076,25.7176489],[-80.2779023,25.7176443],[-80.2779001,25.7176383],[-80.2779013,25.7176297],[-80.2779262,25.7175941],[-80.2779652,25.7176164],[-80.2779943,25.7175718],[-80.278287,25.7177268],[-80.2784561,25.7178163],[-80.2786274,25.7175537],[-80.2786677,25.717492],[-80.2785136,25.7174075],[-80.2785373,25.7173714],[-80.2785326,25.7173691],[-80.2785279,25.717377],[-80.2785205,25.7173816],[-80.2785116,25.7173819],[-80.2785053,25.7173787],[-80.2785005,25.7173732],[-80.278501,25.7173646],[-80.2785179,25.7173365],[-80.2785243,25.7173329],[-80.278533,25.7173322],[-80.2785536,25.7173467],[-80.2785869,25.717296],[-80.2786107,25.7173086],[-80.2786275,25.7173175],[-80.2786519,25.7172791],[-80.2788412,25.717379],[-80.2789595,25.7174415],[-80.2789788,25.7174516],[-80.2791966,25.7175665],[-80.2792329,25.7175856],[-80.279245,25.7175919],[-80.2791898,25.717678],[-80.2791946,25.7176802],[-80.2792056,25.7176609],[-80.2792129,25.7176557],[-80.2792222,25.7176541],[-80.2792298,25.717658],[-80.2792349,25.7176648],[-80.2792347,25.7176737],[-80.279232,25.7176817],[-80.2792155,25.7177004],[-80.279201,25.7177024],[-80.2791812,25.7176915],[-80.2791498,25.7177412]]]}},{"type":"Feature","id":366186663,"properties":{"osmId":366186663,"category":"academic","addr:city":"Coral Gables","addr:housenumber":"1306","addr:postcode":"33146","addr:state":"FL","addr:street":"Stanford Drive","building":"university","name":"Whitten University Center","official_name":"Norman A. Whitten University Center"},"geometry":{"type":"Polygon","coordinates":[[[-80.278916,25.7199517],[-80.2788913,25.7199616],[-80.2785162,25.7201122],[-80.278471,25.7200216],[-80.2783926,25.7198645],[-80.2781657,25.7200445],[-80.2783157,25.7201946],[-80.2781643,25.7203176],[-80.2781149,25.7203578],[-80.2780986,25.720371],[-80.2778663,25.7201383],[-80.2778314,25.7201033],[-80.277819,25.7200909],[-80.2777478,25.7200196],[-80.2777078,25.7199795],[-80.2776965,25.7199681],[-80.27768,25.7199516],[-80.2776619,25.7199335],[-80.2776481,25.7199196],[-80.2776109,25.7198824],[-80.2774941,25.7197609],[-80.2774902,25.719757],[-80.2774831,25.7197504],[-80.2774612,25.7197277],[-80.2774054,25.719771],[-80.2773832,25.7197486],[-80.2772717,25.7196348],[-80.2772369,25.7195997],[-80.2771649,25.719527],[-80.277211,25.7194915],[-80.2772207,25.719483],[-80.2771683,25.719433],[-80.2772147,25.7193953],[-80.2772384,25.7193759],[-80.2773714,25.7192667],[-80.2773849,25.7192556],[-80.2774176,25.7192875],[-80.2774386,25.7193082],[-80.2775442,25.7192179],[-80.2776324,25.7193072],[-80.2777884,25.719465],[-80.2777925,25.7194695],[-80.2777784,25.7194798],[-80.2776809,25.7195549],[-80.2777469,25.7196189],[-80.2778706,25.7197483],[-80.2778926,25.7197708],[-80.2779237,25.7198024],[-80.2780801,25.7196691],[-80.2780886,25.7196618],[-80.2781261,25.7196325],[-80.2781345,25.7196257],[-80.2781429,25.7196189],[-80.2782343,25.7195481],[-80.2782335,25.7195402],[-80.278281,25.7195198],[-80.2783207,25.7195027],[-80.2783629,25.7194863],[-80.2784323,25.7194594],[-80.2784421,25.7194555],[-80.2784952,25.7194349],[-80.2785831,25.7194001],[-80.2785991,25.7194311],[-80.2786205,25.7194725],[-80.2786604,25.7195499],[-80.2786467,25.7195558],[-80.2786525,25.7195684],[-80.2786582,25.7195808],[-80.2787572,25.7197957],[-80.2788296,25.7197673],[-80.2788383,25.7197858],[-80.278916,25.7199517]]]}},{"type":"Feature","id":366186665,"properties":{"osmId":366186665,"category":"academic","addr:city":"Coral Gables","addr:housenumber":"1314","addr:postcode":"33146","addr:state":"FL","addr:street":"Miller Road","amenity":"theatre","building":"university","building:levels":"3","name":"Gusman Concert Hall","official_name":"Maurice Gusman Music Hall","operator":"University of Miami"},"geometry":{"type":"Polygon","coordinates":[[[-80.279706,25.7198256],[-80.2796608,25.719719],[-80.2796898,25.719708],[-80.2796939,25.7197044],[-80.2796947,25.7196996],[-80.2796257,25.7195318],[-80.2796136,25.7195228],[-80.2795989,25.7195169],[-80.2795755,25.7195166],[-80.2795571,25.7194699],[-80.2795521,25.7194635],[-80.279545,25.7194622],[-80.2794347,25.7194648],[-80.2794261,25.719468],[-80.2794216,25.7194753],[-80.2794071,25.7195232],[-80.2793835,25.7195267],[-80.2793675,25.7195354],[-80.2793563,25.719552],[-80.2793503,25.7195814],[-80.2793335,25.7196335],[-80.2793284,25.7196491],[-80.2793624,25.719658],[-80.2793105,25.7198311],[-80.2793259,25.7198173],[-80.2793994,25.7198318],[-80.2794112,25.7198342],[-80.2794533,25.7198375],[-80.2795065,25.7198379],[-80.2795096,25.7198379],[-80.2795812,25.7198309],[-80.2796206,25.7198247],[-80.2796505,25.7198199],[-80.2796855,25.719806],[-80.279706,25.7198256]]]}},{"type":"Feature","id":366186666,"properties":{"osmId":366186666,"category":"academic","addr:city":"Coral Gables","addr:housenumber":"1330","addr:postcode":"33146","addr:state":"FL","addr:street":"Miller Road","alt_name":"Student Center Complex","amenity":"events_venue","building":"university","name":"Shalala Student Center","official_name":"Donna E. Shalala Student Center","operator":"University of Miami","phone":"+1 305 284 4351"},"geometry":{"type":"Polygon","coordinates":[[[-80.2797899,25.7193979],[-80.2792682,25.7194088],[-80.2791886,25.7197125],[-80.2791639,25.7197209],[-80.2792016,25.7198559],[-80.2790218,25.7199015],[-80.2790017,25.7199072],[-80.2788783,25.7195276],[-80.2789059,25.7195182],[-80.2789273,25.7195109],[-80.278917,25.7194784],[-80.2788943,25.7194844],[-80.2788904,25.7194854],[-80.278874,25.7194247],[-80.2788455,25.7193323],[-80.2788381,25.7193085],[-80.278835,25.7192957],[-80.2788266,25.7192692],[-80.2788169,25.7192386],[-80.2787993,25.7191796],[-80.2789324,25.719141],[-80.2790387,25.7191198],[-80.2791312,25.7191063],[-80.2792125,25.7190985],[-80.2793255,25.7190959],[-80.2794493,25.7191007],[-80.2795917,25.7191178],[-80.2796629,25.7191322],[-80.2796621,25.7191444],[-80.2796598,25.7191852],[-80.2798462,25.7192408],[-80.2797899,25.7193979]]]}},{"type":"Feature","id":370749755,"properties":{"osmId":370749755,"category":"academic","addr:city":"Coral Gables","addr:housenumber":"1111","addr:postcode":"33146","addr:state":"FL","addr:street":"Memorial Drive","building":"university","building:levels":"3","building:levels:underground":"1","name":"Dooly Memorial Classroom Building","official_name":"Oscar E. Dooly Memorial Classroom Building"},"geometry":{"type":"Polygon","coordinates":[[[-80.2782201,25.7232897],[-80.2782083,25.7232981],[-80.2781181,25.7233622],[-80.27746,25.7226974],[-80.2773911,25.7226305],[-80.2773789,25.722618],[-80.2772079,25.722742],[-80.2771583,25.7226836],[-80.2770949,25.7226317],[-80.2772062,25.7225382],[-80.2771976,25.7225295],[-80.2767422,25.7220718],[-80.2767947,25.7220254],[-80.2767754,25.7220062],[-80.2767277,25.7220447],[-80.2766901,25.7220108],[-80.2767621,25.721953],[-80.2768202,25.7219064],[-80.276866,25.7219477],[-80.2768781,25.7219595],[-80.2768405,25.7219897],[-80.2771251,25.72228],[-80.2771413,25.7222699],[-80.2771423,25.7222333],[-80.2772115,25.7222351],[-80.2772094,25.7222791],[-80.2771616,25.7223166],[-80.2773009,25.7224549],[-80.2773578,25.7224118],[-80.2773883,25.722443],[-80.2774386,25.7224945],[-80.277478,25.7224611],[-80.2775602,25.72254],[-80.2775182,25.7225747],[-80.2775697,25.7226272],[-80.2778793,25.7229426],[-80.2782201,25.7232897]]]}},{"type":"Feature","id":375165655,"properties":{"osmId":375165655,"category":"academic","addr:city":"Coral Gables","addr:housenumber":"5499","addr:postcode":"33146","addr:state":"FL","addr:street":"San Amaro Drive","building":"university","building:levels":"3","name":"Frost North Studio Wing","official_name":"Patricia Louise Frost Studio Building North"},"geometry":{"type":"Polygon","coordinates":[[[-80.2803856,25.7195691],[-80.2803604,25.7195488],[-80.2802864,25.7194893],[-80.2803894,25.719401],[-80.280728,25.7191108],[-80.2808926,25.7189698],[-80.2809838,25.7190519],[-80.2808451,25.7191718],[-80.2803856,25.7195691]]]}},{"type":"Feature","id":375165787,"properties":{"osmId":375165787,"category":"academic","addr:city":"Coral Gables","addr:housenumber":"1312","addr:postcode":"33146","addr:state":"FL","addr:street":"Miller Road","amenity":"theatre","building":"university","building:levels":"2","name":"Jerry Herman Ring Theatre","website":"https://ring-theatre.as.miami.edu/index.html","wikidata":"Q16973383","wikipedia":"en:Jerry Herman Ring Theatre"},"geometry":{"type":"Polygon","coordinates":[[[-80.2800943,25.7199317],[-80.2800737,25.7199197],[-80.2800447,25.719899],[-80.2800132,25.7198855],[-80.2799803,25.7198773],[-80.2799403,25.7198675],[-80.2799021,25.7198663],[-80.2798554,25.7198705],[-80.2798495,25.7197876],[-80.2798822,25.7197789],[-80.279921,25.7197778],[-80.2799622,25.719781],[-80.279978,25.7197308],[-80.2799465,25.7197024],[-80.2799247,25.7196718],[-80.2799113,25.7196304],[-80.279915,25.7195823],[-80.2799368,25.7195408],[-80.2799671,25.7195135],[-80.2799877,25.7195026],[-80.280041,25.7194873],[-80.2800495,25.7193748],[-80.2799889,25.7193825],[-80.2799586,25.7192777],[-80.2800737,25.7192536],[-80.2801537,25.7192635],[-80.2802277,25.7192908],[-80.2802592,25.7193191],[-80.280361,25.719401],[-80.2802762,25.7194764],[-80.2801949,25.7194141],[-80.2801343,25.7195059],[-80.2801622,25.7195179],[-80.2801877,25.7195495],[-80.280201,25.719591],[-80.280201,25.7196413],[-80.2801901,25.7196675],[-80.280161,25.7197035],[-80.2801295,25.7197275],[-80.280104,25.7197395],[-80.2800568,25.7197494],[-80.280041,25.719804],[-80.2801004,25.7198313],[-80.2801343,25.7198564],[-80.2800943,25.7199317]]]}},{"type":"Feature","id":423877687,"properties":{"osmId":423877687,"category":"academic","addr:city":"Coral Gables","addr:housenumber":"1507","addr:postcode":"33146","addr:state":"FL","addr:street":"Levante Avenue","building":"university","building:levels":"3","full_name":"Max Orovitz Building","name":"Orovitz Building"},"geometry":{"type":"Polygon","coordinates":[[[-80.2844602,25.7110035],[-80.2838653,25.7110273],[-80.2838636,25.7109927],[-80.283834,25.7109939],[-80.2838288,25.710888],[-80.2838726,25.7108862],[-80.2838709,25.7108514],[-80.2843267,25.7108332],[-80.2844516,25.7108282],[-80.2844602,25.7110035]]]}},{"type":"Feature","id":423877815,"properties":{"osmId":423877815,"category":"academic","addr:city":"Coral Gables","addr:housenumber":"6200","addr:postcode":"33146","addr:state":"FL","addr:street":"San Amaro Drive","building":"university","building:levels":"5","name":"Newman Alumni Center"},"geometry":{"type":"Polygon","coordinates":[[[-80.283451,25.7117122],[-80.2834492,25.7116988],[-80.2834311,25.7116984],[-80.2834293,25.7116482],[-80.2834286,25.711629],[-80.2834426,25.7116064],[-80.2835196,25.7115947],[-80.283575,25.7115862],[-80.2835724,25.7115105],[-80.2835676,25.711372],[-80.2835433,25.7113804],[-80.2835126,25.7113812],[-80.2834818,25.711372],[-80.2834594,25.7113367],[-80.2834585,25.7112838],[-80.2834743,25.7112586],[-80.2835116,25.7112334],[-80.2835815,25.711188],[-80.2836095,25.7111821],[-80.2836505,25.7111821],[-80.2836496,25.7111695],[-80.2839722,25.711162],[-80.2839772,25.711247],[-80.2838557,25.711251],[-80.2838576,25.7113978],[-80.2837731,25.711401],[-80.2837809,25.711572],[-80.2838734,25.7115686],[-80.2838787,25.7117073],[-80.283654,25.7117149],[-80.2835247,25.7117199],[-80.283451,25.7117122]]]}},{"type":"Feature","id":423877950,"properties":{"osmId":423877950,"category":"academic","addr:city":"Coral Gables","addr:housenumber":"5665","addr:postcode":"33146","addr:state":"FL","addr:street":"Ponce de Leon Boulevard","building":"university","building:levels":"5","name":"Flipse Building","official_name":"Fred C. and Helen Donn Filipse Building"},"geometry":{"type":"Polygon","coordinates":[[[-80.2807699,25.7132195],[-80.2809301,25.7130903],[-80.2809225,25.7130827],[-80.2806216,25.7127796],[-80.2805841,25.7127418],[-80.2806133,25.7127182],[-80.2805957,25.7127004],[-80.280556,25.7126605],[-80.2804871,25.712716],[-80.2803665,25.7128131],[-80.2804488,25.712896],[-80.2807699,25.7132195]]]}},{"type":"Feature","id":423878441,"properties":{"osmId":423878441,"category":"athletic","addr:city":"Coral Gables","addr:housenumber":"1245","addr:postcode":"33146","addr:state":"FL","addr:street":"Dauer Drive","building":"stadium","layer":"1","name":"Watsco Center","wikidata":"Q2882577","wikipedia":"en:Watsco Center"},"geometry":{"type":"Polygon","coordinates":[[[-80.2799976,25.7152764],[-80.2798965,25.7151735],[-80.2798992,25.7151299],[-80.2796378,25.714866],[-80.2795931,25.7148619],[-80.2794873,25.7147613],[-80.2794209,25.7148143],[-80.2793495,25.7147439],[-80.2792405,25.7148303],[-80.2792601,25.7148503],[-80.2791669,25.7149241],[-80.2791343,25.7148897],[-80.2791068,25.7148608],[-80.2791356,25.7148366],[-80.2792038,25.7147791],[-80.2791797,25.7147568],[-80.2791483,25.7147277],[-80.2790848,25.71479],[-80.2790552,25.7148191],[-80.2790434,25.7148299],[-80.2789761,25.7148918],[-80.2788749,25.714964],[-80.2788435,25.7149841],[-80.2787661,25.7150337],[-80.2787958,25.7150659],[-80.2788195,25.7150916],[-80.2788941,25.7150345],[-80.2789263,25.7150099],[-80.2789547,25.7150393],[-80.278987,25.7150727],[-80.2788938,25.7151471],[-80.278874,25.7151272],[-80.2787715,25.7152124],[-80.2788206,25.7152643],[-80.2788063,25.7152757],[-80.2788282,25.7152978],[-80.2787754,25.7153401],[-80.278876,25.7154449],[-80.2788721,25.7154815],[-80.278874,25.7154835],[-80.2791354,25.7157502],[-80.2791802,25.7157505],[-80.2792825,25.7158539],[-80.27935,25.7157999],[-80.2794219,25.7158728],[-80.2795237,25.7157912],[-80.2795012,25.7157684],[-80.2798768,25.7154676],[-80.2798976,25.7154886],[-80.2799992,25.7154072],[-80.2799479,25.7153552],[-80.2799626,25.7153434],[-80.2799401,25.7153212],[-80.2799817,25.7152888],[-80.2799976,25.7152764]]]}},{"type":"Feature","id":423879074,"properties":{"osmId":423879074,"category":"academic","building":"university"},"geometry":{"type":"Polygon","coordinates":[[[-80.2827796,25.7142546],[-80.2827876,25.7145046],[-80.2827817,25.714509],[-80.2826804,25.7145139],[-80.2826819,25.7145535],[-80.2826836,25.7145974],[-80.2826548,25.7145983],[-80.282655,25.7146081],[-80.2826132,25.7146095],[-80.2818974,25.7146378],[-80.2818816,25.714285],[-80.2819783,25.7142821],[-80.2819783,25.7142654],[-80.2820551,25.7142613],[-80.282065,25.7142608],[-80.2820787,25.7142601],[-80.2820798,25.7142762],[-80.2821667,25.7142733],[-80.2822292,25.7142712],[-80.2822391,25.7142713],[-80.2822464,25.714271],[-80.2825678,25.7142612],[-80.282632,25.7142592],[-80.2826405,25.7142589],[-80.2826516,25.7142586],[-80.2826588,25.7142584],[-80.2826733,25.7142579],[-80.28277,25.7142549],[-80.2827796,25.7142546]]]}},{"type":"Feature","id":423879191,"properties":{"osmId":423879191,"category":"academic","addr:city":"Coral Gables","addr:housenumber":"5821","addr:postcode":"33146","addr:state":"FL","addr:street":"San Amaro Drive","building":"university","building:levels":"3","name":"Hecht Athletic Center"},"geometry":{"type":"Polygon","coordinates":[[[-80.2829595,25.7145978],[-80.2829657,25.7147344],[-80.2829685,25.71487],[-80.2827544,25.7148755],[-80.282756,25.7149222],[-80.2821503,25.7149452],[-80.2821553,25.715055],[-80.2821562,25.7150737],[-80.2816678,25.7150917],[-80.2816527,25.7147596],[-80.2818926,25.7147508],[-80.2818919,25.7147349],[-80.2819002,25.714735],[-80.2818974,25.7146378],[-80.2826132,25.7146095],[-80.2826148,25.7146697],[-80.2827134,25.7146657],[-80.2827129,25.7146348],[-80.282767,25.7146332],[-80.2828022,25.7146322],[-80.282802,25.7146008],[-80.2829595,25.7145978]]]}},{"type":"Feature","id":423879192,"properties":{"osmId":423879192,"category":"academic","addr:city":"Coral Gables","addr:housenumber":"1241","addr:postcode":"33146","addr:state":"FL","addr:street":"Dickenson Drive","building":"university","building:levels":"4","leisure":"fitness_centre","name":"Herbert Wellness Center","official_name":"Patti & Allan Herbert Wellness Center","phone":"+1-305-284-8500","website":"https://wellness.studentaffairs.miami.edu"},"geometry":{"type":"Polygon","coordinates":[[[-80.281441,25.716258],[-80.2817548,25.716293],[-80.2818358,25.71575],[-80.2818186,25.715747],[-80.2813808,25.7156934],[-80.2814643,25.7152294],[-80.2811009,25.7151813],[-80.2810747,25.715383],[-80.2811199,25.7153886],[-80.2811074,25.7154602],[-80.2810625,25.7154557],[-80.2810612,25.7155872],[-80.2811032,25.7155952],[-80.281078,25.715745],[-80.2810613,25.7157422],[-80.2810592,25.7159095],[-80.2810907,25.7159148],[-80.2810762,25.7159471],[-80.2810713,25.7159722],[-80.2810701,25.7159774],[-80.2810715,25.7160176],[-80.2810732,25.7160335],[-80.2810417,25.7160265],[-80.2810125,25.7162239],[-80.2814382,25.7162779],[-80.281441,25.716258]]]}},{"type":"Feature","id":423879289,"properties":{"osmId":423879289,"category":"academic","addr:city":"Coral Gables","addr:housenumber":"5701","addr:postcode":"33146","addr:state":"FL","addr:street":"San Amaro Drive","building":"university","building:levels":"4","name":"Central Energy Plant 2"},"geometry":{"type":"Polygon","coordinates":[[[-80.2819088,25.7163103],[-80.2817871,25.7162954],[-80.2818462,25.7158839],[-80.2819699,25.7159026],[-80.2819088,25.7163103]]]}},{"type":"Feature","id":435235177,"properties":{"osmId":435235177,"category":"academic","addr:city":"Coral Gables","addr:housenumber":"5915","addr:postcode":"33146","addr:state":"FL","addr:street":"Ponce de Leon Boulevard","building":"university","building:levels":"6","height":"28.6","name":"Plumer Building","ref:miabldg":"2402"},"geometry":{"type":"Polygon","coordinates":[[[-80.2840968,25.7095868],[-80.2842349,25.7094765],[-80.2843893,25.7096351],[-80.2842355,25.7097579],[-80.2842635,25.7097867],[-80.2841052,25.7099131],[-80.2839445,25.7097481],[-80.2841185,25.7096092],[-80.2840968,25.7095868]]]}},{"type":"Feature","id":435236009,"properties":{"osmId":435236009,"category":"academic","addr:city":"Coral Gables","addr:housenumber":"1531","addr:postcode":"33146","addr:state":"FL","addr:street":"Brescia Avenue","alt_name":"Casa Bacardi","building":"university","building:levels":"2","height":"8.7","name":"Institute for Cuban and Cuban-American Studies","ref:miabldg":"3890"},"geometry":{"type":"Polygon","coordinates":[[[-80.2842552,25.7123343],[-80.2842368,25.7119938],[-80.2846245,25.7119766],[-80.2846338,25.7121493],[-80.2845588,25.7121527],[-80.2845596,25.7121676],[-80.2844753,25.7121713],[-80.2844699,25.7120709],[-80.2843834,25.7120747],[-80.284388,25.7121583],[-80.2843238,25.7121612],[-80.2843329,25.7123309],[-80.2842552,25.7123343]]]}},{"type":"Feature","id":435236036,"properties":{"osmId":435236036,"category":"academic","addr:city":"Coral Gables","addr:housenumber":"1365","addr:postcode":"33146","addr:state":"FL","addr:street":"Memorial Drive","building":"university","building:levels":"2","height":"14.5","name":"Utility Building 1, Ungar","ref:miabldg":"3932"},"geometry":{"type":"Polygon","coordinates":[[[-80.2801347,25.7219793],[-80.2800788,25.7219219],[-80.280058,25.7219386],[-80.2799545,25.7218322],[-80.2801775,25.7216542],[-80.2802798,25.7217593],[-80.2802542,25.7217797],[-80.2803113,25.7218383],[-80.2801347,25.7219793]]]}},{"type":"Feature","id":435236175,"properties":{"osmId":435236175,"category":"academic","addr:city":"Coral Gables","addr:housenumber":"1550","addr:postcode":"33146","addr:state":"FL","addr:street":"Brescia Avenue","building":"university","building:levels":"1","height":"8.3","name":"Lau Founders Hall","ref:miabldg":"4161"},"geometry":{"type":"Polygon","coordinates":[[[-80.2845857,25.7115906],[-80.2845836,25.7114837],[-80.2845497,25.7114863],[-80.2845447,25.7113771],[-80.2845795,25.7113742],[-80.2845725,25.7112358],[-80.2846471,25.7112307],[-80.2846475,25.7112187],[-80.2847768,25.7112142],[-80.2847776,25.7112743],[-80.2848894,25.7113222],[-80.2848407,25.7113995],[-80.2848832,25.7113981],[-80.2849441,25.7113961],[-80.28499,25.7113946],[-80.2849332,25.7113336],[-80.2850558,25.7112602],[-80.2851258,25.7113597],[-80.2851291,25.7114543],[-80.2850724,25.7115541],[-80.2849507,25.7114957],[-80.2849841,25.7114389],[-80.2849465,25.7114397],[-80.2848851,25.7114411],[-80.2848478,25.7114419],[-80.2848891,25.7115016],[-80.2847748,25.711567],[-80.2847123,25.7114824],[-80.2846823,25.7114829],[-80.284689,25.7115891],[-80.2845857,25.7115906]]]}},{"type":"Feature","id":435375321,"properties":{"osmId":435375321,"category":"academic","addr:city":"Coral Gables","addr:housenumber":"5202","addr:postcode":"33146","addr:state":"FL","addr:street":"University Drive","building":"university","building:levels":"8","height":"32.2","name":"Merrick Building","official_name":"Solomon G. Merrick Building","ref:miabldg":"6729"},"geometry":{"type":"Polygon","coordinates":[[[-80.2756057,25.7215087],[-80.2756837,25.7214453],[-80.2756975,25.7214591],[-80.2759192,25.7212788],[-80.2759343,25.7212666],[-80.2759009,25.7212329],[-80.2759096,25.7212258],[-80.2760955,25.7210748],[-80.2760658,25.7210448],[-80.2760836,25.7210303],[-80.2761717,25.7209587],[-80.2762066,25.720931],[-80.2762479,25.7208968],[-80.2763561,25.7208089],[-80.2763869,25.7208399],[-80.2765995,25.7206671],[-80.2766258,25.7206936],[-80.2769448,25.7204342],[-80.277008,25.720498],[-80.2770288,25.720519],[-80.2770529,25.7205433],[-80.276944,25.7206319],[-80.2769166,25.7206042],[-80.2767008,25.7207796],[-80.2768234,25.7209034],[-80.2767366,25.720974],[-80.2767287,25.7209804],[-80.276623,25.7208736],[-80.276608,25.7208585],[-80.2763475,25.7210703],[-80.2761235,25.7212524],[-80.276151,25.7212802],[-80.276244,25.721374],[-80.2761878,25.7214207],[-80.2761476,25.7214523],[-80.2760238,25.7213274],[-80.2758208,25.7214924],[-80.2758021,25.7215076],[-80.2758359,25.7215417],[-80.2757265,25.7216306],[-80.2756057,25.7215087]]]}},{"type":"Feature","id":435513283,"properties":{"osmId":435513283,"category":"athletic","building":"grandstand","height":"9.4","ref:miabldg":"15894"},"geometry":{"type":"Polygon","coordinates":[[[-80.2826167,25.7155384],[-80.2826933,25.7155378],[-80.2827029,25.7157821],[-80.282677,25.7157875],[-80.282633,25.7158305],[-80.2825944,25.7158682],[-80.2825921,25.7158972],[-80.282545,25.7158988],[-80.2822804,25.7159079],[-80.2822771,25.7158379],[-80.2825552,25.7158278],[-80.2826198,25.7157633],[-80.2826167,25.7155384]]]}},{"type":"Feature","id":435527965,"properties":{"osmId":435527965,"category":"academic","building":"university","building:levels":"2","height":"9.7","name":"Neil Schiff Tennis House","ref:miabldg":"20972"},"geometry":{"type":"Polygon","coordinates":[[[-80.2826028,25.7153882],[-80.2826836,25.7153858],[-80.2826883,25.7155142],[-80.2826074,25.7155166],[-80.2826028,25.7153882]]]}},{"type":"Feature","id":435528570,"properties":{"osmId":435528570,"category":"academic","addr:city":"Coral Gables","addr:housenumber":"5200","addr:postcode":"33146","addr:state":"FL","addr:street":"Brunson Drive","building":"university","building:levels":"1","height":"3","name":"Centrex Building","ref:miabldg":"21939"},"geometry":{"type":"Polygon","coordinates":[[[-80.2754779,25.7224814],[-80.2753377,25.7223418],[-80.2753048,25.7223689],[-80.2752545,25.7224151],[-80.2752106,25.7223716],[-80.2752569,25.7223302],[-80.2753931,25.722218],[-80.2754262,25.7222509],[-80.2754667,25.7222175],[-80.2756168,25.722367],[-80.2754779,25.7224814]]]}},{"type":"Feature","id":435538308,"properties":{"osmId":435538308,"category":"academic","addr:city":"Coral Gables","addr:housenumber":"1150","addr:postcode":"33146","addr:state":"FL","addr:street":"Stanford Drive","building":"university","height":"12.3","ref:miabldg":"28195"},"geometry":{"type":"Polygon","coordinates":[[[-80.2746653,25.7177081],[-80.2748981,25.7175265],[-80.2749081,25.717537],[-80.275032,25.7174404],[-80.2751623,25.7175775],[-80.2750341,25.7176702],[-80.2750421,25.7176786],[-80.2748096,25.71786],[-80.2746653,25.7177081]]]}},{"type":"Feature","id":435540200,"properties":{"osmId":435540200,"category":"academic","addr:city":"Coral Gables","addr:housenumber":"5200","addr:postcode":"33146","addr:state":"FL","addr:street":"University Drive","building":"university","building:levels":"2","height":"11.0","name":"Merritt Panhellenic Building","ref:miabldg":"25408"},"geometry":{"type":"Polygon","coordinates":[[[-80.2752999,25.7221962],[-80.2750337,25.7219307],[-80.275144,25.7218401],[-80.2751534,25.7218323],[-80.2751218,25.7218008],[-80.2751186,25.7217976],[-80.2754143,25.7215544],[-80.2755124,25.7216523],[-80.2754752,25.7216829],[-80.2754827,25.7216896],[-80.2755252,25.7217316],[-80.2755022,25.7217493],[-80.2754945,25.7217557],[-80.2754634,25.7217244],[-80.2754577,25.7217291],[-80.2752878,25.7218674],[-80.2752342,25.721911],[-80.275281,25.7219576],[-80.2753202,25.7219254],[-80.275353,25.7219581],[-80.2753117,25.721992],[-80.2753309,25.7220111],[-80.2754185,25.7220986],[-80.2754075,25.7221076],[-80.2752999,25.7221962]]]}},{"type":"Feature","id":435540831,"properties":{"osmId":435540831,"category":"academic","addr:city":"South Miami","addr:housenumber":"6565","addr:postcode":"33143","addr:street":"South Red Road","building":"university","height":"20.7","ref:miabldg":"28739"},"geometry":{"type":"Polygon","coordinates":[[[-80.2851426,25.7091863],[-80.2851773,25.7092206],[-80.285258,25.7091537],[-80.2849857,25.7088842],[-80.2850592,25.7088233],[-80.2850859,25.7088497],[-80.2851094,25.7088303],[-80.2851215,25.7088423],[-80.2852946,25.7086987],[-80.2853721,25.7087754],[-80.2852,25.7089181],[-80.2853541,25.7090706],[-80.2853332,25.7090879],[-80.2854419,25.7091954],[-80.2854165,25.7092164],[-80.2854453,25.7092449],[-80.2853869,25.7092933],[-80.2853682,25.7092748],[-80.2851915,25.7094213],[-80.2852138,25.7094433],[-80.2851487,25.7094972],[-80.2849745,25.7093218],[-80.2851426,25.7091863]]]}},{"type":"Feature","id":435565895,"properties":{"osmId":435565895,"category":"academic","addr:city":"Coral Gables","addr:housenumber":"1000","addr:postcode":"33146","addr:state":"FL","addr:street":"Memorial Drive","building":"university","building:levels":"4","full_name":"Antonio Ferre Building","height":"18.9","name":"Ferre Building","ref:miabldg":"33347"},"geometry":{"type":"Polygon","coordinates":[[[-80.2772051,25.7213578],[-80.2771106,25.7212619],[-80.2769516,25.7211004],[-80.2769026,25.7210464],[-80.276914,25.7210372],[-80.2769004,25.7210233],[-80.2769299,25.7209996],[-80.2769382,25.7209948],[-80.2770099,25.7210691],[-80.2770497,25.7210373],[-80.2770626,25.7210503],[-80.2770729,25.7210607],[-80.2770977,25.721086],[-80.2770601,25.7211161],[-80.2770814,25.7211377],[-80.2771735,25.7212313],[-80.2772571,25.7213162],[-80.2772051,25.7213578]]]}},{"type":"Feature","id":435567725,"properties":{"osmId":435567725,"category":"academic","addr:city":"Coral Gables","addr:housenumber":"1530","addr:postcode":"33146","addr:street":"Liguria Avenue","building":"university","height":"9.8","name":"Zeta Beta Tau","ref:miabldg":"32190"},"geometry":{"type":"Polygon","coordinates":[[[-80.2843066,25.7130862],[-80.2843001,25.7129447],[-80.2844184,25.7129403],[-80.2844163,25.7128923],[-80.2843935,25.7128932],[-80.2843892,25.7128004],[-80.2845064,25.712796],[-80.2845136,25.7129539],[-80.2846439,25.712949],[-80.2846495,25.7130734],[-80.2843066,25.7130862]]]}},{"type":"Feature","id":435574974,"properties":{"osmId":435574974,"category":"academic","building":"school","height":"10.6","name":"David Fairchild Elementary School","ref:miabldg":"35772"},"geometry":{"type":"Polygon","coordinates":[[[-80.2879601,25.7302387],[-80.287958,25.730189],[-80.2878618,25.7301924],[-80.2878633,25.7302269],[-80.287818,25.7302285],[-80.2878165,25.7301946],[-80.2877046,25.7301985],[-80.2877028,25.7302035],[-80.2877035,25.73022],[-80.2876586,25.7302216],[-80.2876576,25.730198],[-80.2875844,25.7302006],[-80.2875822,25.7301505],[-80.2875586,25.7301437],[-80.2875445,25.7301293],[-80.2875103,25.7301305],[-80.2875081,25.7300797],[-80.2870386,25.7300964],[-80.2870293,25.7298818],[-80.2874065,25.7298685],[-80.287405,25.7298333],[-80.2873038,25.7298369],[-80.2872991,25.7297291],[-80.2873916,25.7297259],[-80.287388,25.7296435],[-80.2870474,25.7296556],[-80.287042,25.72953],[-80.2882061,25.7294888],[-80.2882117,25.7296177],[-80.2874428,25.729645],[-80.2874461,25.7297222],[-80.2882201,25.7296948],[-80.2882248,25.7298043],[-80.2875514,25.7298282],[-80.2875552,25.7299156],[-80.2882328,25.7298916],[-80.2882378,25.7300088],[-80.2875614,25.7300328],[-80.2875633,25.7300775],[-80.287551,25.730078],[-80.2875515,25.7300902],[-80.2875896,25.7301012],[-80.2875991,25.730111],[-80.2877686,25.730105],[-80.2877952,25.7301136],[-80.2879578,25.7301092],[-80.287973,25.7300971],[-80.2881628,25.7300904],[-80.2881689,25.7302313],[-80.2879601,25.7302387]]]}},{"type":"Feature","id":435584885,"properties":{"osmId":435584885,"category":"academic","addr:city":"Coral Gables","addr:housenumber":"1217","addr:postcode":"33146","addr:state":"FL","addr:street":"Dickenson Drive","building":"university","building:levels":"4","height":"12.6","name":"Architecture 49","ref:miabldg":"43116"},"geometry":{"type":"Polygon","coordinates":[[[-80.2791232,25.717373],[-80.2791065,25.7173643],[-80.27909,25.7173557],[-80.2790619,25.7174],[-80.2789182,25.7173249],[-80.278798,25.7172621],[-80.2787769,25.7172511],[-80.2787853,25.7172361],[-80.2787642,25.7172255],[-80.2787903,25.7171831],[-80.2788026,25.7171892],[-80.2788125,25.7171941],[-80.2788196,25.7171818],[-80.2789623,25.7172564],[-80.2791207,25.7173402],[-80.2794439,25.7175082],[-80.2794351,25.7175221],[-80.2794497,25.7175296],[-80.2794594,25.7175349],[-80.2794337,25.7175748],[-80.2794092,25.717563],[-80.2794007,25.7175765],[-80.2792638,25.7175053],[-80.279095,25.7174175],[-80.2791232,25.717373]]]}},{"type":"Feature","id":435730070,"properties":{"osmId":435730070,"category":"academic","addr:city":"Coral Gables","addr:housenumber":"1320","addr:postcode":"33146","addr:state":"FL","addr:street":"Campo Sano Avenue","building":"university","building:levels":"4","height":"23.7","name":"Knight Physics Building","ref:miabldg":"48226"},"geometry":{"type":"Polygon","coordinates":[[[-80.2788285,25.7236236],[-80.2788954,25.7235691],[-80.279024,25.7234646],[-80.2791217,25.7233869],[-80.2792244,25.7233043],[-80.2796326,25.7229788],[-80.2796479,25.7229669],[-80.2796622,25.7229454],[-80.2796135,25.7228963],[-80.2796564,25.7228614],[-80.2797032,25.7229086],[-80.2797282,25.7228882],[-80.2798049,25.7229655],[-80.2797803,25.7229855],[-80.2798049,25.7230104],[-80.2797706,25.7230384],[-80.2797468,25.7230144],[-80.279718,25.7230379],[-80.2790992,25.7235412],[-80.2789041,25.7236999],[-80.2788285,25.7236236]]]}},{"type":"Feature","id":435740418,"properties":{"osmId":435740418,"category":"academic","addr:city":"Coral Gables","addr:housenumber":"1251","addr:postcode":"33146","addr:state":"FL","addr:street":"Memorial Drive","building":"university","height":"27.1","name":"McArthur Engineering Building","official_name":"J. Neville McArthur Engineering Building","ref:miabldg":"51793"},"geometry":{"type":"Polygon","coordinates":[[[-80.278119,25.7230512],[-80.2784275,25.722808],[-80.2784716,25.7227733],[-80.2784156,25.722715],[-80.2786405,25.7225377],[-80.2786844,25.7225834],[-80.2787084,25.7225644],[-80.278753,25.7226108],[-80.278815,25.7225619],[-80.2787488,25.7224931],[-80.2789245,25.7223546],[-80.2789634,25.7223951],[-80.2789804,25.7223817],[-80.2789967,25.7223987],[-80.2792359,25.7226477],[-80.2790373,25.7228042],[-80.2788341,25.7225926],[-80.27878,25.7226353],[-80.278867,25.7227258],[-80.2786158,25.7229238],[-80.2785346,25.7228393],[-80.2785017,25.7228652],[-80.278653,25.7230227],[-80.2787687,25.7229316],[-80.2787563,25.7229187],[-80.2788205,25.7228681],[-80.2788326,25.7228807],[-80.2789485,25.7227894],[-80.2790929,25.7229398],[-80.2787928,25.7231757],[-80.2787339,25.7231152],[-80.2787146,25.7231304],[-80.2786911,25.7231489],[-80.278583,25.7230363],[-80.2783959,25.7231838],[-80.2784238,25.7232129],[-80.2783387,25.7232799],[-80.278119,25.7230512]]]}},{"type":"Feature","id":435746203,"properties":{"osmId":435746203,"category":"academic","building":"university","building:levels":"1","height":"8.3","name":"Christian Science Organization","ref:miabldg":"58363"},"geometry":{"type":"Polygon","coordinates":[[[-80.2753989,25.7178166],[-80.2754172,25.7178018],[-80.2754312,25.7177905],[-80.2754555,25.7178152],[-80.2754933,25.7177846],[-80.27564,25.7179332],[-80.275531,25.7180215],[-80.2753807,25.7178693],[-80.2754197,25.7178377],[-80.2753989,25.7178166]]]}},{"type":"Feature","id":435747972,"properties":{"osmId":435747972,"category":"academic","addr:city":"Coral Gables","addr:housenumber":"1252","addr:postcode":"33146","addr:state":"FL","addr:street":"Memorial Drive","building":"university","building:levels":"8","height":"30.9","name":"Ashe Administration Building","official_name":"Bowman Foster Ashe Building","ref:miabldg":"57689"},"geometry":{"type":"Polygon","coordinates":[[[-80.2779087,25.7221617],[-80.277683,25.7219435],[-80.2776624,25.7219238],[-80.2776303,25.7218922],[-80.2775523,25.7218142],[-80.2775838,25.7217882],[-80.2775483,25.7217529],[-80.2775742,25.7217315],[-80.2776143,25.7217714],[-80.2776389,25.7217512],[-80.2777309,25.7218427],[-80.2777386,25.7218504],[-80.2777522,25.7218639],[-80.2777659,25.7218526],[-80.2777904,25.7218324],[-80.2778144,25.7218126],[-80.2780727,25.7215996],[-80.2780896,25.7216164],[-80.2782106,25.7217368],[-80.278306,25.7218318],[-80.2780046,25.7220803],[-80.2779995,25.7220845],[-80.2780331,25.7221173],[-80.2780117,25.7221352],[-80.2779787,25.7221029],[-80.2779348,25.7221398],[-80.2779087,25.7221617]]]}},{"type":"Feature","id":435748467,"properties":{"osmId":435748467,"category":"academic","addr:city":"Coral Gables","addr:housenumber":"1301","addr:postcode":"33146","addr:state":"FL","addr:street":"Memorial Drive","building":"university","building:levels":"5","height":"26.0","name":"Cox Science Building","ref:miabldg":"56867"},"geometry":{"type":"Polygon","coordinates":[[[-80.2790361,25.7222719],[-80.2791134,25.7222089],[-80.2792832,25.7220704],[-80.2794829,25.7219076],[-80.2796765,25.7217497],[-80.2797085,25.7217815],[-80.2800207,25.7220923],[-80.280049,25.7221205],[-80.2800318,25.7221346],[-80.2800196,25.7221445],[-80.2800078,25.7221541],[-80.2799164,25.7222286],[-80.2798928,25.7222479],[-80.2798023,25.7223217],[-80.2797885,25.722333],[-80.2797774,25.722342],[-80.2794798,25.7225846],[-80.2794086,25.7226427],[-80.2793779,25.7226121],[-80.2790585,25.7222942],[-80.2790361,25.7222719]]]}},{"type":"Feature","id":435805619,"properties":{"osmId":435805619,"category":"academic","building":"university","height":"9.9","name":"Sigma Chi","ref:miabldg":"60496"},"geometry":{"type":"Polygon","coordinates":[[[-80.2836002,25.7122614],[-80.2835897,25.7119671],[-80.2837163,25.7119634],[-80.283721,25.7120953],[-80.2837454,25.7120946],[-80.2837471,25.7121442],[-80.2837255,25.7121448],[-80.2837295,25.7122577],[-80.2836002,25.7122614]]]}},{"type":"Feature","id":435805797,"properties":{"osmId":435805797,"category":"academic","addr:city":"Coral Gables","addr:housenumber":"1537","addr:postcode":"33146","addr:state":"FL","addr:street":"Levante Avenue","building":"university","building:levels":"1","height":"9.2","name":"Studio Arts Building","ref:miabldg":"60824"},"geometry":{"type":"Polygon","coordinates":[[[-80.2852376,25.7104515],[-80.2853696,25.7104479],[-80.2853878,25.7108009],[-80.2852586,25.7108044],[-80.2852376,25.7104515]]]}},{"type":"Feature","id":435808245,"properties":{"osmId":435808245,"category":"academic","addr:city":"Coral Gables","addr:housenumber":"5513","addr:postcode":"33146","addr:state":"FL","addr:street":"Pavia Street","building":"university","building:levels":"1","church:type":"chapel","height":"10.1","name":"Wesley Foundation","ref:miabldg":"64025"},"geometry":{"type":"Polygon","coordinates":[[[-80.27561,25.7184481],[-80.2755884,25.7184262],[-80.2755608,25.7184486],[-80.275494,25.7183812],[-80.275624,25.7182756],[-80.2755356,25.7181863],[-80.2757434,25.7180175],[-80.2758973,25.718173],[-80.2758541,25.7182081],[-80.2758096,25.7181632],[-80.27574,25.7182197],[-80.2757838,25.7182639],[-80.2756716,25.7183551],[-80.2757149,25.7183989],[-80.2757291,25.7183873],[-80.2757893,25.7184481],[-80.2756624,25.7185512],[-80.2755825,25.7184704],[-80.27561,25.7184481]]]}},{"type":"Feature","id":435810039,"properties":{"osmId":435810039,"category":"academic","addr:city":"Coral Gables","addr:housenumber":"1540","addr:postcode":"33146","addr:state":"FL","addr:street":"Levante Avenue","building":"university","building:levels":"2","height":"12.6","name":"Rainbow Building","ref:miabldg":"63724"},"geometry":{"type":"Polygon","coordinates":[[[-80.2834984,25.710521],[-80.2837043,25.7103441],[-80.2837232,25.7103626],[-80.2837882,25.7103082],[-80.2839242,25.7104416],[-80.2839152,25.7104509],[-80.2839495,25.7104846],[-80.2837614,25.7106365],[-80.2837385,25.7106133],[-80.2836551,25.710682],[-80.2834984,25.710521]]]}},{"type":"Feature","id":435844075,"properties":{"osmId":435844075,"category":"academic","addr:city":"Coral Gables","addr:housenumber":"1251","addr:postcode":"33146","addr:state":"FL","addr:street":"Stanford Drive","building":"university","building:levels":"1","height":"8.0","name":"Behavioral Medicine Building","ref:miabldg":"65096"},"geometry":{"type":"Polygon","coordinates":[[[-80.27509,25.7204299],[-80.2750581,25.7203964],[-80.2750273,25.7203953],[-80.2750121,25.7203799],[-80.2749949,25.7203626],[-80.2749966,25.720335],[-80.2749645,25.7203006],[-80.2750004,25.7202717],[-80.2749868,25.7202582],[-80.2749839,25.7202607],[-80.2749313,25.7202068],[-80.2751505,25.7200288],[-80.2752049,25.7200802],[-80.2752008,25.7200842],[-80.2752151,25.7200991],[-80.2752397,25.7200793],[-80.2753274,25.7201689],[-80.275277,25.7202067],[-80.2752885,25.7202189],[-80.2752925,25.720216],[-80.2753444,25.7202717],[-80.2752333,25.7203608],[-80.2751934,25.7203205],[-80.2751802,25.720332],[-80.2751933,25.7203457],[-80.27509,25.7204299]]]}},{"type":"Feature","id":435845003,"properties":{"osmId":435845003,"category":"academic","addr:city":"Coral Gables","addr:housenumber":"1100","addr:postcode":"33146","addr:state":"FL","addr:street":"Stanford Drive","alt_name":"University of Miami Hillel","building":"university","building:levels":"3","height":"13.0","name":"Braman Miller Center for Jewish Life","ref:miabldg":"66640"},"geometry":{"type":"Polygon","coordinates":[[[-80.2746366,25.7177098],[-80.2744481,25.7175144],[-80.2747152,25.7172937],[-80.27488,25.7174558],[-80.2748277,25.7175069],[-80.2747888,25.7174697],[-80.2747625,25.7174912],[-80.2747212,25.7174566],[-80.2746685,25.7175024],[-80.2747631,25.7175851],[-80.2746366,25.7177098]]]}},{"type":"Feature","id":435846612,"properties":{"osmId":435846612,"category":"athletic","addr:city":"Coral Gables","addr:housenumber":"6299","addr:postcode":"33146","addr:state":"FL","addr:street":"San Amaro Drive","building":"grandstand","building:levels":"4","height":"17.3","name":"Huizenga Family Ticket Tower & Box Office","ref:miabldg":"69377"},"geometry":{"type":"Polygon","coordinates":[[[-80.2826647,25.7114577],[-80.2826129,25.7114388],[-80.2825479,25.7114151],[-80.2824954,25.7113959],[-80.2823497,25.7114543],[-80.2822868,25.7113233],[-80.2822801,25.7113093],[-80.2822402,25.7112218],[-80.2824876,25.7111293],[-80.2825268,25.7111432],[-80.2825355,25.7111244],[-80.2826622,25.711173],[-80.2827271,25.7111986],[-80.2828507,25.7112465],[-80.282846,25.7112571],[-80.2828501,25.7112673],[-80.2828831,25.711279],[-80.2829255,25.7113665],[-80.2829239,25.7115224],[-80.2828614,25.7115458],[-80.2828551,25.7115481],[-80.2827308,25.7115945],[-80.2826647,25.7114577]]]}},{"type":"Feature","id":435846675,"properties":{"osmId":435846675,"category":"academic","building":"school","height":"19.6","name":"Henry S West Laboratory Elementary School","ref:miabldg":"69473"},"geometry":{"type":"Polygon","coordinates":[[[-80.273707,25.7214547],[-80.2736916,25.7210295],[-80.2735925,25.7210324],[-80.2735846,25.720815],[-80.2738281,25.7208078],[-80.273836,25.7210267],[-80.2738195,25.7210272],[-80.2738217,25.7210891],[-80.2740142,25.7210834],[-80.2740151,25.7211074],[-80.2741584,25.7211031],[-80.2741552,25.7210139],[-80.2741327,25.7210146],[-80.2741247,25.7207927],[-80.2743699,25.7207854],[-80.2747418,25.7207778],[-80.2747463,25.7209938],[-80.2745008,25.7210009],[-80.2744963,25.7208173],[-80.2743755,25.720819],[-80.2743806,25.7209997],[-80.2741847,25.7210055],[-80.2741887,25.7211156],[-80.274375,25.7211101],[-80.2743829,25.7213281],[-80.2741469,25.7213351],[-80.2741392,25.7211232],[-80.2740169,25.7211268],[-80.2740228,25.7212891],[-80.2737837,25.7212962],[-80.2737821,25.7212532],[-80.2737301,25.7212547],[-80.2737366,25.7214351],[-80.2739266,25.7214295],[-80.2739348,25.7216555],[-80.2736991,25.7216625],[-80.2736916,25.7214552],[-80.273707,25.7214547]]]}},{"type":"Feature","id":435848231,"properties":{"osmId":435848231,"category":"medical","addr:city":"South Miami","addr:housenumber":"7031","addr:postcode":"33143","addr:street":"Southwest 62nd Avenue","building":"hospital","height":"23.1","ref:miabldg":"68760"},"geometry":{"type":"Polygon","coordinates":[[[-80.2931253,25.705836],[-80.2931168,25.7056921],[-80.2929215,25.7057016],[-80.2929116,25.7055344],[-80.2929273,25.7055336],[-80.2929119,25.7052738],[-80.292984,25.7052703],[-80.292986,25.7053044],[-80.293092,25.7052992],[-80.2930902,25.7052675],[-80.2932693,25.7052588],[-80.2933054,25.7058707],[-80.293085,25.7058814],[-80.2930824,25.7058381],[-80.2931253,25.705836]]]}},{"type":"Feature","id":435880257,"properties":{"osmId":435880257,"category":"academic","addr:city":"Coral Gables","addr:housenumber":"5030","addr:postcode":"33146","addr:state":"FL","addr:street":"Brunson Drive","building":"university","building:levels":"5","height":"25.9","name":"Schwartz Center for Nursing and Health Studies","ref:miabldg":"70836"},"geometry":{"type":"Polygon","coordinates":[[[-80.2766306,25.7230071],[-80.2764788,25.7228535],[-80.2765501,25.7227953],[-80.2765778,25.7228217],[-80.276586,25.7228143],[-80.2765937,25.7228071],[-80.2765722,25.7227844],[-80.2765729,25.7227925],[-80.27656,25.722793],[-80.2765309,25.7227915],[-80.2765158,25.7227904],[-80.2764578,25.7228334],[-80.2763115,25.722687],[-80.2763231,25.7226773],[-80.2765318,25.7225006],[-80.2765436,25.7225036],[-80.2765784,25.7224735],[-80.2766072,25.7224969],[-80.2766057,25.7225087],[-80.2766189,25.7225232],[-80.2766258,25.7225077],[-80.2766339,25.7224976],[-80.2766465,25.722486],[-80.2766611,25.7224782],[-80.2766761,25.7224733],[-80.2766883,25.722472],[-80.2766989,25.7224624],[-80.2767161,25.7224779],[-80.2767297,25.7224681],[-80.2767482,25.7224895],[-80.2767707,25.722471],[-80.2768277,25.7225279],[-80.2769343,25.7226415],[-80.2769499,25.7226287],[-80.2769622,25.722641],[-80.2769727,25.7226406],[-80.2769882,25.7226469],[-80.2770016,25.7226554],[-80.2770124,25.7226649],[-80.2770185,25.7226735],[-80.2770228,25.7226836],[-80.2770246,25.722691],[-80.2770237,25.7227013],[-80.2770417,25.7227204],[-80.2769904,25.7227617],[-80.2770526,25.7228252],[-80.2770389,25.7228374],[-80.2770333,25.722856],[-80.2770175,25.7228741],[-80.2769986,25.7228829],[-80.276981,25.7228859],[-80.2769663,25.7228984],[-80.2769514,25.7228836],[-80.2769212,25.7229024],[-80.2768907,25.7229193],[-80.27686,25.7229345],[-80.2768272,25.7229457],[-80.276793,25.7229527],[-80.2767581,25.7229554],[-80.2767244,25.7229556],[-80.2767029,25.7229535],[-80.2766306,25.7230071]]]}},{"type":"Feature","id":435880767,"properties":{"osmId":435880767,"category":"academic","addr:city":"Coral Gables","addr:housenumber":"6201","addr:postcode":"33146","addr:state":"FL","addr:street":"San Amaro Drive","building":"university","building:levels":"2","height":"9.8","name":"Fraser Baseball Building","ref:miabldg":"71831"},"geometry":{"type":"Polygon","coordinates":[[[-80.2821274,25.7115764],[-80.2820941,25.7115232],[-80.2820912,25.7115247],[-80.2820706,25.7115353],[-80.2820123,25.7114424],[-80.282188,25.7113521],[-80.2822061,25.7113811],[-80.2821887,25.71139],[-80.2822527,25.7114922],[-80.282262,25.7115071],[-80.2821274,25.7115764]]]}},{"type":"Feature","id":435883454,"properties":{"osmId":435883454,"category":"academic","addr:city":"Coral Gables","addr:housenumber":"1115","addr:postcode":"33146","addr:street":"Levante Avenue","building":"university","building:levels":"1","height":"17.7","name":"SoFlo Baptist Christian Ministry","ref:miabldg":"70902"},"geometry":{"type":"Polygon","coordinates":[[[-80.2753067,25.7183065],[-80.2751424,25.7181394],[-80.2751026,25.7181716],[-80.2750439,25.7181119],[-80.2751602,25.7180181],[-80.2751261,25.7179835],[-80.2752077,25.7179176],[-80.2752707,25.7179816],[-80.2752519,25.7179967],[-80.27528,25.7180253],[-80.2752986,25.7180103],[-80.2753573,25.7180701],[-80.2752822,25.7181307],[-80.2753527,25.7182024],[-80.2754108,25.7181555],[-80.2754476,25.7181928],[-80.2753067,25.7183065]]]}},{"type":"Feature","id":436033086,"properties":{"osmId":436033086,"category":"academic","building":"university","height":"10.3","ref:miabldg":"79996"},"geometry":{"type":"Polygon","coordinates":[[[-80.2791525,25.723539],[-80.2796979,25.7230983],[-80.2798878,25.7232912],[-80.2793423,25.7237318],[-80.2791525,25.723539]]]}},{"type":"Feature","id":436034166,"properties":{"osmId":436034166,"category":"academic","addr:city":"Coral Gables","addr:housenumber":"1223","addr:postcode":"33146","addr:state":"FL","addr:street":"Dickinson Drive","building":"university","building:levels":"4","height":"13.1","name":"Architecture 48","ref:miabldg":"76991"},"geometry":{"type":"Polygon","coordinates":[[[-80.2795382,25.7173668],[-80.2792516,25.717219],[-80.2792652,25.7171967],[-80.2792361,25.7171808],[-80.279249,25.7171583],[-80.2792406,25.7171541],[-80.2791957,25.7171318],[-80.2792061,25.7171147],[-80.2791615,25.7170918],[-80.2793316,25.7168316],[-80.2793863,25.7168602],[-80.2793926,25.7168508],[-80.2794255,25.7168682],[-80.2794405,25.7168759],[-80.2794585,25.7168459],[-80.2794862,25.716859],[-80.2794598,25.7169004],[-80.2794184,25.7168787],[-80.2794041,25.7168711],[-80.2792409,25.7171273],[-80.279253,25.7171337],[-80.2795796,25.7172987],[-80.2795783,25.7173128],[-80.2795944,25.7173203],[-80.2795705,25.7173628],[-80.2795527,25.7173543],[-80.2795468,25.7173514],[-80.2795382,25.7173668]]]}},{"type":"Feature","id":436034626,"properties":{"osmId":436034626,"category":"academic","addr:city":"Coral Gables","addr:housenumber":"1365","addr:postcode":"33146","addr:state":"FL","addr:street":"Memorial Drive","building":"university","name":"Ungar Building","note":"Building footprint is smaller because of the large roof overhang on each side","ref:miabldg":"79091"},"geometry":{"type":"Polygon","coordinates":[[[-80.2796501,25.7214901],[-80.2799214,25.7212711],[-80.2801643,25.7215153],[-80.2801421,25.7215333],[-80.2801142,25.7215568],[-80.2801294,25.7215722],[-80.2801786,25.7216218],[-80.2800078,25.7217638],[-80.2799649,25.7217203],[-80.2799571,25.7217124],[-80.2799402,25.7216953],[-80.279893,25.7217344],[-80.2796839,25.7215241],[-80.2796501,25.7214901]]]}},{"type":"Feature","id":436034688,"properties":{"osmId":436034688,"category":"academic","addr:city":"Coral Gables","addr:housenumber":"6000","addr:postcode":"33146","addr:street":"San Amaro Drive","building":"university","height":"11.5","name":"Alpha Epsilon Pi","ref:miabldg":"76725"},"geometry":{"type":"Polygon","coordinates":[[[-80.2834367,25.7131092],[-80.2834332,25.7130361],[-80.2833811,25.7130382],[-80.2833748,25.7129086],[-80.2834225,25.7129067],[-80.2834147,25.7127453],[-80.2835254,25.7127409],[-80.2835339,25.7129149],[-80.2836769,25.7129092],[-80.2836817,25.7130072],[-80.2835434,25.7130128],[-80.2835479,25.7131047],[-80.2834367,25.7131092]]]}},{"type":"Feature","id":436040128,"properties":{"osmId":436040128,"category":"residential","building":"dormitory","height":"30.6","layer":"1","name":"Mahoney Pearson","ref:miabldg":"84535"},"geometry":{"type":"Polygon","coordinates":[[[-80.2742881,25.7191941],[-80.274163,25.7190703],[-80.2741208,25.7191028],[-80.2742633,25.7192454],[-80.274236,25.7192686],[-80.2742566,25.7192891],[-80.2742185,25.7193207],[-80.2741961,25.7192985],[-80.2741568,25.7193311],[-80.2738303,25.7190076],[-80.273536,25.7192512],[-80.2735045,25.7192201],[-80.2734769,25.719243],[-80.2734412,25.7192075],[-80.2734648,25.719188],[-80.2734524,25.7191757],[-80.2736995,25.7189711],[-80.2737199,25.7189913],[-80.2737423,25.7189727],[-80.2737711,25.7189489],[-80.2733072,25.7184892],[-80.2733333,25.7184676],[-80.2733072,25.7184418],[-80.2733512,25.7184053],[-80.2733734,25.7184273],[-80.2734174,25.718391],[-80.2739015,25.7188707],[-80.2739428,25.7188365],[-80.273872,25.7187663],[-80.2740631,25.718608],[-80.2741326,25.7186768],[-80.2741728,25.7186435],[-80.273691,25.7181661],[-80.2737315,25.7181325],[-80.2737121,25.7181132],[-80.2737538,25.7180786],[-80.27378,25.7181046],[-80.2738051,25.7180839],[-80.2742741,25.7185487],[-80.2743202,25.7185105],[-80.2743028,25.7184933],[-80.2745505,25.7182882],[-80.2745675,25.718305],[-80.2745907,25.7182857],[-80.2746313,25.7183259],[-80.2746041,25.7183485],[-80.2746396,25.7183837],[-80.2743868,25.718593],[-80.2743449,25.7186277],[-80.2746596,25.7189396],[-80.2746199,25.7189724],[-80.2746383,25.7189906],[-80.2746002,25.7190222],[-80.2745806,25.7190029],[-80.2745541,25.7190248],[-80.274408,25.71888],[-80.2743648,25.7189158],[-80.2744836,25.7190335],[-80.2744066,25.7190967],[-80.274389,25.7191112],[-80.274368,25.7191285],[-80.2742881,25.7191941]]]}},{"type":"Feature","id":436040330,"properties":{"osmId":436040330,"category":"residential","addr:city":"Coral Gables","addr:housenumber":"5850","addr:postcode":"33146","addr:state":"FL","addr:street":"San Amaro Drive","building":"apartments","building:levels":"4","height":"16.8","name":"University Village Apartments Building 1","operator":"University of Miami","ref:miabldg":"84820"},"geometry":{"type":"Polygon","coordinates":[[[-80.283638,25.7145812],[-80.283638,25.7145744],[-80.2836071,25.7145749],[-80.2836061,25.7145444],[-80.2835798,25.7145456],[-80.2835796,25.7145627],[-80.2835358,25.7145628],[-80.2835352,25.7145457],[-80.2834894,25.7145472],[-80.2834865,25.7144823],[-80.2834682,25.7144827],[-80.2834671,25.7144456],[-80.283502,25.7144438],[-80.283502,25.7144304],[-80.2834753,25.7144285],[-80.2834723,25.7143613],[-80.2834884,25.7143608],[-80.2834846,25.7143158],[-80.2834696,25.7143151],[-80.2834675,25.7142811],[-80.283474,25.7142806],[-80.2834721,25.7142444],[-80.2834912,25.7142441],[-80.2834911,25.7142314],[-80.2834548,25.7142329],[-80.2834548,25.7141943],[-80.2834753,25.7141938],[-80.2834732,25.7141282],[-80.2835176,25.7141292],[-80.2835157,25.7141108],[-80.2835601,25.7141088],[-80.2835606,25.714125],[-80.2835879,25.7141246],[-80.2835867,25.714092],[-80.28361,25.7140901],[-80.2836098,25.7140798],[-80.2837134,25.7140741],[-80.2837148,25.7140871],[-80.28374,25.7140855],[-80.2837391,25.7140763],[-80.2837688,25.7140748],[-80.2838089,25.7140709],[-80.283812,25.7141503],[-80.2838067,25.7141504],[-80.2838072,25.714174],[-80.2838142,25.7141737],[-80.2838156,25.7142316],[-80.2837827,25.7142335],[-80.2837826,25.7142399],[-80.283742,25.7142405],[-80.2837418,25.7142349],[-80.2836799,25.7142371],[-80.2836796,25.7142442],[-80.283638,25.7142453],[-80.2836371,25.7142379],[-80.2836058,25.7142392],[-80.2836059,25.7142342],[-80.2835719,25.7142364],[-80.2835734,25.7142926],[-80.2835802,25.7142936],[-80.283582,25.7143697],[-80.2835761,25.7143697],[-80.2835815,25.7144328],[-80.2836127,25.7144314],[-80.2836121,25.7144268],[-80.2836476,25.7144266],[-80.2836469,25.7144195],[-80.2836894,25.7144194],[-80.2836894,25.7144248],[-80.2837522,25.7144223],[-80.2837507,25.7144155],[-80.2837915,25.7144131],[-80.2837927,25.7144197],[-80.2838263,25.7144172],[-80.283833,25.7145787],[-80.2837605,25.7145815],[-80.2837606,25.7145702],[-80.2837376,25.7145707],[-80.2837371,25.714583],[-80.2837006,25.7145839],[-80.2837007,25.7145789],[-80.283638,25.7145812]]]}},{"type":"Feature","id":436106786,"properties":{"osmId":436106786,"category":"residential","addr:city":"Coral Gables","addr:housenumber":"1540","addr:postcode":"33146","addr:state":"FL","addr:street":"Corniche Avenue","building":"apartments","building:levels":"4","height":"17.4","name":"University Village Apartments Building 2","operator":"University of Miami","ref:miabldg":"87390"},"geometry":{"type":"Polygon","coordinates":[[[-80.2847941,25.7145503],[-80.2847869,25.7143919],[-80.2848221,25.7143906],[-80.2848216,25.7143814],[-80.2848594,25.71438],[-80.2848598,25.7143881],[-80.2848934,25.7143868],[-80.2848943,25.7144048],[-80.2849347,25.7144033],[-80.2849307,25.7143138],[-80.2848913,25.7143152],[-80.2848915,25.7142457],[-80.2849278,25.7142455],[-80.2849233,25.7141609],[-80.2848825,25.7141636],[-80.2848826,25.7141771],[-80.284851,25.7141783],[-80.2848514,25.7141865],[-80.2848108,25.7141868],[-80.2848086,25.7141785],[-80.2847757,25.7141806],[-80.2847675,25.714033],[-80.284795,25.7140316],[-80.2847984,25.7140251],[-80.2848673,25.7140235],[-80.2848929,25.7140231],[-80.284894,25.7140284],[-80.284919,25.7140278],[-80.2849185,25.7140216],[-80.2849624,25.714019],[-80.2849633,25.7140308],[-80.2850125,25.7140298],[-80.2850142,25.7141005],[-80.2850313,25.7141002],[-80.2850313,25.7141385],[-80.2849982,25.7141378],[-80.2849986,25.7141563],[-80.2849553,25.7141577],[-80.284956,25.7141829],[-80.2850099,25.7141809],[-80.2850111,25.7142115],[-80.28502,25.7142125],[-80.2850211,25.7142515],[-80.2850129,25.7142512],[-80.2850141,25.7143061],[-80.2850244,25.7143048],[-80.2850264,25.7143453],[-80.2850186,25.7143456],[-80.2850199,25.7143736],[-80.2849667,25.7143756],[-80.2849679,25.7144018],[-80.2850112,25.7144002],[-80.2850119,25.7144163],[-80.285049,25.714415],[-80.2850507,25.7144535],[-80.2850337,25.7144541],[-80.2850371,25.7145284],[-80.2849902,25.7145301],[-80.2849908,25.714543],[-80.2847941,25.7145503]]]}},{"type":"Feature","id":436106839,"properties":{"osmId":436106839,"category":"residential","addr:city":"Coral Gables","addr:housenumber":"1565","addr:postcode":"33146","addr:state":"FL","addr:street":"Liguria Avenue","building":"apartments","building:levels":"3","height":"13.7","name":"University Village Apartments Building 5","operator":"University of Miami","ref:miabldg":"87479"},"geometry":{"type":"Polygon","coordinates":[[[-80.2847626,25.7138192],[-80.2847617,25.7136691],[-80.2848645,25.7136642],[-80.2848659,25.7136877],[-80.2849086,25.7136857],[-80.2849051,25.7136251],[-80.2849033,25.7135935],[-80.2848688,25.7135951],[-80.2848649,25.7135272],[-80.2849075,25.7135252],[-80.2849028,25.7134406],[-80.2848749,25.7134413],[-80.2848756,25.7134539],[-80.2848433,25.7134542],[-80.2848429,25.7134636],[-80.284803,25.7134643],[-80.2848,25.7134563],[-80.2847706,25.713455],[-80.2847628,25.7133181],[-80.284797,25.7133165],[-80.2847964,25.7133064],[-80.2848358,25.7133046],[-80.2848364,25.713314],[-80.284869,25.7133124],[-80.2848695,25.7133222],[-80.2849003,25.7133207],[-80.2848989,25.7132954],[-80.2849408,25.7132934],[-80.284942,25.7133138],[-80.2849919,25.7133115],[-80.2849958,25.7133793],[-80.2850098,25.7133786],[-80.2850103,25.7134173],[-80.2849773,25.7134174],[-80.284976,25.713437],[-80.2849329,25.7134365],[-80.2849348,25.7134666],[-80.2849852,25.7134644],[-80.2849872,25.7134933],[-80.2849954,25.7134938],[-80.2849963,25.7135308],[-80.2849886,25.7135308],[-80.2849907,25.7135879],[-80.2849991,25.7135884],[-80.2850001,25.7136225],[-80.2849908,25.7136225],[-80.2849928,25.7136536],[-80.2849372,25.7136562],[-80.2849387,25.7136834],[-80.2849846,25.7136813],[-80.2849857,25.7137005],[-80.2850205,25.7136988],[-80.2850227,25.7137369],[-80.2850042,25.7137377],[-80.2850084,25.713801],[-80.2849597,25.7138033],[-80.2849597,25.7138207],[-80.284916,25.7138228],[-80.284916,25.7138152],[-80.2848948,25.713815],[-80.284893,25.7138222],[-80.2848664,25.7138225],[-80.2848657,25.7138256],[-80.284824,25.7138268],[-80.284824,25.7138226],[-80.2847946,25.7138249],[-80.2847941,25.713818],[-80.2847626,25.7138192]]]}},{"type":"Feature","id":436107384,"properties":{"osmId":436107384,"category":"residential","addr:city":"Coral Gables","addr:housenumber":"1560","addr:postcode":"33146","addr:state":"FL","addr:street":"Liguria Avenue","building":"apartments","building:levels":"4","height":"17.1","name":"University Village Apartments Building 6","operator":"University of Miami","ref:miabldg":"88266"},"geometry":{"type":"Polygon","coordinates":[[[-80.2847415,25.7131095],[-80.284739,25.7130438],[-80.2847457,25.7130434],[-80.2847451,25.7130186],[-80.2847372,25.7130184],[-80.284734,25.7129584],[-80.2848401,25.7129557],[-80.2848404,25.7129677],[-80.2848852,25.7129666],[-80.2848829,25.7128876],[-80.2848567,25.7128891],[-80.2848561,25.7128817],[-80.2848424,25.7128814],[-80.2848421,25.7128147],[-80.2848788,25.7128143],[-80.2848798,25.7127314],[-80.2848379,25.7127315],[-80.2848358,25.7127468],[-80.2848045,25.7127462],[-80.2848045,25.7127553],[-80.2847641,25.7127566],[-80.2847633,25.7127492],[-80.2847307,25.7127498],[-80.2847268,25.712693],[-80.2847338,25.7126929],[-80.2847329,25.7126694],[-80.2847264,25.7126699],[-80.2847259,25.7126026],[-80.2847548,25.712603],[-80.2847545,25.7125958],[-80.2847805,25.7125949],[-80.2848527,25.7125925],[-80.284853,25.7125995],[-80.2848745,25.7125983],[-80.2848749,25.7125917],[-80.2849188,25.7125906],[-80.2849191,25.7126071],[-80.2849645,25.7126094],[-80.284967,25.7126734],[-80.2849847,25.712673],[-80.2849857,25.7127092],[-80.284952,25.7127101],[-80.284952,25.7127263],[-80.284943,25.7127264],[-80.2849444,25.7127535],[-80.2849624,25.7127545],[-80.2849623,25.7127854],[-80.2849697,25.7127855],[-80.2849704,25.7128221],[-80.2849629,25.7128218],[-80.2849664,25.7128785],[-80.2849752,25.712878],[-80.284975,25.7129151],[-80.2849657,25.7129146],[-80.2849669,25.7129448],[-80.2849143,25.7129461],[-80.284915,25.7129689],[-80.2849587,25.7129678],[-80.2849594,25.7129884],[-80.2849982,25.7129874],[-80.2849993,25.7130256],[-80.2849785,25.7130261],[-80.2849805,25.7130925],[-80.284933,25.7130937],[-80.2849345,25.7131102],[-80.2848935,25.7131113],[-80.2848935,25.713105],[-80.2848691,25.713105],[-80.284869,25.7131117],[-80.2848406,25.7131123],[-80.2848404,25.7131165],[-80.2848002,25.713118],[-80.2847998,25.7131136],[-80.284771,25.7131155],[-80.2847705,25.7131083],[-80.2847415,25.7131095]]]}},{"type":"Feature","id":436109918,"properties":{"osmId":436109918,"category":"academic","addr:housenumber":"1520","addr:postcode":"33146","addr:street":"Liguria Avenue","building":"university","height":"9.5","name":"Sigma Alpha Epsilon","ref:miabldg":"88271"},"geometry":{"type":"Polygon","coordinates":[[[-80.2839823,25.7131137],[-80.2839818,25.7130948],[-80.2838156,25.7130987],[-80.2838123,25.7129823],[-80.2839446,25.7129792],[-80.2839458,25.7130218],[-80.2839897,25.7130208],[-80.2839854,25.7128697],[-80.2839401,25.7128708],[-80.283938,25.7127964],[-80.2842067,25.7127901],[-80.2842087,25.7128615],[-80.2842014,25.7128616],[-80.2842026,25.7129029],[-80.2840738,25.7129059],[-80.2840727,25.7128671],[-80.2840267,25.7128682],[-80.284031,25.7130175],[-80.2840805,25.7130163],[-80.2840792,25.7129714],[-80.2842084,25.7129684],[-80.2842098,25.7130176],[-80.2842187,25.7130174],[-80.2842197,25.7130524],[-80.2842118,25.7130526],[-80.2842127,25.7130855],[-80.2840479,25.7130894],[-80.2840485,25.7131121],[-80.2839823,25.7131137]]]}},{"type":"Feature","id":436122365,"properties":{"osmId":436122365,"category":"academic","addr:city":"Coral Gables","addr:housenumber":"5151","addr:postcode":"33146","addr:state":"FL","addr:street":"San Amaro Drive","building":"university","building:levels":"5","height":"26.5","name":"Cox Science Annex","ref:miabldg":"91171"},"geometry":{"type":"Polygon","coordinates":[[[-80.2797508,25.7223986],[-80.279798,25.722364],[-80.2797774,25.722342],[-80.2797885,25.722333],[-80.2798023,25.7223217],[-80.2798238,25.722344],[-80.279914,25.7222692],[-80.2798928,25.7222479],[-80.2799164,25.7222286],[-80.2799396,25.722252],[-80.28003,25.7221779],[-80.2800078,25.7221541],[-80.2800196,25.7221445],[-80.2800318,25.7221346],[-80.2800528,25.7221563],[-80.2800786,25.7221363],[-80.2800886,25.7221453],[-80.2800983,25.7221368],[-80.2801674,25.7222074],[-80.2802522,25.7222913],[-80.2799162,25.7225627],[-80.2797508,25.7223986]]]}},{"type":"Feature","id":436122695,"properties":{"osmId":436122695,"category":"residential","addr:city":"Coral Gables","addr:housenumber":"1557-1565","addr:interpolation":"all","addr:postcode":"33143","addr:state":"FL","addr:street":"Corniche Avenue","building":"house","height":"10.3","house":"terraced","name":"University Village Townhouse A","operator":"University of Miami","ref:miabldg":"91688"},"geometry":{"type":"Polygon","coordinates":[[[-80.285266,25.7149948],[-80.2852657,25.7149851],[-80.2852265,25.7149863],[-80.2852259,25.7149712],[-80.2851872,25.7149724],[-80.2851836,25.7148808],[-80.2855489,25.7148691],[-80.2855525,25.7149595],[-80.285518,25.7149606],[-80.285519,25.7149867],[-80.285266,25.7149948]]]}},{"type":"Feature","id":436122696,"properties":{"osmId":436122696,"category":"residential","addr:city":"Coral Gables","addr:housenumber":"1537-1547","addr:interpolation":"all","addr:postcode":"33146","addr:state":"FL","addr:street":"Corniche Avenue","building":"house","height":"9.8","house":"terraced","name":"University Village Townhouse B","operator":"University of Miami","ref:miabldg":"91689"},"geometry":{"type":"Polygon","coordinates":[[[-80.2845399,25.7149037],[-80.284978,25.7148866],[-80.2849826,25.7149839],[-80.2849474,25.7149853],[-80.2849481,25.7150001],[-80.2845452,25.7150159],[-80.2845399,25.7149037]]]}},{"type":"Feature","id":436122697,"properties":{"osmId":436122697,"category":"residential","addr:city":"Coral Gables","addr:housenumber":"1527-1535","addr:interpolation":"all","addr:postcode":"33146","addr:state":"FL","addr:street":"Corniche Avenue","building":"house","height":"9.3","house":"terraced","name":"University Village Townhouse C","operator":"University of Miami","ref:miabldg":"91690"},"geometry":{"type":"Polygon","coordinates":[[[-80.2839636,25.714932],[-80.2843271,25.7149156],[-80.2843322,25.7150088],[-80.2842967,25.7150105],[-80.2842977,25.715028],[-80.2839697,25.7150428],[-80.2839636,25.714932]]]}},{"type":"Feature","id":436125963,"properties":{"osmId":436125963,"category":"academic","addr:city":"Coral Gables","addr:housenumber":"1245","addr:postcode":"33146","addr:state":"FL","addr:street":"Dauer Drive","building":"university","building:levels":"2","height":"15.3","name":"Fieldhouse","ref:miabldg":"90904"},"geometry":{"type":"Polygon","coordinates":[[[-80.2784072,25.7158032],[-80.2788077,25.7154787],[-80.2788399,25.7155113],[-80.2790515,25.7157256],[-80.2790751,25.7157495],[-80.2788863,25.7159025],[-80.2789049,25.7159213],[-80.2785686,25.7161938],[-80.278452,25.7160757],[-80.2783246,25.7159467],[-80.2784492,25.7158457],[-80.2784072,25.7158032]]]}},{"type":"Feature","id":595470728,"properties":{"osmId":595470728,"category":"other","addr:city":"Coral Gables","addr:housenumber":"5600","addr:postcode":"33146","addr:state":"FL","addr:street":"Merrick Drive","amenity":"parking","building":"yes","building:levels":"6","name":"Levante Garage","operator":"University of Miami","operator:type":"university","parking":"multi-storey","source":"Bing"},"geometry":{"type":"Polygon","coordinates":[[[-80.2760266,25.7173043],[-80.2762343,25.7171381],[-80.2763425,25.7170515],[-80.2763534,25.7170428],[-80.276418,25.7171082],[-80.2763758,25.717142],[-80.2770533,25.7178291],[-80.2770365,25.7178426],[-80.2769807,25.7178872],[-80.2769733,25.7178796],[-80.2767613,25.7180493],[-80.2767171,25.7180044],[-80.2766871,25.7179741],[-80.2766613,25.7179479],[-80.2761275,25.7174066],[-80.2761,25.7173787],[-80.2760712,25.7173495],[-80.2760266,25.7173043]]]}},{"type":"Feature","id":622464692,"properties":{"osmId":622464692,"category":"medical","addr:city":"Coral Gables","addr:housenumber":"5555","addr:postcode":"33146","addr:state":"FL","addr:street":"Ponce de Leon Boulevard","amenity":"clinic","building":"yes","building:levels":"6","healthcare":"clinic","healthcare:speciality":"diabetology;cardiology;neurology;oncology;ophthalmology;otolaryngology;surgery;vascular_surgery;plastic_surgery;proctology;physiatry;urology","name":"The Lennar Foundation Medical Center","operator":"University of Miami","operator:type":"university","phone":"+1-305-689-5555","website":"https://umiamihealth.org/en/locations/the-lennar-foundation-medical-center"},"geometry":{"type":"Polygon","coordinates":[[[-80.2805555,25.7135314],[-80.280161,25.713133],[-80.2800714,25.7130384],[-80.2798317,25.7132301],[-80.2798597,25.7132583],[-80.2796913,25.7133925],[-80.2794644,25.7135733],[-80.2797205,25.7138362],[-80.2798872,25.7140074],[-80.2800906,25.7138439],[-80.2803571,25.7136297],[-80.280406,25.7135904],[-80.2804397,25.7136244],[-80.2805555,25.7135314]]]}},{"type":"Feature","id":622467541,"properties":{"osmId":622467541,"category":"academic","building":"university","building:levels":"1","name":"Central Energy Plant 1, Lennar"},"geometry":{"type":"Polygon","coordinates":[[[-80.2804388,25.714055],[-80.2803657,25.7141144],[-80.2803488,25.7141279],[-80.2803381,25.7141365],[-80.2801841,25.713982],[-80.2801778,25.7139871],[-80.2800039,25.7141278],[-80.2800274,25.7141513],[-80.2801872,25.7143117],[-80.2802639,25.7142497],[-80.2803417,25.7143277],[-80.2802669,25.7143882],[-80.2803455,25.714467],[-80.2803679,25.7144655],[-80.280599,25.7142785],[-80.2806,25.7142168],[-80.2804388,25.714055]]]}},{"type":"Feature","id":622469331,"properties":{"osmId":622469331,"category":"academic","addr:city":"Coral Gables","addr:housenumber":"5150","addr:postcode":"33146","addr:state":"FL","addr:street":"Brunson Drive","building":"university","building:levels":"2","name":"Whitten Learning Center"},"geometry":{"type":"Polygon","coordinates":[[[-80.275663,25.7223766],[-80.275761,25.7224736],[-80.2758127,25.7224307],[-80.2758021,25.7224213],[-80.2758162,25.7224091],[-80.2758207,25.7224053],[-80.2759435,25.722457],[-80.2759505,25.7224442],[-80.2759581,25.7224303],[-80.2760126,25.7224312],[-80.2760188,25.7224452],[-80.2760249,25.7224591],[-80.2761455,25.7224211],[-80.2761417,25.7224076],[-80.2761382,25.7223953],[-80.2761743,25.722358],[-80.27619,25.7223648],[-80.2762064,25.7223719],[-80.276263,25.7222666],[-80.2762475,25.722259],[-80.2762361,25.7222535],[-80.2762376,25.7222016],[-80.2762517,25.7221968],[-80.2762695,25.7221906],[-80.2762293,25.7220941],[-80.2762406,25.7220847],[-80.276256,25.7220718],[-80.276283,25.7220492],[-80.2761751,25.7219395],[-80.2761626,25.7219496],[-80.2761325,25.7219739],[-80.2761178,25.7219858],[-80.2760901,25.7219716],[-80.2760601,25.7219571],[-80.2760178,25.7219396],[-80.2760123,25.7219496],[-80.276005,25.7219629],[-80.2759462,25.7219604],[-80.2759415,25.7219461],[-80.2759369,25.7219318],[-80.2758129,25.7219722],[-80.275819,25.7219891],[-80.2758226,25.721999],[-80.2757787,25.722034],[-80.2757656,25.722028],[-80.2757542,25.7220228],[-80.2756957,25.7221306],[-80.2757126,25.7221375],[-80.2757236,25.722142],[-80.2757228,25.7221919],[-80.275705,25.722198],[-80.2756906,25.7222029],[-80.2757334,25.7223143],[-80.2757233,25.7223233],[-80.275697,25.7223465],[-80.275663,25.7223766]]]}},{"type":"Feature","id":638054490,"properties":{"osmId":638054490,"category":"academic","addr:city":"Coral Gables","addr:housenumber":"5800","addr:postcode":"33146","addr:state":"FL","addr:street":"San Amaro Drive","building":"university","height":"14.6","name":"Pi Kappa Alpha"},"geometry":{"type":"Polygon","coordinates":[[[-80.2834972,25.7152513],[-80.2834954,25.7152135],[-80.2834756,25.7152143],[-80.2834741,25.7151832],[-80.2834686,25.7151786],[-80.2834673,25.7151511],[-80.2834724,25.715146],[-80.2834709,25.7151161],[-80.2834906,25.7151153],[-80.2834888,25.7150776],[-80.2836188,25.7150724],[-80.2836192,25.7150802],[-80.2836591,25.7150786],[-80.2836632,25.7150785],[-80.2836528,25.7148636],[-80.2836608,25.7148633],[-80.2836576,25.7147996],[-80.2837172,25.7147986],[-80.2837172,25.7148165],[-80.2837527,25.7148145],[-80.2838024,25.7148118],[-80.2838062,25.7149112],[-80.2838142,25.7149109],[-80.2838252,25.7151394],[-80.2838172,25.7151397],[-80.283822,25.7152406],[-80.2837259,25.7152444],[-80.2836359,25.7152479],[-80.2836355,25.715238],[-80.2836268,25.7152384],[-80.2836272,25.7152462],[-80.2834972,25.7152513]]]}},{"type":"Feature","id":638054491,"properties":{"osmId":638054491,"category":"academic","building":"university","building:levels":"4"},"geometry":{"type":"Polygon","coordinates":[[[-80.2792667,25.7165588],[-80.2792571,25.7165617],[-80.2792469,25.7165647],[-80.279253,25.7165815],[-80.2792218,25.7165912],[-80.2790212,25.7166535],[-80.2787944,25.7167264],[-80.2787869,25.7167092],[-80.2787778,25.7167122],[-80.2787653,25.7167161],[-80.2787445,25.71667],[-80.2787686,25.7166625],[-80.278765,25.7166525],[-80.2788487,25.7166256],[-80.2788725,25.7166178],[-80.2790966,25.7165463],[-80.2791202,25.7165388],[-80.2792209,25.71651],[-80.2792174,25.7165011],[-80.2791391,25.7163016],[-80.2791752,25.7162911],[-80.2791699,25.7162768],[-80.2791541,25.7162342],[-80.2791505,25.7162357],[-80.2791329,25.7161924],[-80.2791566,25.7161842],[-80.2791548,25.7161762],[-80.2792408,25.7161494],[-80.2792674,25.7161407],[-80.2794073,25.7160948],[-80.2794292,25.7161479],[-80.2794387,25.716145],[-80.2794638,25.7161374],[-80.2794463,25.7160837],[-80.2795595,25.7160463],[-80.2797858,25.7159732],[-80.2799171,25.7159308],[-80.2799209,25.7159397],[-80.2799322,25.7159359],[-80.2799504,25.7159838],[-80.2799375,25.7159878],[-80.2799242,25.7159919],[-80.2799295,25.7160077],[-80.279811,25.7160425],[-80.2797143,25.7160751],[-80.2797237,25.7160989],[-80.2797373,25.7161318],[-80.2797093,25.7161404],[-80.279712,25.7161481],[-80.2796905,25.7161547],[-80.2796812,25.7161576],[-80.2796664,25.716118],[-80.2796576,25.7160943],[-80.2795856,25.7161176],[-80.2794453,25.716163],[-80.2794279,25.7161687],[-80.2793014,25.7162101],[-80.2791851,25.7162481],[-80.2791931,25.7162698],[-80.2791982,25.7162835],[-80.2792155,25.7162786],[-80.2792917,25.7164681],[-80.279243,25.7164847],[-80.279246,25.7164921],[-80.2792524,25.7165081],[-80.2793227,25.7164864],[-80.2793506,25.7165581],[-80.2792756,25.7165833],[-80.2792667,25.7165588]]]}},{"type":"Feature","id":942645250,"properties":{"osmId":942645250,"category":"academic","addr:city":"Coral Gables","addr:housenumber":"1307","addr:postcode":"33146","addr:state":"FL","addr:street":"Stanford Drive","building":"university","building:levels":"4","name":"Student Services Building","official_name":"Harold Long Jr. and H.T. Smith Student Services Building"},"geometry":{"type":"Polygon","coordinates":[[[-80.2756713,25.7202174],[-80.2757726,25.7200768],[-80.2757934,25.7200899],[-80.2758247,25.7200426],[-80.2758162,25.7200365],[-80.2758222,25.7200036],[-80.2757876,25.7199861],[-80.2757706,25.7199776],[-80.2758242,25.7199341],[-80.2756076,25.7197124],[-80.2755701,25.7197432],[-80.275558,25.7197287],[-80.2755435,25.7197409],[-80.2755372,25.7197462],[-80.2755111,25.7197214],[-80.2754469,25.7197764],[-80.2754043,25.7197318],[-80.2753374,25.7197867],[-80.2755614,25.7200162],[-80.2755084,25.7200573],[-80.2756309,25.7201777],[-80.2756566,25.720203],[-80.2756713,25.7202174]]]}},{"type":"Feature","id":955804179,"properties":{"osmId":955804179,"category":"academic","addr:city":"Coral Gables","addr:housenumber":"5100","addr:postcode":"33146","addr:state":"FL","addr:street":"Brunson Drive","building":"university","building:levels":"5","name":"Communication International Building"},"geometry":{"type":"Polygon","coordinates":[[[-80.2761469,25.7226187],[-80.2761522,25.7226145],[-80.2761751,25.7225964],[-80.2761948,25.7225803],[-80.2762033,25.7225888],[-80.2762512,25.7226363],[-80.2762814,25.7226116],[-80.2762856,25.7226158],[-80.2763389,25.7225723],[-80.276347,25.7225804],[-80.2764611,25.7224873],[-80.2764506,25.7224769],[-80.2765042,25.7224332],[-80.276499,25.7224281],[-80.2765268,25.7224054],[-80.2764838,25.7223627],[-80.2764531,25.7223321],[-80.2764273,25.7223532],[-80.2763822,25.7223084],[-80.276329,25.7223519],[-80.2763057,25.7223287],[-80.2762877,25.7223435],[-80.2761885,25.7224244],[-80.2762112,25.722447],[-80.2761417,25.7225038],[-80.2760805,25.7225538],[-80.2760887,25.7225617],[-80.2761469,25.7226187]]]}},{"type":"Feature","id":965853770,"properties":{"osmId":965853770,"category":"athletic","addr:city":"Coral Gables","addr:housenumber":"5851","addr:postcode":"33146","addr:state":"FL","addr:street":"San Amaro Drive","building":"yes","building:levels":"3","leisure":"sports_centre","name":"Soffer Indoor Practice Facility","operator":"University of Miami","operator:type":"university"},"geometry":{"type":"Polygon","coordinates":[[[-80.2816394,25.7150891],[-80.2809869,25.7151111],[-80.2809523,25.7142435],[-80.2809664,25.7142431],[-80.2818823,25.7142151],[-80.2818816,25.714285],[-80.2818974,25.7146378],[-80.2819002,25.714735],[-80.2818919,25.7147349],[-80.2816267,25.7147455],[-80.2816394,25.7150891]]]}},{"type":"Feature","id":967475915,"properties":{"osmId":967475915,"category":"academic","addr:city":"Coral Gables","addr:housenumber":"1224","addr:postcode":"33146","addr:state":"FL","addr:street":"Dickenson Drive","alt_name":"Miller Buildlab","building":"university","building:levels":"1","name":"Miller Building Laboratory"},"geometry":{"type":"Polygon","coordinates":[[[-80.2791143,25.7164894],[-80.2791085,25.7164917],[-80.2791092,25.7164972],[-80.2790096,25.7165288],[-80.2790058,25.7165242],[-80.2789957,25.7165274],[-80.2789576,25.7164287],[-80.2789703,25.7164237],[-80.2789695,25.7164184],[-80.2790179,25.7164035],[-80.2790671,25.7163884],[-80.2790696,25.7163937],[-80.2790757,25.7163921],[-80.2790769,25.7163953],[-80.2790828,25.716393],[-80.2791161,25.7164821],[-80.2791115,25.716483],[-80.2791143,25.7164894]]]}},{"type":"Feature","id":1268274037,"properties":{"osmId":1268274037,"category":"academic","addr:city":"Coral Gables","addr:housenumber":"1201","addr:postcode":"33146","addr:state":"FL","addr:street":"Memorial Drive","building":"university","building:levels":"6","height":"30","layer":"1","name":"Frost Institute for Chemistry and Molecular Science","note":"Overhang at front of building facing Memorial Drive."},"geometry":{"type":"Polygon","coordinates":[[[-80.278131,25.7229258],[-80.2777497,25.7225506],[-80.2776513,25.7224536],[-80.2776374,25.72244],[-80.2777634,25.7223333],[-80.2778944,25.7222224],[-80.2779933,25.7223203],[-80.2779851,25.7223268],[-80.277924,25.7223769],[-80.2782282,25.7226786],[-80.2781748,25.7227225],[-80.2782692,25.722815],[-80.278131,25.7229258]]]}},{"type":"Feature","id":1274267731,"properties":{"osmId":1274267731,"category":"academic","addr:city":"Coral Gables","addr:housenumber":"5513","addr:postcode":"33146","addr:state":"FL","addr:street":"San Amaro Drive","amenity":"theatre","building":"university","building:levels":"3","name":"Knight Center for Music Innovation","operator":"University of Miami"},"geometry":{"type":"Polygon","coordinates":[[[-80.2815401,25.7181346],[-80.281382,25.71827],[-80.2813187,25.718204],[-80.2812717,25.7181428],[-80.2812476,25.718117],[-80.2812306,25.7180981],[-80.281214,25.7180839],[-80.2811878,25.7180692],[-80.2811711,25.718062],[-80.2811292,25.7180546],[-80.2810124,25.7180622],[-80.2810098,25.7180375],[-80.2808231,25.7180517],[-80.280812,25.7179104],[-80.2811239,25.7178786],[-80.2811236,25.7178583],[-80.281201,25.7178664],[-80.281261,25.717887],[-80.281295,25.7179023],[-80.2813224,25.7179152],[-80.2813557,25.7179398],[-80.2814085,25.7179909],[-80.2815401,25.7181346]]]}},{"type":"Feature","id":1303862447,"properties":{"osmId":1303862447,"category":"academic","addr:city":"Coral Gables","addr:housenumber":"5709","addr:postcode":"33146","addr:state":"FL","addr:street":"Ponce de Leon Boulevard","building":"university","building:levels":"1","full_name":"Jimmy and Kim Klotz Player Development Center","name":"Klotz Player Development Center"},"geometry":{"type":"Polygon","coordinates":[[[-80.2816065,25.7118868],[-80.2816004,25.7118808],[-80.2814941,25.7117763],[-80.2817873,25.711537],[-80.2818193,25.7115732],[-80.2818912,25.711651],[-80.2818949,25.7116553],[-80.2816065,25.7118868]]]}},{"type":"Feature","id":1307631580,"properties":{"osmId":1307631580,"category":"academic","addr:city":"Coral Gables","addr:housenumber":"1240","addr:postcode":"33146","addr:state":"FL","addr:street":"Dickenson Drive","building":"university","building:levels":"2","name":"Theatre Arts Building"},"geometry":{"type":"Polygon","coordinates":[[[-80.2798946,25.7158501],[-80.2798608,25.7158507],[-80.2798569,25.7157496],[-80.2799594,25.7157496],[-80.2799581,25.7155867],[-80.280017,25.7155845],[-80.2800135,25.7155265],[-80.2800536,25.7155257],[-80.2800534,25.7155155],[-80.2801594,25.715513],[-80.2801586,25.7155836],[-80.2801682,25.7155833],[-80.280171,25.7158278],[-80.2801372,25.7158281],[-80.2801375,25.7158424],[-80.280138,25.7158616],[-80.2801623,25.7158542],[-80.2801974,25.7159507],[-80.2800802,25.7159917],[-80.2800819,25.715998],[-80.2800576,25.7160059],[-80.2800478,25.7160096],[-80.2800451,25.7160048],[-80.2800387,25.716007],[-80.280031,25.7159883],[-80.2800168,25.7159452],[-80.2800043,25.7159073],[-80.2799619,25.7159203],[-80.2799293,25.7159307],[-80.2799149,25.7158973],[-80.2798946,25.7158501]]]}},{"type":"Feature","id":1307631582,"properties":{"osmId":1307631582,"category":"academic","addr:city":"Coral Gables","addr:housenumber":"1215","addr:postcode":"33124","addr:state":"FL","addr:street":"Dickenson Drive","building":"university","building:levels":"3","name":"Perez Architecture Center","official_name":"The Jorge M. Perez Architecture Center"},"geometry":{"type":"Polygon","coordinates":[[[-80.2790063,25.7168875],[-80.278987,25.7168962],[-80.2789628,25.7169081],[-80.278965,25.7169118],[-80.2789399,25.7169839],[-80.2788642,25.7170171],[-80.2788573,25.7170406],[-80.2787744,25.7170185],[-80.2787833,25.7169931],[-80.2787479,25.716929],[-80.2787717,25.7168577],[-80.2788441,25.716823],[-80.2789237,25.7168443],[-80.2789485,25.7168326],[-80.27897,25.716823],[-80.2791265,25.7167507],[-80.2792689,25.7166849],[-80.2793052,25.7167494],[-80.2792833,25.7167595],[-80.2791586,25.7168171],[-80.2790339,25.7168748],[-80.2790063,25.7168875]]]}},{"type":"Feature","id":1310953548,"properties":{"osmId":1310953548,"category":"academic","addr:city":"Coral Gables","addr:housenumber":"1221","addr:postcode":"33146","addr:state":"FL","addr:street":"Stanford Drive","amenity":"canteen","building":"university","building:levels":"1","name":"Mahoney-Pearson Dining Hall"},"geometry":{"type":"Polygon","coordinates":[[[-80.2748604,25.7196994],[-80.2744858,25.7200032],[-80.2742142,25.7197281],[-80.2746001,25.719421],[-80.2746519,25.7194764],[-80.274684,25.7195107],[-80.2747235,25.7195529],[-80.2748531,25.7196916],[-80.2748604,25.7196994]]]}},{"type":"Feature","id":1314475806,"properties":{"osmId":1314475806,"category":"academic","addr:city":"Coral Gables","addr:housenumber":"1218","addr:postcode":"33146","addr:state":"FL","addr:street":"Theo Dickenson Drive","building":"university","building:levels":"2","name":"Murphy Design Studio","official_name":"Thomas P. Murphy Design Studio Building"},"geometry":{"type":"Polygon","coordinates":[[[-80.2784919,25.7169547],[-80.2784471,25.716942],[-80.2784084,25.7169186],[-80.2783786,25.7168914],[-80.2783448,25.7168539],[-80.2781084,25.7169699],[-80.2780929,25.7169775],[-80.278084,25.716962],[-80.277992,25.7170061],[-80.2780019,25.7170225],[-80.2779786,25.7170347],[-80.2779145,25.7170681],[-80.2780343,25.7172601],[-80.2784874,25.7170312],[-80.2784703,25.7170036],[-80.2784843,25.716972],[-80.2784919,25.7169547]]]}},{"type":"Feature","id":1337255763,"properties":{"osmId":1337255763,"category":"academic","addr:city":"Coral Gables","addr:housenumber":"5479","addr:postcode":"33146","addr:state":"FL","addr:street":"San Amaro Drive","building":"university","building:levels":"2","name":"Weeks Recording Studio","official_name":"L. Austin Weeks Recording Studio"},"geometry":{"type":"Polygon","coordinates":[[[-80.2800595,25.7189341],[-80.2800115,25.7188893],[-80.2800189,25.7188292],[-80.2800314,25.7187747],[-80.280047,25.7187235],[-80.2800718,25.7186695],[-80.2800987,25.7186243],[-80.2801389,25.7185649],[-80.2801843,25.7185121],[-80.280218,25.7184833],[-80.2802505,25.7184555],[-80.2803091,25.7185146],[-80.2802978,25.7185248],[-80.2804151,25.7186346],[-80.280424,25.7186429],[-80.2803848,25.7186775],[-80.2803773,25.7186705],[-80.2803701,25.7186638],[-80.280197,25.7188145],[-80.2800595,25.7189341]]]}}]}