{"type":"FeatureCollection","features":[{"type":"Feature","id":28638476,"properties":{"osmId":28638476,"category":"athletic","addr:city":"Anchorage","addr:housenumber":"1600","addr:postcode":"99501","addr:state":"AK","addr:street":"Gambell Street","building":"sports_hall","leisure":"sports_centre","name":"Sullivan Arena","source":"Bing","wikidata":"Q3503502","wikipedia":"en:Sullivan Arena"},"geometry":{"type":"Polygon","coordinates":[[[-149.8734719,61.2050868],[-149.8735007,61.2051028],[-149.8735161,61.2051255],[-149.8735071,61.2051571],[-149.8734766,61.2051793],[-149.8735286,61.2051788],[-149.8735273,61.2057669],[-149.8734919,61.2057694],[-149.8735242,61.2057939],[-149.8735316,61.2058231],[-149.8735046,61.2058415],[-149.8734704,61.205858],[-149.873416,61.2058687],[-149.8733639,61.2058692],[-149.8733295,61.205866],[-149.8732879,61.2058524],[-149.8732616,61.2058907],[-149.8720466,61.2058925],[-149.8720464,61.2058655],[-149.8719637,61.2058703],[-149.8718953,61.2058522],[-149.8718578,61.2058126],[-149.8718786,61.2057647],[-149.8717967,61.2057648],[-149.8717962,61.2054829],[-149.8717958,61.2051795],[-149.8718998,61.2051792],[-149.8718687,61.205158],[-149.8718588,61.2051346],[-149.8718695,61.2051082],[-149.8719011,61.2050868],[-149.871933,61.2050766],[-149.8719692,61.2050718],[-149.8720085,61.2050716],[-149.8720505,61.2050786],[-149.8720512,61.205052],[-149.8732718,61.2050532],[-149.8732718,61.2050924],[-149.8733236,61.2050764],[-149.8733739,61.2050706],[-149.8734312,61.2050739],[-149.8734719,61.2050868]]]}},{"type":"Feature","id":56214324,"properties":{"osmId":56214324,"category":"academic","building":"school","grades":"7-12","name":"Stellar"},"geometry":{"type":"Polygon","coordinates":[[[-149.8936298,61.1984294],[-149.8939331,61.1983598],[-149.8942255,61.198293],[-149.8941484,61.198215],[-149.8940488,61.1982378],[-149.8932836,61.1974632],[-149.8936531,61.1973785],[-149.8935469,61.197271],[-149.8933618,61.1973134],[-149.8930757,61.197024],[-149.8925581,61.1971428],[-149.892929,61.197518],[-149.892881,61.197536],[-149.8936604,61.1983272],[-149.8935532,61.1983517],[-149.8936298,61.1984294]]]}},{"type":"Feature","id":76096546,"properties":{"osmId":76096546,"category":"religious","addr:city":"Anchorage","addr:housenumber":"2200","addr:postcode":"99503","addr:state":"AK","addr:street":"Arctic Boulevard","amenity":"place_of_worship","building":"church","denomination":"greek_catholic","diocese":"Ruthenian Diocese of Holy Protection of Mary of Phoenix","email":"pastorstnicholas@yahoo.com","name":"Saint Nicholas of Myra Byzantine Catholic Church","phone":"+1 907-277-6731","religion":"christian","website":"https://www.ak-byz-cath.org/","wikidata":"Q138819471"},"geometry":{"type":"Polygon","coordinates":[[[-149.8980513,61.2008837],[-149.8980457,61.200771],[-149.8982546,61.2007687],[-149.8982526,61.2007294],[-149.898192,61.2007301],[-149.8981838,61.2005639],[-149.8986685,61.2005584],[-149.8986731,61.200652],[-149.8987479,61.2006512],[-149.8987517,61.2007276],[-149.8985191,61.2007303],[-149.8983746,61.2007319],[-149.8983766,61.2007726],[-149.8985218,61.200771],[-149.8985271,61.2008782],[-149.8980513,61.2008837]]]}},{"type":"Feature","id":87901725,"properties":{"osmId":87901725,"category":"academic","amenity":"school","building":"school","grades":"0-6","isced:level":"0;1","operator":"charter","operator:type":"public","religion":"none","school":"charter"},"geometry":{"type":"Polygon","coordinates":[[[-149.9161747,61.1923192],[-149.9161773,61.1924006],[-149.9161398,61.1924019],[-149.9161398,61.1924394],[-149.9161773,61.1924394],[-149.9161773,61.1925221],[-149.9165555,61.1925221],[-149.9165555,61.1924433],[-149.9166306,61.1924433],[-149.916644,61.1927509],[-149.9170517,61.1927496],[-149.9170517,61.1924458],[-149.9171563,61.1924458],[-149.9171563,61.1925169],[-149.9175292,61.1925182],[-149.9175292,61.1925079],[-149.9177196,61.1925079],[-149.9177196,61.1925221],[-149.918012,61.1925221],[-149.9180039,61.1923179],[-149.9178214,61.1923196],[-149.9177196,61.1923205],[-149.9177169,61.1923696],[-149.9175292,61.1923683],[-149.9175265,61.1923218],[-149.9171563,61.1923205],[-149.9171563,61.192398],[-149.9170491,61.192398],[-149.9170491,61.1920749],[-149.916732,61.1920726],[-149.9167326,61.1921201],[-149.916636,61.1921201],[-149.916636,61.1923993],[-149.9165529,61.192398],[-149.9165529,61.1923205],[-149.9165228,61.1923204],[-149.9161747,61.1923192]]]}},{"type":"Feature","id":183248807,"properties":{"osmId":183248807,"category":"academic","building":"school"},"geometry":{"type":"Polygon","coordinates":[[[-149.9036084,61.1804326],[-149.9032522,61.180277],[-149.9031342,61.1803183],[-149.9030162,61.1802718],[-149.9026326,61.1804378],[-149.9025361,61.1804016],[-149.902469,61.1804425],[-149.9019889,61.1802102],[-149.9023322,61.1800603],[-149.9019056,61.1798298],[-149.9022083,61.1796781],[-149.9029441,61.1800291],[-149.9037178,61.1796526],[-149.9039389,61.1797391],[-149.9040483,61.1798068],[-149.9035333,61.1800447],[-149.9039946,61.1802465],[-149.9036084,61.1804326]]]}},{"type":"Feature","id":331842293,"properties":{"osmId":331842293,"category":"library","addr:city":"Anchorage","addr:country":"US","addr:housenumber":"3600","addr:postcode":"99503","addr:state":"AK","addr:street":"Denali Street","alt_name":"Anchorage Public Library, Main Branch","amenity":"library","building":"yes","internet_access":"yes","internet_access:fee":"no","layer":"1","name":"Z. J. Loussac Public Library","opening_hours":"Mo-Th 10:00-20:00; Sa 10:00-18:00; Su 01:00-16:00; PH off","operator":"Municipality of Anchorage","operator:type":"public","phone":"+1 907-343-2975","polling_station":"yes","ref:isil":"703","source":"Bing","website":"https://www.anchoragelibrary.org/about/using-the-library/hours-locations/zj-loussac-library/","wheelchair":"yes","wikidata":"Q69863859"},"geometry":{"type":"Polygon","coordinates":[[[-149.8790397,61.1867969],[-149.8790429,61.1867954],[-149.8796799,61.187105],[-149.8792997,61.1872911],[-149.8792984,61.1873798],[-149.8789759,61.1875352],[-149.8788748,61.1874937],[-149.8787123,61.1875676],[-149.8782086,61.1873262],[-149.8781721,61.1873007],[-149.8781587,61.1872697],[-149.8781576,61.1872233],[-149.8782172,61.1871734],[-149.8777674,61.1869553],[-149.877709,61.1869275],[-149.8776787,61.1868963],[-149.8776665,61.1868651],[-149.8776776,61.1868335],[-149.8776977,61.1868111],[-149.8777329,61.1867863],[-149.877772,61.1867685],[-149.8778296,61.1867541],[-149.877886,61.1867506],[-149.8779807,61.1867545],[-149.8780483,61.1867712],[-149.8781293,61.1867322],[-149.8782437,61.1867325],[-149.878285,61.1867521],[-149.8781305,61.1868298],[-149.8781428,61.1868555],[-149.8781335,61.1868907],[-149.8781164,61.1869133],[-149.8780763,61.1869409],[-149.8783155,61.1870541],[-149.8783815,61.1870242],[-149.878343,61.1870013],[-149.8785165,61.186915],[-149.8784923,61.1869009],[-149.8785751,61.1868672],[-149.8786304,61.18689],[-149.8786388,61.186872],[-149.8786541,61.1868293],[-149.8787021,61.1867927],[-149.8787755,61.1867677],[-149.8788632,61.1867582],[-149.8789517,61.1867656],[-149.8790277,61.1867887],[-149.8790397,61.1867969]]]}},{"type":"Feature","id":579991745,"properties":{"osmId":579991745,"category":"religious","addr:city":"Anchorage","addr:housenumber":"700","addr:postcode":"99503","addr:state":"AK","addr:street":"West 46th Avenue","amenity":"place_of_worship","building":"yes","building:levels":"2","denomination":"mormon","name":"The Church of Jesus Christ of Latter-day Saints - Midtown","phone":"+1 907-406-1518","religion":"christian","website":"https://local.churchofjesuschrist.org/en/us/ak/anchorage/700-west-46th-avenue"},"geometry":{"type":"Polygon","coordinates":[[[-149.8959533,61.1786183],[-149.8958357,61.1786178],[-149.8958342,61.1786966],[-149.8956298,61.1786958],[-149.8956288,61.1787505],[-149.8953389,61.1787493],[-149.8953397,61.1787026],[-149.8945786,61.1786994],[-149.89458,61.1786198],[-149.8944309,61.1786192],[-149.8944335,61.1784696],[-149.8945397,61.1784701],[-149.8945413,61.1783762],[-149.8958345,61.1783813],[-149.8958329,61.1784768],[-149.8959557,61.1784773],[-149.8959533,61.1786183]]]}},{"type":"Feature","id":627701330,"properties":{"osmId":627701330,"category":"religious","addr:city":"Anchorage","addr:postcode":"99501","addr:state":"AK","amenity":"place_of_worship","building":"yes","denomination":"baptist","name":"Shiloh Baptist Church","phone":"+1 907-276-6673","religion":"christian"},"geometry":{"type":"Polygon","coordinates":[[[-149.8672905,61.202272],[-149.8671392,61.2020563],[-149.8667726,61.202116],[-149.8668181,61.2021807],[-149.8667349,61.2021943],[-149.866537,61.2022265],[-149.866504,61.2022319],[-149.8663536,61.2020176],[-149.8660201,61.2020719],[-149.8662764,61.2024371],[-149.8672905,61.202272]]]}},{"type":"Feature","id":627912788,"properties":{"osmId":627912788,"category":"academic","building":"school","isced:level":"1;2;3","name":"Frontier Charter School","operator":"charter"},"geometry":{"type":"Polygon","coordinates":[[[-149.8914313,61.1951181],[-149.8914422,61.1945971],[-149.8910217,61.1945951],[-149.8910128,61.1950164],[-149.891149,61.1950171],[-149.8911469,61.1951167],[-149.8914313,61.1951181]]]}},{"type":"Feature","id":628639550,"properties":{"osmId":628639550,"category":"academic","building":"school","denomination":"roman_catholic","isced:level":"0;1;2;3","name":"Holy Rosary","operator":"private","religion":"christian"},"geometry":{"type":"Polygon","coordinates":[[[-149.9012771,61.1983136],[-149.9011228,61.1983133],[-149.9011232,61.1982641],[-149.9010069,61.1982638],[-149.9010065,61.19831],[-149.9008191,61.1983096],[-149.9008209,61.1981071],[-149.9010182,61.1981075],[-149.901018,61.1981289],[-149.9010975,61.198129],[-149.9010979,61.1980852],[-149.9012791,61.1980856],[-149.9012771,61.1983136]]]}},{"type":"Feature","id":641170700,"properties":{"osmId":641170700,"category":"athletic","building":"grandstand"},"geometry":{"type":"Polygon","coordinates":[[[-149.876342,61.2041938],[-149.8763343,61.2036334],[-149.8761305,61.2036341],[-149.8761339,61.2038809],[-149.8760735,61.2038811],[-149.8760746,61.2039622],[-149.8761381,61.203962],[-149.8761413,61.2041944],[-149.876342,61.2041938]]]}},{"type":"Feature","id":641170703,"properties":{"osmId":641170703,"category":"athletic","building":"grandstand"},"geometry":{"type":"Polygon","coordinates":[[[-149.8769107,61.2058008],[-149.876685,61.2057959],[-149.8766261,61.2057665],[-149.8766322,61.2056559],[-149.8763801,61.2056549],[-149.8763903,61.2058155],[-149.8765935,61.2059114],[-149.8769086,61.2059144],[-149.8769107,61.2058008]]]}},{"type":"Feature","id":658555935,"properties":{"osmId":658555935,"category":"religious","addr:city":"Anchorage","addr:postcode":"99517","addr:state":"AK","amenity":"place_of_worship","building":"yes","denomination":"lutheran","name":"Lutheran Church of Hope","phone":"+19072797714","religion":"christian","website":"https://www.hopeak.org/"},"geometry":{"type":"Polygon","coordinates":[[[-149.9198931,61.1962425],[-149.9200906,61.1961483],[-149.9198607,61.1960364],[-149.9200333,61.1959541],[-149.9198856,61.1958821],[-149.919712,61.1959649],[-149.9196418,61.1959435],[-149.9194977,61.1959417],[-149.9194239,61.1959062],[-149.9192909,61.1959703],[-149.9191463,61.1959007],[-149.9188543,61.1960414],[-149.9191318,61.196175],[-149.9193129,61.1960877],[-149.919579,61.1960895],[-149.9198931,61.1962425]]]}},{"type":"Feature","id":707484061,"properties":{"osmId":707484061,"category":"academic","building":"school","building:levels":"1","grades":"0-6","isced:level":"1","name":"North Star Elementary"},"geometry":{"type":"Polygon","coordinates":[[[-149.8943392,61.2001464],[-149.894339,61.200054],[-149.8943392,61.1999396],[-149.8939637,61.1999448],[-149.893953,61.1997794],[-149.8942427,61.1997768],[-149.8942427,61.1996321],[-149.8941751,61.1996311],[-149.894189,61.1994098],[-149.8939047,61.1994098],[-149.8939208,61.1992651],[-149.8941086,61.1992677],[-149.894232,61.1992186],[-149.8941676,61.1991565],[-149.8942266,61.19911],[-149.8941408,61.1990583],[-149.893894,61.1990454],[-149.8938779,61.1989033],[-149.8937813,61.1988387],[-149.8936794,61.1988826],[-149.8935507,61.1988206],[-149.8934273,61.1988929],[-149.8934487,61.1990351],[-149.8932127,61.199048],[-149.8931001,61.1990945],[-149.8931966,61.1991488],[-149.8931001,61.1992108],[-149.893202,61.1992599],[-149.8934166,61.1992651],[-149.8934273,61.1995597],[-149.8930089,61.1995649],[-149.8929713,61.1999112],[-149.8930571,61.1999086],[-149.8930518,61.2000456],[-149.892982,61.2000507],[-149.8930142,61.2002291],[-149.8932234,61.2002316],[-149.8932127,61.2001644],[-149.893261,61.2001644],[-149.8933093,61.2001386],[-149.8934595,61.2001412],[-149.8935185,61.2001644],[-149.8935024,61.2002316],[-149.8939423,61.2002291],[-149.8939369,61.2001619],[-149.8939852,61.2001386],[-149.8943392,61.2001464]]]}},{"type":"Feature","id":737731428,"properties":{"osmId":737731428,"category":"academic","addr:housenumber":"2500","addr:street":"Minnesota Drive","building":"school","building:levels":"2","grades":"7-8","isced:level":"2","name":"Romig Middle School"},"geometry":{"type":"Polygon","coordinates":[[[-149.9154423,61.1986711],[-149.9147313,61.1986761],[-149.9147415,61.1984453],[-149.9144889,61.1984408],[-149.9145016,61.198351],[-149.9144258,61.198348],[-149.9144479,61.1982339],[-149.9145237,61.1982278],[-149.9145296,61.1982476],[-149.9145786,61.1982478],[-149.914593,61.1972319],[-149.9147324,61.1972215],[-149.9147324,61.197194],[-149.9150434,61.1971923],[-149.9150542,61.1974661],[-149.915762,61.1974678],[-149.9157584,61.1979432],[-149.9155654,61.1979535],[-149.9155975,61.1983083],[-149.9154295,61.1983049],[-149.9154423,61.1986711]]]}},{"type":"Feature","id":765551251,"properties":{"osmId":765551251,"category":"religious","building":"yes"},"geometry":{"type":"Polygon","coordinates":[[[-149.919865,61.196826],[-149.919863,61.196936],[-149.920218,61.196938],[-149.920219,61.196828],[-149.919865,61.196826]]]}},{"type":"Feature","id":772508623,"properties":{"osmId":772508623,"category":"religious","addr:city":"Anchorage","addr:postcode":"99503","addr:state":"AK","amenity":"place_of_worship","building":"yes","denomination":"theravada","name":"Wat Alaska Yanna Varraran","phone":"+1 907-272-3699","religion":"buddhist"},"geometry":{"type":"Polygon","coordinates":[[[-149.887934,61.199409],[-149.887933,61.19952],[-149.887891,61.19952],[-149.887891,61.19956],[-149.888263,61.19956],[-149.888263,61.199409],[-149.887934,61.199409]]]}},{"type":"Feature","id":772561621,"properties":{"osmId":772561621,"category":"religious","addr:city":"Anchorage","addr:housenumber":"540","addr:postcode":"99503","addr:state":"AK","addr:street":"W 34th Ave","amenity":"place_of_worship","building":"yes","denomination":"seventh_day_adventist","name":"Anchorage Korean Seventh-day Adventist Church","phone":"+1 907-868-3310","religion":"christian","website":"https://anchoragekoreanak.adventistchurch.org/"},"geometry":{"type":"Polygon","coordinates":[[[-149.8922542,61.1892687],[-149.8920686,61.1892683],[-149.8920686,61.1892197],[-149.8920693,61.1891903],[-149.8917483,61.1891896],[-149.8917499,61.1890226],[-149.8918886,61.1890229],[-149.8919684,61.1890231],[-149.8919704,61.1888098],[-149.8923178,61.1888106],[-149.8923156,61.1890382],[-149.8926233,61.1890389],[-149.8926219,61.1891795],[-149.8922551,61.1891786],[-149.8922542,61.1892687]]]}},{"type":"Feature","id":782212917,"properties":{"osmId":782212917,"category":"athletic","building":"stadium","name":"Dempsey Anderson Ice Rink","source":"microsoft/BuildingFootprints"},"geometry":{"type":"Polygon","coordinates":[[[-149.915512,61.197019],[-149.916783,61.197022],[-149.916784,61.196946],[-149.916907,61.196946],[-149.916908,61.196897],[-149.916993,61.196897],[-149.916993,61.196946],[-149.917147,61.196946],[-149.917146,61.197025],[-149.918403,61.197029],[-149.918406,61.196722],[-149.918052,61.196721],[-149.918053,61.196665],[-149.916844,61.196662],[-149.916844,61.196693],[-149.916792,61.196692],[-149.916792,61.196668],[-149.915754,61.196665],[-149.915753,61.196723],[-149.915515,61.196722],[-149.915512,61.197019]]]}},{"type":"Feature","id":827416508,"properties":{"osmId":827416508,"category":"religious","addr:city":"Anchorage","addr:postcode":"99503","addr:state":"AK","amenity":"place_of_worship","building":"yes","denomination":"la_luz_del_mundo","name":"La Luz Del Mundo","phone":"+1 979-481-1108","religion":"christian","website":"https://www.facebook.com/lldmalaska/","wikidata":"Q138821613"},"geometry":{"type":"Polygon","coordinates":[[[-149.8819199,61.1980269],[-149.8819638,61.1980016],[-149.8819919,61.1979728],[-149.8820127,61.1979363],[-149.8820188,61.1979057],[-149.8820102,61.197868],[-149.8819785,61.197838],[-149.8819272,61.1978104],[-149.881893,61.1978027],[-149.8818429,61.1977998],[-149.8817807,61.197811],[-149.8817538,61.1978374],[-149.8817355,61.197881],[-149.8817452,61.1979316],[-149.8817575,61.1979622],[-149.8817684,61.1979898],[-149.881799,61.1980169],[-149.8818356,61.1980257],[-149.881882,61.1980328],[-149.8819199,61.1980269]]]}},{"type":"Feature","id":828281293,"properties":{"osmId":828281293,"category":"athletic","addr:city":"Anchorage","addr:housenumber":"665","addr:postcode":"99503","addr:state":"AK","addr:street":"East 33rd Avenue","building":"yes","leisure":"sports_centre","name":"Alaska Rock Gym","opening_hours":"Mo-Fr 06:00-22:00, Sa-Su 09:00-21:00","sport":"climbing"},"geometry":{"type":"Polygon","coordinates":[[[-149.8706298,61.1912924],[-149.8706261,61.1916361],[-149.8713451,61.1916379],[-149.8713488,61.1912942],[-149.8706298,61.1912924]]]}},{"type":"Feature","id":992811168,"properties":{"osmId":992811168,"category":"athletic","building":"grandstand"},"geometry":{"type":"Polygon","coordinates":[[[-149.9187881,61.1985836],[-149.9186429,61.1985835],[-149.9186446,61.1978231],[-149.9187901,61.1978232],[-149.9187881,61.1985836]]]}},{"type":"Feature","id":992811169,"properties":{"osmId":992811169,"category":"athletic","building":"grandstand"},"geometry":{"type":"Polygon","coordinates":[[[-149.9169633,61.1984688],[-149.9168245,61.1984688],[-149.9168246,61.1979523],[-149.9169632,61.1979523],[-149.9169633,61.1984688]]]}}]}