{"type":"FeatureCollection","features":[{"type":"Feature","id":43656200,"properties":{"osmId":43656200,"category":"academic","building":"university","building:levels":"3","name":"DeBartolo Hall","_wikiTried":true},"geometry":{"type":"Polygon","coordinates":[[[-86.2366171,41.6988754],[-86.2365036,41.6988789],[-86.2363873,41.6988825],[-86.2363856,41.6988516],[-86.23634,41.698853],[-86.2363439,41.6989243],[-86.2357959,41.6989412],[-86.235791,41.6988518],[-86.2357863,41.6987675],[-86.2358648,41.6987651],[-86.2359944,41.6987611],[-86.23598,41.6985025],[-86.235978,41.6984656],[-86.2359762,41.6984337],[-86.2359347,41.698435],[-86.2358116,41.6983523],[-86.2359251,41.6982621],[-86.2359601,41.698261],[-86.2359581,41.698226],[-86.235956,41.698187],[-86.2359379,41.6978619],[-86.2360406,41.6978587],[-86.2360399,41.697846],[-86.236039,41.6978293],[-86.2363145,41.6978208],[-86.2363133,41.6977984],[-86.2364325,41.6977948],[-86.2365492,41.6977912],[-86.236559,41.6979676],[-86.2365249,41.6979686],[-86.2365276,41.6980158],[-86.2365594,41.6980149],[-86.236569,41.6981884],[-86.2364987,41.6981906],[-86.2364999,41.6982127],[-86.2365022,41.6982531],[-86.2365743,41.6982508],[-86.2365837,41.6984212],[-86.2365126,41.6984234],[-86.2365138,41.6984443],[-86.2365161,41.6984857],[-86.2365899,41.6984834],[-86.2365994,41.6986546],[-86.2365689,41.6986555],[-86.2365717,41.698705],[-86.2366076,41.6987039],[-86.2366171,41.6988754]]]}},{"type":"Feature","id":43666502,"properties":{"osmId":43666502,"category":"academic","building":"university","name":"Mendoza College of Business","wikidata":"Q11344200","_wikiTried":true},"geometry":{"type":"Polygon","coordinates":[[[-86.2363547,41.6971988],[-86.2362897,41.697202],[-86.2362943,41.6973107],[-86.236212,41.6973142],[-86.2362141,41.6973514],[-86.236118,41.6973554],[-86.2361161,41.6973182],[-86.2360383,41.6973215],[-86.2360322,41.6972121],[-86.2359669,41.6972147],[-86.235981,41.6974629],[-86.235853,41.6974689],[-86.2358507,41.6974357],[-86.2358057,41.697437],[-86.2357846,41.697153],[-86.2357737,41.697155],[-86.2357691,41.6970869],[-86.2357839,41.6970856],[-86.2357821,41.6970678],[-86.2357451,41.6970695],[-86.2357417,41.6969965],[-86.2357813,41.6969957],[-86.235756,41.6966627],[-86.2357919,41.696661],[-86.2357839,41.6964828],[-86.2358317,41.6964824],[-86.2358316,41.69646],[-86.2359556,41.6964564],[-86.2359571,41.6964876],[-86.2359981,41.6964856],[-86.2360169,41.6967754],[-86.2359762,41.6967773],[-86.235992,41.6969889],[-86.2361993,41.6969814],[-86.2361896,41.6969728],[-86.2361824,41.6969599],[-86.2361802,41.6969477],[-86.2361819,41.6969365],[-86.2361874,41.6969266],[-86.2361936,41.6969175],[-86.2362005,41.6969112],[-86.236209,41.696906],[-86.2362182,41.6969022],[-86.2362292,41.6969004],[-86.2362412,41.696899],[-86.2362554,41.6968996],[-86.2362693,41.6969026],[-86.2362783,41.6969062],[-86.2362874,41.6969106],[-86.2362969,41.6969169],[-86.2362841,41.6967405],[-86.236223,41.6967424],[-86.2362065,41.6965278],[-86.2361953,41.6965293],[-86.2361532,41.6965172],[-86.2361494,41.6964382],[-86.2362621,41.6964332],[-86.2362591,41.6963796],[-86.2363912,41.6963745],[-86.2363911,41.696397],[-86.2364418,41.6963961],[-86.2364644,41.6967531],[-86.2364877,41.6967519],[-86.2365011,41.696965],[-86.2365508,41.6969626],[-86.2365566,41.6970396],[-86.2365231,41.6970411],[-86.236524,41.6970597],[-86.2365389,41.697059],[-86.236543,41.6971261],[-86.2365245,41.6971267],[-86.2365383,41.6974095],[-86.2365019,41.6974104],[-86.2365038,41.6974431],[-86.2363691,41.6974484],[-86.2363547,41.6971988]]]}},{"type":"Feature","id":71071152,"properties":{"osmId":71071152,"category":"academic","building":"university","name":"Hammes Bookstore","_wikiTried":true},"geometry":{"type":"Polygon","coordinates":[[[-86.2403566,41.6968315],[-86.2403545,41.6967673],[-86.240421,41.6967661],[-86.2404179,41.6966707],[-86.2403541,41.6966719],[-86.240349,41.6965171],[-86.2404268,41.6965156],[-86.2404235,41.6964168],[-86.2403334,41.6964185],[-86.2403324,41.6963872],[-86.2402692,41.6963883],[-86.2402684,41.6963646],[-86.2401839,41.6963662],[-86.2401848,41.6963951],[-86.2398114,41.6964019],[-86.2398108,41.6963831],[-86.2396815,41.6963855],[-86.2396848,41.6964847],[-86.2395612,41.696487],[-86.2395641,41.6965767],[-86.2395915,41.6965762],[-86.2396,41.6968327],[-86.2401836,41.696822],[-86.2402034,41.6968216],[-86.2402038,41.6968344],[-86.2403566,41.6968315]]]}},{"type":"Feature","id":76158395,"properties":{"osmId":76158395,"category":"academic","amenity":"restaurant","building":"university","name":"Legends of Notre Dame","_wikiTried":true},"geometry":{"type":"Polygon","coordinates":[[[-86.2352098,41.6963071],[-86.2350665,41.6963084],[-86.2350671,41.6963199],[-86.2349434,41.6963211],[-86.2349108,41.6963214],[-86.2349105,41.6963095],[-86.2347638,41.6963111],[-86.2347578,41.6959753],[-86.2350595,41.6959753],[-86.2350617,41.6960357],[-86.2351109,41.696035],[-86.2352703,41.696154],[-86.2352716,41.6962589],[-86.2352098,41.6963071]]]}},{"type":"Feature","id":76235091,"properties":{"osmId":76235091,"category":"academic","building":"university","name":"McKenna Hall","_wikiTried":true},"geometry":{"type":"Polygon","coordinates":[[[-86.2382709,41.6982629],[-86.2382559,41.6980349],[-86.2382498,41.6979428],[-86.2380818,41.697949],[-86.2380836,41.6979766],[-86.2379369,41.697982],[-86.2379348,41.6979512],[-86.2377891,41.6979566],[-86.2377911,41.6979872],[-86.2376802,41.6979913],[-86.2376785,41.6979662],[-86.2375352,41.6979715],[-86.2375412,41.6980617],[-86.2375564,41.6982896],[-86.2376004,41.6982879],[-86.2377065,41.698284],[-86.2377044,41.6982532],[-86.2378383,41.6982482],[-86.2378399,41.6982717],[-86.2379641,41.6982671],[-86.2379632,41.6982532],[-86.2381082,41.6982478],[-86.2381096,41.6982688],[-86.2382709,41.6982629]]]}},{"type":"Feature","id":76235096,"properties":{"osmId":76235096,"category":"academic","building":"university","name":"Stinson-Remick Hall","_wikiTried":true},"geometry":{"type":"Polygon","coordinates":[[[-86.2380565,41.6971183],[-86.2375115,41.6971364],[-86.2375079,41.6970762],[-86.2373712,41.6970808],[-86.2373972,41.697518],[-86.2373712,41.6975188],[-86.2373768,41.6976129],[-86.2375447,41.6976073],[-86.2375438,41.6975918],[-86.2380131,41.6975763],[-86.2380077,41.6974854],[-86.2380878,41.6974827],[-86.2380913,41.6975404],[-86.2383067,41.6975333],[-86.2383042,41.6974917],[-86.2382329,41.6974941],[-86.2382163,41.6972159],[-86.2382629,41.6972144],[-86.2382567,41.6971108],[-86.2382034,41.6971125],[-86.2381976,41.6970348],[-86.2381581,41.6970101],[-86.2380855,41.6970122],[-86.2380541,41.6970386],[-86.2380565,41.6971183]]]}},{"type":"Feature","id":76235097,"properties":{"osmId":76235097,"category":"academic","amenity":"arts_centre","building":"university","name":"DeBartolo Performing Arts Center","website":"https://performingarts.nd.edu/","wikidata":"Q85783837","_wikiTried":true},"geometry":{"type":"Polygon","coordinates":[[[-86.2373809,41.6949995],[-86.2373537,41.6950244],[-86.2373146,41.6950341],[-86.2362367,41.6950686],[-86.2362108,41.6950631],[-86.2361923,41.6950466],[-86.2361812,41.6950258],[-86.2361794,41.6949996],[-86.2361905,41.694983],[-86.2362163,41.6949692],[-86.2362071,41.6947829],[-86.236246,41.6947822],[-86.2362346,41.6945574],[-86.2362185,41.6945503],[-86.23621,41.6945383],[-86.2362072,41.6945235],[-86.236211,41.6945086],[-86.2362195,41.6944994],[-86.2362384,41.694491],[-86.2362611,41.6944903],[-86.2362782,41.6944959],[-86.2362895,41.6945058],[-86.2365517,41.6945016],[-86.2365498,41.6943552],[-86.2365593,41.6943397],[-86.2365726,41.6943241],[-86.2365915,41.6943142],[-86.2366161,41.6943079],[-86.2366426,41.6943065],[-86.2366758,41.6943093],[-86.2367004,41.6943157],[-86.2367165,41.6943284],[-86.2367307,41.6943432],[-86.2367392,41.6944846],[-86.2368367,41.6944839],[-86.2368405,41.6944691],[-86.2368585,41.6944577],[-86.2368812,41.6944556],[-86.2369039,41.6944599],[-86.2369162,41.6944691],[-86.2369228,41.6944804],[-86.2369228,41.694498],[-86.2369503,41.6944973],[-86.2369503,41.6945277],[-86.2373299,41.6945249],[-86.2374179,41.6945807],[-86.2374208,41.694679],[-86.2373687,41.6947172],[-86.2373687,41.6947603],[-86.2373251,41.6947603],[-86.2373263,41.694813],[-86.2373289,41.6949236],[-86.2373488,41.6949299],[-86.2373677,41.6949441],[-86.2373782,41.6949603],[-86.2373809,41.6949995]]]}},{"type":"Feature","id":76235099,"properties":{"osmId":76235099,"category":"athletic","building":"yes","leisure":"sports_centre","name":"Rolfs Aquatic Center","_wikiTried":true},"geometry":{"type":"Polygon","coordinates":[[[-86.2304091,41.6988553],[-86.2304214,41.698864],[-86.2304461,41.6988656],[-86.2304641,41.6988532],[-86.2304643,41.6988288],[-86.2304385,41.698809],[-86.2304394,41.6987895],[-86.2304709,41.698789],[-86.2304896,41.6987723],[-86.2304924,41.6986017],[-86.230422,41.6986018],[-86.2304343,41.6985091],[-86.2304432,41.6984094],[-86.2304294,41.6983143],[-86.2304107,41.6982357],[-86.2300957,41.6982412],[-86.230083,41.6981928],[-86.230019,41.6981763],[-86.2299695,41.6981858],[-86.2299418,41.6982301],[-86.2299321,41.6982702],[-86.2299396,41.6989213],[-86.2299757,41.6989509],[-86.2300038,41.6989646],[-86.2300474,41.698961],[-86.2300757,41.6989448],[-86.2301028,41.6989111],[-86.2301037,41.6988537],[-86.2304091,41.6988553]]]}},{"type":"Feature","id":76245786,"properties":{"osmId":76245786,"category":"residential","building":"dormitory","name":"McGlinn Hall","_wikiTried":true},"geometry":{"type":"Polygon","coordinates":[[[-86.2428789,41.6982827],[-86.2424239,41.6982974],[-86.2424111,41.6980381],[-86.2423248,41.6980405],[-86.2422129,41.6980436],[-86.2421919,41.6976196],[-86.2426566,41.6976067],[-86.2426621,41.6977185],[-86.2423518,41.697727],[-86.2423622,41.6979364],[-86.2424047,41.6979352],[-86.2424016,41.6978737],[-86.2426016,41.6978682],[-86.2426108,41.698055],[-86.2425779,41.6980559],[-86.2425836,41.6981707],[-86.2428725,41.698164],[-86.2428789,41.6982827]]]}},{"type":"Feature","id":76245802,"properties":{"osmId":76245802,"category":"residential","building":"dormitory","name":"Keough Hall","_wikiTried":true},"geometry":{"type":"Polygon","coordinates":[[[-86.2414531,41.6983337],[-86.241116,41.6983434],[-86.2411178,41.698378],[-86.240983,41.6983819],[-86.240968,41.6980912],[-86.2408947,41.6980933],[-86.2408958,41.6981134],[-86.2407452,41.6981177],[-86.2407231,41.6976904],[-86.2411595,41.6976778],[-86.2411648,41.6977816],[-86.2409067,41.6977891],[-86.2409172,41.6979913],[-86.2409729,41.6979897],[-86.2409702,41.6979372],[-86.2411666,41.6979316],[-86.241176,41.6981136],[-86.2411389,41.6981147],[-86.2411446,41.6982255],[-86.2414471,41.6982168],[-86.2414531,41.6983337]]]}},{"type":"Feature","id":76245805,"properties":{"osmId":76245805,"category":"academic","building":"university","name":"Law School","_wikiTried":true},"geometry":{"type":"Polygon","coordinates":[[[-86.2383529,41.6994431],[-86.2383523,41.6995697],[-86.2383149,41.6995701],[-86.2383238,41.6998069],[-86.2383679,41.6998094],[-86.2383693,41.6998959],[-86.2382892,41.6998966],[-86.2382897,41.6999234],[-86.2381868,41.6999243],[-86.2381864,41.6999007],[-86.2379505,41.6999028],[-86.237951,41.6999394],[-86.2378377,41.6999404],[-86.2378373,41.6999138],[-86.2378042,41.6999141],[-86.237803,41.6998378],[-86.2378298,41.6998376],[-86.2378291,41.6997923],[-86.2377961,41.6997926],[-86.2377933,41.6996131],[-86.2378209,41.6996128],[-86.2378202,41.6995709],[-86.2377903,41.6995712],[-86.2377887,41.6994728],[-86.2378125,41.6994726],[-86.2378109,41.6993743],[-86.237783,41.6993746],[-86.2377812,41.6992574],[-86.2378294,41.6992412],[-86.237815,41.6991464],[-86.237758,41.6991273],[-86.2377705,41.6990646],[-86.2378125,41.6990416],[-86.2378402,41.6990015],[-86.2378347,41.6989482],[-86.2378272,41.6988757],[-86.2376148,41.6988833],[-86.2375889,41.6985369],[-86.237731,41.6985203],[-86.2377232,41.698411],[-86.2378849,41.6984105],[-86.2378962,41.6984969],[-86.2380828,41.6984916],[-86.2380832,41.6984153],[-86.2382357,41.6984092],[-86.2382424,41.6984524],[-86.2382805,41.6984532],[-86.2382899,41.6985445],[-86.2382422,41.6985561],[-86.2382478,41.6986508],[-86.238251,41.6987055],[-86.2382844,41.6987074],[-86.2382859,41.6988219],[-86.2379483,41.6988357],[-86.2379554,41.698944],[-86.2379764,41.6992627],[-86.2380248,41.6992751],[-86.2380261,41.6993571],[-86.2379742,41.6993575],[-86.2379725,41.6994438],[-86.2383529,41.6994431]]]}},{"type":"Feature","id":76245813,"properties":{"osmId":76245813,"category":"academic","building":"university","name":"Cushing Hall of Engineering","_wikiTried":true},"geometry":{"type":"Polygon","coordinates":[[[-86.2377015,41.6996509],[-86.2366121,41.6996741],[-86.236623,41.6999402],[-86.2373523,41.6999235],[-86.2373528,41.6999354],[-86.2374845,41.6999324],[-86.2374831,41.6998979],[-86.2376006,41.6998953],[-86.2376016,41.6999191],[-86.2377005,41.6999169],[-86.2376997,41.6998962],[-86.2377345,41.6998954],[-86.2377303,41.6997949],[-86.2377074,41.6997954],[-86.2377015,41.6996509]]]}},{"type":"Feature","id":76245815,"properties":{"osmId":76245815,"category":"residential","building":"dormitory","name":"Welsh Family Hall","nohousenumber":"yes","_wikiTried":true},"geometry":{"type":"Polygon","coordinates":[[[-86.2403747,41.6978007],[-86.2403703,41.6976892],[-86.239969,41.6976981],[-86.2399739,41.6978213],[-86.2401614,41.6978172],[-86.2401801,41.6981513],[-86.2403273,41.6981463],[-86.2403267,41.6981297],[-86.2403633,41.6981289],[-86.2403984,41.6981282],[-86.2403996,41.698161],[-86.2404075,41.6983628],[-86.2403539,41.6983639],[-86.2403584,41.6984767],[-86.2404151,41.6984754],[-86.240419,41.6985735],[-86.2405847,41.6985698],[-86.2405798,41.6984448],[-86.2406328,41.6984437],[-86.2406287,41.6983411],[-86.2405693,41.6983424],[-86.240563,41.6981828],[-86.2406021,41.6981819],[-86.2405946,41.6979924],[-86.2403982,41.6979967],[-86.2404005,41.6980543],[-86.2403397,41.6980556],[-86.2403297,41.6978017],[-86.2403747,41.6978007]]]}},{"type":"Feature","id":76245825,"properties":{"osmId":76245825,"category":"academic","building":"university","name":"Burke Maintenance Garage","_wikiTried":true},"geometry":{"type":"Polygon","coordinates":[[[-86.244976,41.7000037],[-86.2446772,41.7000112],[-86.24467,41.6998507],[-86.2448191,41.699847],[-86.2449687,41.6998432],[-86.244976,41.7000037]]]}},{"type":"Feature","id":76245829,"properties":{"osmId":76245829,"category":"academic","building":"university","name":"Rockne Memorial","_wikiTried":true},"geometry":{"type":"Polygon","coordinates":[[[-86.2443953,41.7002001],[-86.2443679,41.6997559],[-86.2437751,41.6997762],[-86.2437734,41.6997492],[-86.2436491,41.6997535],[-86.2436614,41.699953],[-86.243627,41.6999542],[-86.2436325,41.7000442],[-86.2436662,41.7000431],[-86.2436791,41.7002528],[-86.243816,41.7002481],[-86.2438143,41.70022],[-86.2443953,41.7002001]]]}},{"type":"Feature","id":76245833,"properties":{"osmId":76245833,"category":"academic","building":"university","name":"Fitzpatrick Hall of Engineering","_wikiTried":true},"geometry":{"type":"Polygon","coordinates":[[[-86.237718,41.6994502],[-86.2376736,41.6994512],[-86.2376785,41.6995697],[-86.2376981,41.6995692],[-86.2377014,41.6996488],[-86.2366274,41.6996716],[-86.2366215,41.6995053],[-86.2365636,41.6995066],[-86.2365607,41.6994372],[-86.2365874,41.6994366],[-86.2365796,41.6992452],[-86.2368612,41.6992388],[-86.2374125,41.6992262],[-86.2376817,41.69922],[-86.2376886,41.6993888],[-86.2377155,41.6993882],[-86.237718,41.6994502]]]}},{"type":"Feature","id":76245835,"properties":{"osmId":76245835,"category":"academic","building":"university","name":"South Dining Hall","_wikiTried":true},"geometry":{"type":"Polygon","coordinates":[[[-86.2418681,41.6997486],[-86.2418352,41.6997491],[-86.241836,41.6997816],[-86.2416741,41.6997837],[-86.2416735,41.69976],[-86.2415858,41.6997611],[-86.2415862,41.699779],[-86.2413206,41.6997825],[-86.2413202,41.6997656],[-86.2412366,41.6997667],[-86.2412373,41.6997978],[-86.2410715,41.6997999],[-86.241071,41.6997773],[-86.2410269,41.6997779],[-86.2410257,41.6997303],[-86.241012,41.6997305],[-86.2410111,41.6996925],[-86.2410249,41.6996923],[-86.2410219,41.699564],[-86.2410057,41.6995642],[-86.2410047,41.6995244],[-86.2410161,41.6995243],[-86.2410158,41.6995123],[-86.2410131,41.6993975],[-86.2409969,41.6993978],[-86.2409959,41.6993582],[-86.2410109,41.699358],[-86.2410098,41.6993142],[-86.2410406,41.6993138],[-86.24104,41.6992905],[-86.2410052,41.6992909],[-86.2410022,41.6991649],[-86.2411975,41.6991624],[-86.2411971,41.699148],[-86.2412875,41.6991468],[-86.241287,41.6991279],[-86.2415473,41.6991245],[-86.2415478,41.6991487],[-86.2416053,41.6991479],[-86.2416057,41.6991645],[-86.2418476,41.6991613],[-86.2418499,41.6992563],[-86.2418158,41.6992567],[-86.2418165,41.6992854],[-86.2418464,41.699285],[-86.2418476,41.6993355],[-86.2418581,41.6993353],[-86.241859,41.6993737],[-86.2418468,41.6993739],[-86.2418498,41.6995013],[-86.2418673,41.6995011],[-86.2418681,41.6995343],[-86.2418552,41.6995345],[-86.2418583,41.6996689],[-86.2418769,41.6996687],[-86.2418777,41.699704],[-86.241867,41.6997041],[-86.2418681,41.6997486]]]}},{"type":"Feature","id":76245842,"properties":{"osmId":76245842,"category":"residential","building":"dormitory","name":"O'Neill Hall","_wikiTried":true},"geometry":{"type":"Polygon","coordinates":[[[-86.2417706,41.6977422],[-86.2417837,41.6980137],[-86.2418285,41.6980125],[-86.2418249,41.6979366],[-86.2420282,41.6979312],[-86.2420373,41.6981198],[-86.2420034,41.6981207],[-86.2420108,41.6982742],[-86.2420633,41.6982728],[-86.2420687,41.698386],[-86.2420193,41.6983874],[-86.2420254,41.6985156],[-86.2418656,41.6985199],[-86.2418601,41.6984063],[-86.2418157,41.6984075],[-86.24181,41.6982884],[-86.2418523,41.6982873],[-86.2418418,41.6980699],[-86.2417894,41.6980713],[-86.2417909,41.6981022],[-86.2416372,41.6981063],[-86.2416203,41.6977574],[-86.2414104,41.697763],[-86.2414053,41.6976572],[-86.2418099,41.6976463],[-86.2418145,41.697741],[-86.2417706,41.6977422]]]}},{"type":"Feature","id":76245857,"properties":{"osmId":76245857,"category":"residential","building":"dormitory","building:levels":"3","name":"Alumni Hall","nohousenumber":"yes","roof:levels":"0","wikidata":"Q4737454","_wikiTried":true},"geometry":{"type":"Polygon","coordinates":[[[-86.2398743,41.6998493],[-86.2393873,41.699863],[-86.2393892,41.6999009],[-86.2392703,41.6999042],[-86.2392666,41.6998308],[-86.2392231,41.699832],[-86.2392183,41.6997372],[-86.2392664,41.6997358],[-86.2392531,41.6994734],[-86.2391759,41.6994755],[-86.2391703,41.6993648],[-86.2396558,41.6993512],[-86.239647,41.6991774],[-86.2397654,41.6991741],[-86.2397737,41.6993368],[-86.2398132,41.6993357],[-86.2398191,41.6994512],[-86.2393908,41.6994633],[-86.2394051,41.6997448],[-86.2395366,41.6997411],[-86.2395381,41.6997709],[-86.2397624,41.6997646],[-86.2397596,41.6997101],[-86.2398672,41.6997071],[-86.2398743,41.6998493]]]}},{"type":"Feature","id":152169657,"properties":{"osmId":152169657,"category":"academic","building":"university","name":"Hurley Hall","_wikiTried":true},"geometry":{"type":"Polygon","coordinates":[[[-86.2374902,41.7008555],[-86.2375293,41.7008542],[-86.237522,41.700728],[-86.2376053,41.7007253],[-86.2376011,41.7006526],[-86.2376612,41.7006507],[-86.2376702,41.7008061],[-86.2377532,41.7008034],[-86.2377557,41.7008456],[-86.2378119,41.7008438],[-86.2378106,41.7008207],[-86.2378095,41.7008025],[-86.2378698,41.7008006],[-86.2378561,41.7005612],[-86.2378413,41.7005616],[-86.2378283,41.7005515],[-86.2377692,41.7005532],[-86.2377564,41.7005649],[-86.2377444,41.7005653],[-86.2377449,41.7005743],[-86.2375214,41.7005815],[-86.2375197,41.7005513],[-86.2375007,41.7005519],[-86.237476,41.7005527],[-86.2374779,41.7005846],[-86.2372315,41.7005926],[-86.2372309,41.7005816],[-86.2372184,41.700582],[-86.2372052,41.7005731],[-86.237148,41.7005759],[-86.2371349,41.7005876],[-86.2371239,41.7005879],[-86.2371378,41.7008238],[-86.2372214,41.7008211],[-86.237224,41.7008645],[-86.2372803,41.7008626],[-86.2372779,41.7008209],[-86.2373298,41.7008192],[-86.2373205,41.7006606],[-86.2373893,41.7006583],[-86.2373936,41.7007313],[-86.2374828,41.7007284],[-86.2374902,41.7008555]]]}},{"type":"Feature","id":152169664,"properties":{"osmId":152169664,"category":"academic","building":"university","name":"Hayes-Healy Center","_wikiTried":true},"geometry":{"type":"Polygon","coordinates":[[[-86.2378872,41.7010201],[-86.2371477,41.7010461],[-86.2371391,41.7008676],[-86.237224,41.7008645],[-86.2372803,41.7008626],[-86.2374902,41.7008555],[-86.2375293,41.7008542],[-86.2377557,41.7008456],[-86.2378119,41.7008438],[-86.2378762,41.700841],[-86.2378872,41.7010201]]]}},{"type":"Feature","id":152170412,"properties":{"osmId":152170412,"category":"academic","building":"university","name":"North Dining Hall","_wikiTried":true},"geometry":{"type":"Polygon","coordinates":[[[-86.2363334,41.7048224],[-86.2358014,41.7048403],[-86.2357531,41.7040378],[-86.235861,41.7040342],[-86.2358537,41.703913],[-86.2362716,41.703899],[-86.2362775,41.7039966],[-86.2363621,41.7039937],[-86.2364015,41.7046484],[-86.236323,41.704651],[-86.2363334,41.7048224]]]}},{"type":"Feature","id":152170414,"properties":{"osmId":152170414,"category":"academic","building":"university","building:levels":"11","name":"Grace Hall","_wikiTried":true},"geometry":{"type":"Polygon","coordinates":[[[-86.2341522,41.7050918],[-86.2341376,41.7050924],[-86.2341356,41.705097],[-86.234118,41.7050978],[-86.2341165,41.7050939],[-86.2340942,41.7050941],[-86.2340914,41.7050981],[-86.2340741,41.705099],[-86.2340742,41.705095],[-86.2340495,41.705096],[-86.2340463,41.7051008],[-86.2340308,41.7051],[-86.2340285,41.7050961],[-86.234006,41.7050969],[-86.2340018,41.7051028],[-86.233986,41.7051023],[-86.2339842,41.7050988],[-86.2339666,41.7050989],[-86.233966,41.7050834],[-86.233923,41.7050838],[-86.2339179,41.7050577],[-86.2339131,41.7050563],[-86.2339126,41.7050448],[-86.2339165,41.7050407],[-86.2339181,41.7050266],[-86.2339103,41.7050231],[-86.2339059,41.7049964],[-86.2339075,41.7049883],[-86.2339075,41.7049775],[-86.2339122,41.7049754],[-86.2339139,41.7049656],[-86.2339178,41.7049606],[-86.2339172,41.7049542],[-86.2339194,41.7049517],[-86.2339195,41.7049368],[-86.2339244,41.7049367],[-86.2339234,41.7049266],[-86.2339227,41.7049044],[-86.2339317,41.7049042],[-86.23393,41.7048859],[-86.2338936,41.7048869],[-86.2338883,41.7048764],[-86.2338869,41.704865],[-86.2338917,41.7048624],[-86.2338911,41.7048469],[-86.2338872,41.7048278],[-86.2338663,41.7048282],[-86.2338635,41.7048336],[-86.2338236,41.7048346],[-86.2338183,41.7048393],[-86.2338033,41.7048394],[-86.2338013,41.7048351],[-86.233788,41.7048354],[-86.2337858,41.7048478],[-86.2337711,41.7048478],[-86.2337676,41.7048522],[-86.2337521,41.7048524],[-86.2337481,41.7048481],[-86.2337276,41.704849],[-86.2337243,41.7048538],[-86.2337079,41.7048535],[-86.2337064,41.7048492],[-86.2336846,41.7048496],[-86.2336804,41.7048551],[-86.2336643,41.7048551],[-86.2336632,41.7048505],[-86.2336284,41.7048525],[-86.2336251,41.7048189],[-86.2336033,41.7048189],[-86.2336026,41.7048085],[-86.2335968,41.7048068],[-86.2335954,41.7047941],[-86.2336012,41.7047905],[-86.2336001,41.7047746],[-86.2335936,41.7047721],[-86.2335938,41.7047598],[-86.2335975,41.7047577],[-86.2335972,41.7047401],[-86.2335922,41.7047404],[-86.2335915,41.704727],[-86.2335959,41.7047235],[-86.233594,41.704711],[-86.2335891,41.7047069],[-86.2335875,41.7046942],[-86.2335924,41.7046909],[-86.2335931,41.7046811],[-86.2336072,41.7046767],[-86.233607,41.7046558],[-86.2336795,41.7046563],[-86.2336809,41.7046438],[-86.2336947,41.7046342],[-86.2337098,41.704635],[-86.2337151,41.7046389],[-86.2337324,41.7046381],[-86.2337394,41.7046322],[-86.2337551,41.7046317],[-86.2337593,41.7046368],[-86.2337707,41.7046369],[-86.2337826,41.7046307],[-86.2337975,41.7046315],[-86.2338031,41.704636],[-86.2338344,41.7046348],[-86.2338375,41.7046686],[-86.2338579,41.7046682],[-86.2338577,41.7046822],[-86.2338625,41.7046828],[-86.233864,41.7046953],[-86.2338575,41.7046961],[-86.2338574,41.7047175],[-86.2338644,41.7047183],[-86.2338657,41.7047302],[-86.2338582,41.7047326],[-86.2338583,41.7047526],[-86.2338678,41.704756],[-86.2338681,41.704766],[-86.2338604,41.7047693],[-86.2338615,41.704778],[-86.2338871,41.7047773],[-86.2338911,41.7047658],[-86.2339059,41.7047641],[-86.2339143,41.7047593],[-86.2339277,41.7047598],[-86.2339322,41.7047636],[-86.2339393,41.7047638],[-86.2339419,41.7047622],[-86.2340032,41.7047612],[-86.2340037,41.7047686],[-86.2340147,41.7047722],[-86.2340147,41.7047854],[-86.234016,41.7047988],[-86.2340058,41.7048023],[-86.2340107,41.7048805],[-86.2339925,41.7048843],[-86.2339898,41.7049023],[-86.2340105,41.7049018],[-86.2340146,41.7048962],[-86.2340303,41.7048964],[-86.2340333,41.7049011],[-86.234058,41.7049002],[-86.2340614,41.7048948],[-86.2340782,41.7048939],[-86.2340807,41.7048991],[-86.2341035,41.7048961],[-86.2341074,41.7048909],[-86.2341237,41.7048907],[-86.2341462,41.7048967],[-86.2341457,41.7049093],[-86.2341918,41.7049079],[-86.234192,41.7049331],[-86.2341998,41.7049359],[-86.2341997,41.7049469],[-86.2341926,41.7049485],[-86.2341935,41.7049661],[-86.2342025,41.7049677],[-86.2342027,41.7049796],[-86.2341947,41.7049814],[-86.2341961,41.7049991],[-86.2342047,41.705001],[-86.2342048,41.7050129],[-86.2341974,41.7050155],[-86.2341981,41.7050282],[-86.2341812,41.7050295],[-86.2341819,41.7050374],[-86.2341855,41.7050791],[-86.2341519,41.7050798],[-86.2341522,41.7050918]]]}},{"type":"Feature","id":152170415,"properties":{"osmId":152170415,"category":"residential","building":"dormitory","name":"Cavanaugh Hall","_wikiTried":true},"geometry":{"type":"Polygon","coordinates":[[[-86.2373037,41.7027761],[-86.2372894,41.7025272],[-86.2370836,41.7025338],[-86.2370889,41.7026256],[-86.2371427,41.7026238],[-86.2371604,41.7029322],[-86.2370877,41.7029345],[-86.2370939,41.703043],[-86.2373015,41.7030364],[-86.237294,41.7029055],[-86.2377761,41.70289],[-86.2377618,41.7026409],[-86.23776,41.7026098],[-86.2375946,41.7026151],[-86.2375972,41.7026601],[-86.2376248,41.7026592],[-86.2376309,41.7027656],[-86.2373037,41.7027761]]]}},{"type":"Feature","id":152170417,"properties":{"osmId":152170417,"category":"residential","addr:city":"Notre Dame","addr:postcode":"46556-5605","addr:state":"IN","architect":"Charles Donagh McGinnis and Timothy Walsh","building":"dormitory","building:levels":"4","building:levels:underground":"1","description":"Built in 1939, Breen-Phillips Hall currently serves as an all-girls dormitory.","name":"Breen-Phillips Hall","_wikiTried":true},"geometry":{"type":"Polygon","coordinates":[[[-86.2362124,41.7030593],[-86.236207,41.702975],[-86.2361869,41.7026582],[-86.2361824,41.7025871],[-86.2358098,41.7026003],[-86.2358146,41.7026759],[-86.2360002,41.7026693],[-86.2360199,41.7029785],[-86.2358317,41.7029851],[-86.2358373,41.7030726],[-86.2362124,41.7030593]]]}},{"type":"Feature","id":152170418,"properties":{"osmId":152170418,"category":"academic","building":"university","building:levels":"11","name":"Flanner Hall","_wikiTried":true},"geometry":{"type":"Polygon","coordinates":[[[-86.234815,41.7049989],[-86.2347677,41.7050005],[-86.2347687,41.7050163],[-86.2345856,41.7050227],[-86.2345849,41.7050109],[-86.2345525,41.7050121],[-86.23455,41.7049734],[-86.2345492,41.7049608],[-86.2345316,41.7049614],[-86.2345242,41.7048471],[-86.2345687,41.7048455],[-86.2345678,41.7048309],[-86.234711,41.7048258],[-86.2347094,41.7048003],[-86.2346845,41.7048012],[-86.234679,41.704716],[-86.234731,41.7047141],[-86.2348372,41.7047104],[-86.234838,41.7047227],[-86.2348807,41.7047212],[-86.2348738,41.7046114],[-86.2348912,41.7046108],[-86.2348891,41.7045776],[-86.2350441,41.7045723],[-86.2350449,41.7045851],[-86.2351133,41.7045828],[-86.2351147,41.7046053],[-86.2351339,41.7046046],[-86.2351423,41.7047418],[-86.2351195,41.7047426],[-86.2351216,41.7047776],[-86.2349642,41.704783],[-86.2349635,41.7047709],[-86.2348441,41.704775],[-86.2348454,41.704796],[-86.2348353,41.7047964],[-86.2347861,41.7047981],[-86.234791,41.7048778],[-86.2348073,41.7048772],[-86.234815,41.7049989]]]}},{"type":"Feature","id":152170423,"properties":{"osmId":152170423,"category":"academic","building":"university","building:levels":"4","name":"Nieuwland Science Hall","_wikiTried":true},"geometry":{"type":"Polygon","coordinates":[[[-86.2362854,41.7017116],[-86.2362914,41.7018057],[-86.2368146,41.7017873],[-86.2368189,41.7018553],[-86.236166,41.7018783],[-86.2361726,41.7019825],[-86.2363845,41.701975],[-86.2364941,41.7019712],[-86.2366308,41.7019663],[-86.2368423,41.7019589],[-86.2370288,41.7019523],[-86.2370155,41.7017421],[-86.2370609,41.7017405],[-86.2370577,41.70169],[-86.2370822,41.7016891],[-86.2370524,41.70122],[-86.2370181,41.7012212],[-86.2370154,41.7011791],[-86.2369837,41.7011802],[-86.2369747,41.7010376],[-86.2367744,41.7010447],[-86.2367788,41.7011143],[-86.2364133,41.7011272],[-86.2364257,41.7013219],[-86.2361227,41.7013326],[-86.236147,41.7017164],[-86.2362854,41.7017116]]]}},{"type":"Feature","id":152170424,"properties":{"osmId":152170424,"category":"academic","building":"university","name":"Riley Hall of Art and Design","_wikiTried":true},"geometry":{"type":"Polygon","coordinates":[[[-86.2370056,41.7010099],[-86.236765,41.7010065],[-86.2367683,41.7008786],[-86.2367255,41.700878],[-86.2367247,41.7009102],[-86.2361507,41.7009021],[-86.2361548,41.7007412],[-86.2367311,41.7007493],[-86.2367302,41.700783],[-86.2367665,41.7007835],[-86.2367701,41.7006424],[-86.2370036,41.7006457],[-86.2370017,41.7007231],[-86.2369569,41.7007225],[-86.2369517,41.7009263],[-86.2370077,41.7009271],[-86.2370056,41.7010099]]]}},{"type":"Feature","id":152170426,"properties":{"osmId":152170426,"category":"residential","building":"dormitory","building:levels":"4","name":"Pasquerilla East Hall","_wikiTried":true},"geometry":{"type":"Polygon","coordinates":[[[-86.2341691,41.7039494],[-86.2341521,41.70395],[-86.2341509,41.7039327],[-86.2341174,41.7039339],[-86.2341177,41.7039399],[-86.2340131,41.7039436],[-86.2340126,41.7039361],[-86.2338265,41.7039427],[-86.2338247,41.7039141],[-86.2337311,41.7039174],[-86.2337319,41.70393],[-86.2336388,41.7039332],[-86.2336393,41.7039414],[-86.2335349,41.7039449],[-86.2335345,41.7039379],[-86.2333849,41.7039428],[-86.233389,41.7040125],[-86.2334012,41.7040121],[-86.2334058,41.7040906],[-86.2333946,41.7040909],[-86.2333986,41.7041622],[-86.2334096,41.7041619],[-86.2334142,41.7042429],[-86.2333875,41.7042437],[-86.2333913,41.7043101],[-86.2334311,41.7043088],[-86.233439,41.7044479],[-86.233449,41.7044476],[-86.2334534,41.7045276],[-86.2334447,41.7045279],[-86.2334463,41.7045559],[-86.2334659,41.7045553],[-86.2334664,41.7045656],[-86.2335927,41.7045618],[-86.2335907,41.7045234],[-86.2335795,41.7045238],[-86.2335751,41.7044426],[-86.2335847,41.7044423],[-86.233577,41.7043009],[-86.2335645,41.7043013],[-86.233561,41.7042381],[-86.2335375,41.7042388],[-86.2335329,41.7041571],[-86.2335426,41.7041567],[-86.2335385,41.7040871],[-86.233501,41.7040884],[-86.2334981,41.7040393],[-86.2336495,41.7040343],[-86.2336499,41.704042],[-86.2337424,41.7040388],[-86.233743,41.7040481],[-86.233828,41.7040451],[-86.2338285,41.7040529],[-86.2340176,41.7040461],[-86.2340171,41.7040387],[-86.2341238,41.7040348],[-86.2341243,41.7040422],[-86.2341751,41.7040404],[-86.2341691,41.7039494]]]}},{"type":"Feature","id":152170427,"properties":{"osmId":152170427,"category":"residential","building":"dormitory","name":"Stanford Hall","_wikiTried":true},"geometry":{"type":"Polygon","coordinates":[[[-86.2376956,41.7045165],[-86.2374767,41.7045233],[-86.2374957,41.7048674],[-86.2374384,41.7048691],[-86.2374393,41.7048867],[-86.2373554,41.7048893],[-86.2373353,41.7045282],[-86.2371665,41.7045334],[-86.2371605,41.7044242],[-86.2372721,41.7044207],[-86.2372693,41.7043704],[-86.237347,41.7043679],[-86.2373496,41.704415],[-86.2376894,41.7044045],[-86.2376956,41.7045165]]]}},{"type":"Feature","id":152170433,"properties":{"osmId":152170433,"category":"residential","building":"dormitory","name":"Keenan Hall","_wikiTried":true},"geometry":{"type":"Polygon","coordinates":[[[-86.2374142,41.7041884],[-86.2374041,41.7040012],[-86.2379025,41.7039852],[-86.2378985,41.703922],[-86.2378689,41.7039217],[-86.2378656,41.7038804],[-86.2371663,41.7039],[-86.2371695,41.7039596],[-86.2371728,41.7040209],[-86.2372504,41.7040186],[-86.237267,41.7043266],[-86.2372692,41.7043688],[-86.2373462,41.7043665],[-86.2373445,41.7043344],[-86.2376035,41.7043266],[-86.2375958,41.704183],[-86.2374142,41.7041884]]]}},{"type":"Feature","id":152173956,"properties":{"osmId":152173956,"category":"residential","building":"dormitory","name":"Howard Hall","_wikiTried":true},"geometry":{"type":"Polygon","coordinates":[[[-86.2419209,41.7010283],[-86.2416709,41.7010365],[-86.2416669,41.7009674],[-86.241779,41.7009637],[-86.2417665,41.7007507],[-86.2417541,41.7005383],[-86.2416613,41.7005414],[-86.2416571,41.7004701],[-86.2417942,41.7004656],[-86.2417923,41.7004344],[-86.2420107,41.7004272],[-86.2420169,41.7005338],[-86.241899,41.7005377],[-86.2419112,41.7007463],[-86.241921,41.7009128],[-86.242009,41.7009099],[-86.242013,41.7009768],[-86.2419181,41.7009799],[-86.2419209,41.7010283]]]}},{"type":"Feature","id":152173957,"properties":{"osmId":152173957,"category":"residential","building":"dormitory","name":"Ryan Hall","_wikiTried":true},"geometry":{"type":"Polygon","coordinates":[[[-86.2405744,41.6976006],[-86.240423,41.6976049],[-86.2404129,41.6974063],[-86.2401226,41.6974145],[-86.2401339,41.6976382],[-86.2399021,41.6976448],[-86.2398963,41.6975309],[-86.2398671,41.6969515],[-86.2400566,41.6969462],[-86.2400576,41.6969653],[-86.2405197,41.6969523],[-86.2405257,41.6970702],[-86.2400618,41.6970833],[-86.2400723,41.697292],[-86.2404065,41.6972826],[-86.240405,41.6972524],[-86.2405566,41.6972481],[-86.2405744,41.6976006]]]}},{"type":"Feature","id":152173969,"properties":{"osmId":152173969,"category":"academic","building":"university","name":"Decio Faculty Hall","_wikiTried":true},"geometry":{"type":"Polygon","coordinates":[[[-86.2346424,41.7009283],[-86.23451,41.7009326],[-86.2344828,41.7004642],[-86.2346333,41.7004594],[-86.2346146,41.7001371],[-86.2347829,41.7001316],[-86.2347637,41.6998016],[-86.2347626,41.6997831],[-86.2348974,41.6997788],[-86.2349241,41.7002366],[-86.2347596,41.7002419],[-86.2347786,41.7005675],[-86.2346217,41.7005726],[-86.2346424,41.7009283]]]}},{"type":"Feature","id":152173977,"properties":{"osmId":152173977,"category":"residential","building":"dormitory","name":"Morissey Hall","_wikiTried":true},"geometry":{"type":"Polygon","coordinates":[[[-86.2426688,41.7011979],[-86.2426589,41.701005],[-86.2428471,41.7009996],[-86.2428504,41.7010629],[-86.2430089,41.7010584],[-86.2429969,41.7008252],[-86.2428552,41.7008292],[-86.2428584,41.7008925],[-86.2426127,41.7009004],[-86.2424361,41.7009046],[-86.2423325,41.7009076],[-86.2423294,41.7008482],[-86.2421824,41.7008524],[-86.2421879,41.7009585],[-86.2421938,41.7010735],[-86.242343,41.7010693],[-86.2423402,41.7010137],[-86.2425262,41.7010084],[-86.2425361,41.7012017],[-86.2426688,41.7011979]]]}},{"type":"Feature","id":152173979,"properties":{"osmId":152173979,"category":"residential","building":"dormitory","name":"Farley Hall","_wikiTried":true},"geometry":{"type":"Polygon","coordinates":[[[-86.2359131,41.7038356],[-86.2358046,41.7038407],[-86.2357822,41.7035717],[-86.2359077,41.7035659],[-86.2359104,41.7035986],[-86.2360828,41.7035906],[-86.2360593,41.703307],[-86.235908,41.703314],[-86.2359012,41.7032321],[-86.2362381,41.7032165],[-86.2362451,41.7033006],[-86.2362231,41.7033016],[-86.2362574,41.7037139],[-86.2359043,41.7037303],[-86.2359131,41.7038356]]]}},{"type":"Feature","id":152173981,"properties":{"osmId":152173981,"category":"academic","building":"university","name":"Coleman Morse Center","_wikiTried":true},"geometry":{"type":"Polygon","coordinates":[[[-86.2409041,41.7009053],[-86.2403763,41.7009211],[-86.240371,41.700821],[-86.2404153,41.7008197],[-86.2404008,41.7005491],[-86.2403492,41.7005506],[-86.2403436,41.7004458],[-86.2408786,41.7004298],[-86.2408842,41.7005335],[-86.2407908,41.7005363],[-86.2408054,41.7008087],[-86.2408987,41.7008059],[-86.2409041,41.7009053]]]}},{"type":"Feature","id":152173982,"properties":{"osmId":152173982,"category":"residential","building":"dormitory","name":"Lyons Hall","_wikiTried":true},"geometry":{"type":"Polygon","coordinates":[[[-86.2435475,41.7008403],[-86.2433177,41.7008479],[-86.2432068,41.7009465],[-86.2430951,41.7009521],[-86.2430888,41.7008423],[-86.2431585,41.7008423],[-86.2432068,41.7008043],[-86.243188,41.7005299],[-86.2431022,41.7005319],[-86.2430995,41.7004258],[-86.2434321,41.7004118],[-86.2434375,41.7005239],[-86.2433517,41.7005239],[-86.243366,41.7007738],[-86.2435501,41.7007682],[-86.2435475,41.7008403]]]}},{"type":"Feature","id":152173983,"properties":{"osmId":152173983,"category":"academic","building":"university","name":"Information Technology Center","_wikiTried":true},"geometry":{"type":"Polygon","coordinates":[[[-86.2331695,41.7017894],[-86.233156,41.7015915],[-86.2332214,41.701589],[-86.2332172,41.7015279],[-86.2332131,41.7014682],[-86.233147,41.7014707],[-86.2331329,41.7012644],[-86.2330288,41.7012684],[-86.2328205,41.7012763],[-86.2328564,41.7018013],[-86.2330626,41.7017934],[-86.2331695,41.7017894]]]}},{"type":"Feature","id":152174002,"properties":{"osmId":152174002,"category":"residential","building":"dormitory","name":"Badin Hall","_wikiTried":true},"geometry":{"type":"Polygon","coordinates":[[[-86.2413905,41.7008902],[-86.2410317,41.700901],[-86.2410258,41.7007923],[-86.2411442,41.7007887],[-86.2411313,41.7005501],[-86.2410149,41.7005536],[-86.2410091,41.7004454],[-86.241364,41.7004347],[-86.2413698,41.700543],[-86.2412835,41.7005456],[-86.2412873,41.7006161],[-86.2413701,41.7006136],[-86.2413696,41.7006027],[-86.2414525,41.7006002],[-86.241459,41.7007208],[-86.2413751,41.7007233],[-86.2413748,41.7007161],[-86.2412946,41.7007185],[-86.241298,41.7007821],[-86.2413845,41.7007795],[-86.2413905,41.7008902]]]}},{"type":"Feature","id":198929103,"properties":{"osmId":198929103,"category":"athletic","building":"yes","leisure":"sports_centre","name":"Guglielmino Athletics Complex","_wikiTried":true},"geometry":{"type":"Polygon","coordinates":[[[-86.2296142,41.7010875],[-86.2290717,41.7010911],[-86.2290705,41.7009915],[-86.2289834,41.7009921],[-86.2289781,41.7005481],[-86.228978,41.7005386],[-86.2289714,41.7000011],[-86.2289234,41.7000014],[-86.2289222,41.6998967],[-86.2290379,41.6998959],[-86.2294443,41.6998932],[-86.2294453,41.6999762],[-86.2295474,41.6999755],[-86.2296102,41.6999751],[-86.2296108,41.7000258],[-86.2296515,41.7000255],[-86.2296578,41.7005511],[-86.2297012,41.7005508],[-86.2297019,41.7006113],[-86.2297026,41.7006642],[-86.2296091,41.7006649],[-86.2296142,41.7010875]]]}},{"type":"Feature","id":198929106,"properties":{"osmId":198929106,"category":"athletic","building":"yes","leisure":"sports_centre","name":"Loftus Sports Center","_wikiTried":true},"geometry":{"type":"Polygon","coordinates":[[[-86.2289834,41.7009921],[-86.2289781,41.7005481],[-86.2288327,41.700549],[-86.2288315,41.7004457],[-86.2271983,41.7004567],[-86.2271995,41.7005593],[-86.2270655,41.7005602],[-86.2270709,41.7010069],[-86.2271998,41.701006],[-86.2272011,41.701109],[-86.2288489,41.7010979],[-86.2288476,41.700993],[-86.2289834,41.7009921]]]}},{"type":"Feature","id":198929235,"properties":{"osmId":198929235,"category":"academic","building":"university","name":"Early Childhood Development Center","_wikiTried":true},"geometry":{"type":"Polygon","coordinates":[[[-86.2300282,41.7037493],[-86.2297853,41.703753],[-86.2297864,41.7037939],[-86.2297119,41.703795],[-86.2296379,41.7037962],[-86.2296367,41.7037526],[-86.2293961,41.7037562],[-86.2293911,41.7035705],[-86.2296269,41.703567],[-86.2296258,41.7035281],[-86.2297837,41.7035257],[-86.2297847,41.7035627],[-86.2300231,41.7035592],[-86.2300282,41.7037493]]]}},{"type":"Feature","id":198930069,"properties":{"osmId":198930069,"category":"academic","building":"university","name":"Bond Hall","wikidata":"Q28124716","_wikiTried":true},"geometry":{"type":"Polygon","coordinates":[[[-86.2421363,41.7016059],[-86.241738,41.7016186],[-86.2417262,41.7014124],[-86.2417139,41.7011983],[-86.2421118,41.7011856],[-86.2421153,41.7012482],[-86.2421907,41.7012458],[-86.2422076,41.7015406],[-86.2421327,41.701543],[-86.2421363,41.7016059]]]}},{"type":"Feature","id":198932575,"properties":{"osmId":198932575,"category":"academic","building":"university","name":"Malloy Hall","_wikiTried":true},"geometry":{"type":"Polygon","coordinates":[[[-86.2352252,41.700836],[-86.235344,41.7008328],[-86.2353453,41.7008602],[-86.2353756,41.7008594],[-86.2353808,41.700966],[-86.2347554,41.7009829],[-86.2347506,41.7008846],[-86.2349072,41.7008804],[-86.2348869,41.7004609],[-86.2350201,41.7004573],[-86.2350261,41.7005814],[-86.2350842,41.7005798],[-86.2350925,41.7007511],[-86.2351392,41.7007335],[-86.2351845,41.700732],[-86.2352272,41.7007574],[-86.2352299,41.7008107],[-86.2352119,41.7008252],[-86.2352252,41.700836]]]}},{"type":"Feature","id":198932577,"properties":{"osmId":198932577,"category":"academic","building":"university","name":"O'Shaughnessy Hall","_wikiTried":true},"geometry":{"type":"Polygon","coordinates":[[[-86.2360639,41.6996807],[-86.2358128,41.699687],[-86.2358243,41.6999413],[-86.2356783,41.6999449],[-86.2356798,41.6999777],[-86.2352685,41.699988],[-86.2352754,41.700142],[-86.2356595,41.7001323],[-86.2356961,41.7009433],[-86.2358165,41.7009402],[-86.2358139,41.700882],[-86.2358899,41.70088],[-86.2358746,41.7005399],[-86.2358538,41.7000794],[-86.2361038,41.7000731],[-86.2360995,41.6999779],[-86.2360773,41.6999785],[-86.2360639,41.6996807]]]}},{"type":"Feature","id":206874639,"properties":{"osmId":206874639,"category":"residential","building":"dormitory","name":"Carroll Hall","_wikiTried":true},"geometry":{"type":"Polygon","coordinates":[[[-86.2477721,41.7017917],[-86.2479652,41.7017877],[-86.2479634,41.7021634],[-86.2477721,41.7021642],[-86.2477721,41.7017917]]]}},{"type":"Feature","id":206874642,"properties":{"osmId":206874642,"category":"academic","building":"university","name":"Columba Hall","_wikiTried":true},"geometry":{"type":"Polygon","coordinates":[[[-86.2426875,41.7044796],[-86.2425678,41.7045808],[-86.2423281,41.7044229],[-86.2421608,41.7045644],[-86.2422212,41.7046042],[-86.2421119,41.7046967],[-86.2419398,41.7045832],[-86.2422311,41.7043368],[-86.241995,41.7041813],[-86.2419702,41.7042023],[-86.2418593,41.7041292],[-86.241977,41.7040297],[-86.242093,41.7041061],[-86.2421064,41.7040947],[-86.2423198,41.7042354],[-86.2423395,41.7042188],[-86.2424974,41.7043229],[-86.2424765,41.7043406],[-86.2426875,41.7044796]]]}},{"type":"Feature","id":235213522,"properties":{"osmId":235213522,"category":"academic","building":"university","name":"Hank Family Center for Environmental Sciences","_wikiTried":true},"geometry":{"type":"Polygon","coordinates":[[[-86.2333914,41.7000693],[-86.2330108,41.7000854],[-86.2329877,41.7000076],[-86.2329934,41.6999819],[-86.2330106,41.6999648],[-86.2330408,41.6999615],[-86.2330838,41.6999669],[-86.2331039,41.6999873],[-86.2331412,41.6999862],[-86.2331455,41.700014],[-86.2332847,41.7000087],[-86.2332847,41.6999851],[-86.2333852,41.6999787],[-86.2333914,41.7000693]]]}},{"type":"Feature","id":235217115,"properties":{"osmId":235217115,"category":"academic","building":"university","name":"Haggar Hall","_wikiTried":true},"geometry":{"type":"Polygon","coordinates":[[[-86.2371773,41.7050668],[-86.2371743,41.7049955],[-86.2371604,41.7049958],[-86.2371503,41.7047612],[-86.2370245,41.7047642],[-86.237026,41.7048006],[-86.2365699,41.7048115],[-86.2365688,41.7047852],[-86.236445,41.7047881],[-86.2364548,41.705018],[-86.2364491,41.7050182],[-86.2364523,41.705092],[-86.2365859,41.7050888],[-86.2365816,41.7049874],[-86.2367366,41.7049837],[-86.2367381,41.7050203],[-86.2367524,41.70502],[-86.2367534,41.7050433],[-86.2368752,41.7050404],[-86.2368742,41.7050169],[-86.2368881,41.7050166],[-86.2368865,41.7049787],[-86.2369781,41.7049765],[-86.2369822,41.7050714],[-86.2371773,41.7050668]]]}},{"type":"Feature","id":236663799,"properties":{"osmId":236663799,"category":"academic","building":"university","name":"Holy Cross House","_wikiTried":true},"geometry":{"type":"Polygon","coordinates":[[[-86.237787,41.7079333],[-86.2381202,41.7080801],[-86.2380938,41.7081135],[-86.2381417,41.7081347],[-86.2380202,41.7082885],[-86.2381751,41.7083567],[-86.2382967,41.7082029],[-86.2383558,41.7081915],[-86.238386,41.708279],[-86.238398,41.7083138],[-86.2384688,41.7083002],[-86.2384574,41.708267],[-86.2384266,41.7081779],[-86.238636,41.7081376],[-86.2386212,41.7080948],[-86.2389417,41.7080331],[-86.2390987,41.7081023],[-86.2391904,41.7079862],[-86.2389169,41.7078658],[-86.2388903,41.7078995],[-86.2385807,41.7079591],[-86.2385616,41.707904],[-86.2384141,41.7079324],[-86.2383306,41.7078956],[-86.2382804,41.7079592],[-86.2382108,41.7079726],[-86.2378734,41.707824],[-86.237787,41.7079333]]]}},{"type":"Feature","id":236663802,"properties":{"osmId":236663802,"category":"religious","amenity":"place_of_worship","building":"church","denomination":"roman_catholic","name":"Our Lady of Fatima House and Shrine","religion":"christian","_wikiTried":true},"geometry":{"type":"Polygon","coordinates":[[[-86.2484272,41.7043751],[-86.2480336,41.7043765],[-86.2480341,41.7044587],[-86.2480669,41.7044586],[-86.2480674,41.7045421],[-86.2481265,41.7045419],[-86.2481274,41.7046976],[-86.2479255,41.7046983],[-86.2479033,41.70467],[-86.2477415,41.7046705],[-86.2476613,41.7047754],[-86.2477392,41.7048751],[-86.2479046,41.7048746],[-86.2479358,41.7048337],[-86.2481394,41.704833],[-86.2481408,41.7050587],[-86.2482874,41.7050582],[-86.2482841,41.7045133],[-86.2488339,41.7045114],[-86.2488332,41.7043964],[-86.2484273,41.7043978],[-86.2484272,41.7043751]]]}},{"type":"Feature","id":236663803,"properties":{"osmId":236663803,"category":"academic","building":"university","name":"Sacred Heart Parish Center","_wikiTried":true},"geometry":{"type":"Polygon","coordinates":[[[-86.2428105,41.7070474],[-86.2426786,41.7068011],[-86.243188,41.706649],[-86.2431675,41.7066108],[-86.2432886,41.7065746],[-86.2433946,41.7067724],[-86.2432735,41.7068085],[-86.2432563,41.7067764],[-86.2430657,41.7068333],[-86.243083,41.7068654],[-86.2430143,41.7068859],[-86.2429971,41.7068538],[-86.2428691,41.706892],[-86.2429328,41.7070109],[-86.2428105,41.7070474]]]}},{"type":"Feature","id":236663804,"properties":{"osmId":236663804,"category":"academic","building":"university","name":"Stepan Center","_wikiTried":true},"geometry":{"type":"Polygon","coordinates":[[[-86.2345455,41.7068772],[-86.2346104,41.7068412],[-86.2346788,41.7067889],[-86.2347271,41.7067454],[-86.2347354,41.7067267],[-86.2347337,41.7066944],[-86.2347121,41.7066222],[-86.2346654,41.7065376],[-86.2346254,41.7064879],[-86.2345905,41.706468],[-86.2345405,41.7064531],[-86.2344588,41.7064444],[-86.2343689,41.7064493],[-86.2342772,41.7064593],[-86.2342222,41.7064742],[-86.2341889,41.7064978],[-86.2341706,41.7065264],[-86.2341389,41.7065837],[-86.2341123,41.7066633],[-86.2341039,41.7067367],[-86.2341139,41.7067615],[-86.2341256,41.706779],[-86.2341572,41.7068038],[-86.2342072,41.7068349],[-86.2342622,41.706866],[-86.2343122,41.7068872],[-86.2342789,41.7069382],[-86.2343705,41.7069693],[-86.2343988,41.706978],[-86.2344322,41.7069767],[-86.2344655,41.7069718],[-86.2345821,41.7069257],[-86.2345455,41.7068772]]]}},{"type":"Feature","id":236663807,"properties":{"osmId":236663807,"category":"academic","building":"university","name":"Facilities Building","_wikiTried":true},"geometry":{"type":"Polygon","coordinates":[[[-86.2366109,41.7065658],[-86.2359798,41.7065753],[-86.2359673,41.7061127],[-86.2363827,41.7061065],[-86.2363738,41.7060094],[-86.236588,41.7059993],[-86.2365936,41.7060376],[-86.2367053,41.7060342],[-86.2367238,41.7065027],[-86.2366097,41.7065054],[-86.2366109,41.7065658]]]}},{"type":"Feature","id":236663808,"properties":{"osmId":236663808,"category":"academic","building":"university","name":"Hessert Laboratory for Aerospace Research","_wikiTried":true},"geometry":{"type":"Polygon","coordinates":[[[-86.2365699,41.7070428],[-86.2365599,41.7067741],[-86.2359035,41.7067877],[-86.2359052,41.7068338],[-86.2358568,41.7068348],[-86.2358651,41.7070574],[-86.2365699,41.7070428]]]}},{"type":"Feature","id":236663809,"properties":{"osmId":236663809,"category":"academic","building":"university","name":"Maintenance Center","_wikiTried":true},"geometry":{"type":"Polygon","coordinates":[[[-86.2367098,41.7083066],[-86.2366598,41.707508],[-86.2361399,41.7075261],[-86.2361315,41.7073915],[-86.2358704,41.7074006],[-86.2359366,41.7084581],[-86.2361976,41.708449],[-86.2361899,41.7083247],[-86.2367098,41.7083066]]]}},{"type":"Feature","id":236663810,"properties":{"osmId":236663810,"category":"academic","building":"university","name":"Multidisciplinary Engineering Research Building","_wikiTried":true},"geometry":{"type":"Polygon","coordinates":[[[-86.2366398,41.7073985],[-86.2366232,41.7071174],[-86.2361865,41.7071318],[-86.2361881,41.7071597],[-86.23587,41.7071702],[-86.2358785,41.7073142],[-86.2364235,41.7072962],[-86.23643,41.7074055],[-86.2366398,41.7073985]]]}},{"type":"Feature","id":351695732,"properties":{"osmId":351695732,"category":"academic","building":"school","name":"Stayer Center for Executive Education","_wikiTried":true},"geometry":{"type":"Polygon","coordinates":[[[-86.2364693,41.6961763],[-86.2364496,41.6959118],[-86.2362962,41.6959175],[-86.2362999,41.6959881],[-86.235871,41.696002],[-86.235868,41.6959334],[-86.2357059,41.6959394],[-86.2357244,41.6962045],[-86.2358826,41.6961978],[-86.2358815,41.6961842],[-86.2363177,41.6961671],[-86.2363185,41.6961805],[-86.2364693,41.6961763]]]}},{"type":"Feature","id":379487342,"properties":{"osmId":379487342,"category":"academic","building":"university","name":"Warren Golf Clubhouse","_wikiTried":true},"geometry":{"type":"Polygon","coordinates":[[[-86.2277206,41.7094527],[-86.2276062,41.7094543],[-86.2276142,41.709761],[-86.2276748,41.7097602],[-86.2276753,41.7097798],[-86.2279936,41.7097752],[-86.2279889,41.7095946],[-86.2279562,41.7095951],[-86.2279534,41.709487],[-86.2277216,41.7094904],[-86.2277206,41.7094527]]]}},{"type":"Feature","id":379487343,"properties":{"osmId":379487343,"category":"academic","building":"university","name":"Rolfs Family All Season Golf Facility","_wikiTried":true},"geometry":{"type":"Polygon","coordinates":[[[-86.228304,41.7092965],[-86.2277053,41.7093032],[-86.227702,41.7091382],[-86.2283007,41.7091316],[-86.228304,41.7092965]]]}},{"type":"Feature","id":379487437,"properties":{"osmId":379487437,"category":"academic","building":"university","name":"Mason Support Center","_wikiTried":true},"geometry":{"type":"Polygon","coordinates":[[[-86.2372852,41.7109092],[-86.2366172,41.7109158],[-86.2366161,41.7108528],[-86.2363935,41.710855],[-86.2363884,41.7105682],[-86.2366101,41.710566],[-86.2366042,41.7102277],[-86.237273,41.7102211],[-86.2372852,41.7109092]]]}},{"type":"Feature","id":397174211,"properties":{"osmId":397174211,"category":"academic","building":"university","name":"Jenkins-Nanovic Hall","_wikiTried":true},"geometry":{"type":"Polygon","coordinates":[[[-86.238063,41.696122],[-86.2379339,41.6961262],[-86.237933,41.6961098],[-86.2376494,41.6961189],[-86.2376504,41.6961362],[-86.2375155,41.6961405],[-86.2375146,41.696124],[-86.2374688,41.6961254],[-86.2374629,41.6960231],[-86.2374865,41.6960223],[-86.23748,41.6959095],[-86.2374511,41.6959104],[-86.2374472,41.6958437],[-86.2372826,41.695849],[-86.2372606,41.6954703],[-86.2372737,41.6954522],[-86.2373116,41.6954486],[-86.2374471,41.6954442],[-86.2374481,41.6954613],[-86.2376858,41.6954535],[-86.2376848,41.6954377],[-86.2378212,41.6954331],[-86.2378221,41.6954492],[-86.2379841,41.6954439],[-86.2379902,41.6955454],[-86.2379101,41.695548],[-86.2379207,41.6957258],[-86.2380845,41.6957204],[-86.2380905,41.6958208],[-86.2380447,41.6958223],[-86.2380557,41.6960081],[-86.2381,41.6960066],[-86.2381055,41.6961008],[-86.2380618,41.6961023],[-86.238063,41.696122]]]}},{"type":"Feature","id":426401630,"properties":{"osmId":426401630,"category":"academic","building":"university","name":"White Field Research Facility","_wikiTried":true},"geometry":{"type":"Polygon","coordinates":[[[-86.2377524,41.7131527],[-86.2377459,41.7126149],[-86.2379643,41.7126135],[-86.2379641,41.7125967],[-86.2385648,41.7125927],[-86.2385651,41.7126236],[-86.2385662,41.71271],[-86.2386627,41.7127094],[-86.2386656,41.7129511],[-86.2385717,41.7129517],[-86.2385723,41.7129937],[-86.2383544,41.7129951],[-86.2383507,41.7126909],[-86.2379709,41.7126935],[-86.2379756,41.7130808],[-86.2381792,41.7130794],[-86.2381796,41.7131143],[-86.2388036,41.71311],[-86.238804,41.7131456],[-86.2377524,41.7131527]]]}},{"type":"Feature","id":435391828,"properties":{"osmId":435391828,"category":"academic","building":"college","name":"Arts and Literature","_wikiTried":true},"geometry":{"type":"Polygon","coordinates":[[[-86.251542,41.6946415],[-86.2515399,41.6944784],[-86.2511569,41.694476],[-86.2511569,41.6945532],[-86.2511843,41.6945548],[-86.2511854,41.6946391],[-86.2513943,41.6946407],[-86.2513975,41.6947163],[-86.2514692,41.6947163],[-86.2514692,41.6946415],[-86.251542,41.6946415]]]}},{"type":"Feature","id":435391843,"properties":{"osmId":435391843,"category":"academic","building":"college","name":"Concession Stand","_wikiTried":true},"geometry":{"type":"Polygon","coordinates":[[[-86.2535065,41.6950191],[-86.253382,41.6949767],[-86.2533363,41.695057],[-86.2534565,41.6951006],[-86.2535065,41.6950191]]]}},{"type":"Feature","id":435531648,"properties":{"osmId":435531648,"category":"religious","building":"chapel","name":"St. Joseph Chapel","_wikiTried":true},"geometry":{"type":"Polygon","coordinates":[[[-86.2535823,41.6999943],[-86.2536292,41.6999932],[-86.2536279,41.6998468],[-86.2536209,41.6998473],[-86.2535789,41.6998472],[-86.2535739,41.699847],[-86.2534965,41.6998485],[-86.2534955,41.699815],[-86.2532921,41.6998146],[-86.2532926,41.6997991],[-86.2532718,41.6997996],[-86.2531483,41.6998029],[-86.2531478,41.6998598],[-86.2531301,41.6998636],[-86.2531251,41.6998655],[-86.2531202,41.6998705],[-86.2531199,41.699879],[-86.2531199,41.699902],[-86.2530985,41.6999032],[-86.2531,41.6999545],[-86.2531109,41.6999597],[-86.2531187,41.6999676],[-86.2531227,41.6999784],[-86.2531227,41.6999863],[-86.253132,41.6999881],[-86.2531332,41.699993],[-86.2531477,41.6999996],[-86.2531516,41.7000525],[-86.2532811,41.7000503],[-86.2532995,41.70005],[-86.2532989,41.7000343],[-86.2534998,41.7000332],[-86.2535004,41.6999946],[-86.2535823,41.6999943]]]}},{"type":"Feature","id":435542198,"properties":{"osmId":435542198,"category":"academic","building":"college","name":"Brothers of Holy Cross Administrative Offices","_wikiTried":true},"geometry":{"type":"Polygon","coordinates":[[[-86.2513681,41.7008126],[-86.2513485,41.7004963],[-86.2513793,41.7004953],[-86.2515138,41.7004912],[-86.2515126,41.7004774],[-86.2515036,41.7003728],[-86.2512591,41.7003778],[-86.2511729,41.7003796],[-86.2511824,41.7005458],[-86.2511977,41.7008164],[-86.2513681,41.7008126]]]}},{"type":"Feature","id":448525478,"properties":{"osmId":448525478,"category":"academic","building":"university","building:levels":"3","name":"McCourtney Hall West","_wikiTried":true},"geometry":{"type":"Polygon","coordinates":[[[-86.2321015,41.7036347],[-86.2319247,41.7036417],[-86.2319259,41.7036582],[-86.2318305,41.703662],[-86.2318069,41.7036629],[-86.2318058,41.703647],[-86.2317471,41.7036493],[-86.2317408,41.703561],[-86.2318001,41.7035586],[-86.2317716,41.7031585],[-86.2318232,41.7031565],[-86.2318158,41.7030531],[-86.2316984,41.7030578],[-86.2316967,41.7030332],[-86.2315595,41.7030387],[-86.2315607,41.7030551],[-86.2311895,41.70307],[-86.2311911,41.703092],[-86.231057,41.7030974],[-86.2310427,41.7029006],[-86.2310239,41.7029013],[-86.2310201,41.7028502],[-86.2310173,41.7028116],[-86.2310502,41.7028102],[-86.2310478,41.7027763],[-86.2311627,41.7027716],[-86.2311658,41.7028133],[-86.231194,41.7028121],[-86.2316721,41.7027925],[-86.2316694,41.7027555],[-86.231784,41.7027508],[-86.2317873,41.702795],[-86.2318554,41.7027922],[-86.2319068,41.7027901],[-86.2319052,41.7027683],[-86.2319821,41.7027652],[-86.2319837,41.7027873],[-86.2320466,41.7027847],[-86.232054,41.7028844],[-86.2320331,41.7028896],[-86.2320357,41.7029261],[-86.2320388,41.7029687],[-86.232066,41.7029676],[-86.2320725,41.7030588],[-86.2320231,41.7030608],[-86.2320292,41.7031467],[-86.2320477,41.7031459],[-86.2320759,41.7035399],[-86.2320947,41.7035391],[-86.2321015,41.7036347]]]}},{"type":"Feature","id":448533137,"properties":{"osmId":448533137,"category":"academic","addr:city":"Notre Dame","addr:postcode":"46556","addr:state":"IN","amenity":"community_centre","building":"university","building:levels":"0","name":"Fischer Community Center","_wikiTried":true},"geometry":{"type":"Polygon","coordinates":[[[-86.2292106,41.705159],[-86.2288264,41.7052672],[-86.2287543,41.7051245],[-86.2290229,41.7050489],[-86.2290026,41.7050088],[-86.2291182,41.7049762],[-86.2292106,41.705159]]]}},{"type":"Feature","id":473387690,"properties":{"osmId":473387690,"category":"religious","amenity":"place_of_worship","building":"yes","denomination":"roman_catholic","name":"Little Flower Church","religion":"christian","_wikiTried":true},"geometry":{"type":"Polygon","coordinates":[[[-86.2184812,41.7058631],[-86.2181686,41.7060168],[-86.2179431,41.7057614],[-86.2178193,41.7058223],[-86.2178414,41.7058473],[-86.2177159,41.705909],[-86.2176379,41.7058206],[-86.217504,41.7058865],[-86.2175356,41.7060447],[-86.2174749,41.7060515],[-86.2174503,41.7059286],[-86.2174135,41.7058892],[-86.2173457,41.7059246],[-86.2172518,41.7058685],[-86.217217,41.7057804],[-86.2171843,41.7057433],[-86.2173155,41.7056788],[-86.2173436,41.7057106],[-86.2176357,41.705567],[-86.2175922,41.7055144],[-86.2176601,41.7054808],[-86.2177115,41.705537],[-86.2177534,41.7055164],[-86.2177395,41.7055007],[-86.2178455,41.7054486],[-86.2179911,41.7056136],[-86.2179668,41.7056256],[-86.2180106,41.7056753],[-86.2182232,41.7055707],[-86.2184812,41.7058631]]]}},{"type":"Feature","id":473429376,"properties":{"osmId":473429376,"category":"religious","building":"yes"},"geometry":{"type":"Polygon","coordinates":[[[-86.2182514,41.6964436],[-86.2180451,41.6967085],[-86.2180806,41.6967239],[-86.2180414,41.6967742],[-86.2181445,41.696819],[-86.2181796,41.6967738],[-86.2182298,41.6967956],[-86.2184402,41.6965256],[-86.2182514,41.6964436]]]}},{"type":"Feature","id":474385158,"properties":{"osmId":474385158,"category":"academic","building":"university"},"geometry":{"type":"Polygon","coordinates":[[[-86.235525,41.6997591],[-86.2352418,41.6997688],[-86.2352373,41.6996961],[-86.2355205,41.6996864],[-86.235525,41.6997591]]]}},{"type":"Feature","id":594247407,"properties":{"osmId":594247407,"category":"residential","building":"dormitory","name":"Dunne Hall","_wikiTried":true},"geometry":{"type":"Polygon","coordinates":[[[-86.2331626,41.704909],[-86.2331493,41.7046063],[-86.2331852,41.7046054],[-86.2331806,41.7045008],[-86.232935,41.7045069],[-86.2329169,41.7040951],[-86.2329559,41.7040941],[-86.232952,41.7040068],[-86.2327127,41.7040127],[-86.2327167,41.7041047],[-86.2327527,41.7041038],[-86.2327765,41.7046413],[-86.2329355,41.7046374],[-86.2329346,41.7046162],[-86.2329759,41.7046152],[-86.232989,41.7049133],[-86.2331626,41.704909]]]}},{"type":"Feature","id":594247410,"properties":{"osmId":594247410,"category":"residential","building":"dormitory","name":"Flaherty Hall","_wikiTried":true},"geometry":{"type":"Polygon","coordinates":[[[-86.2327334,41.7037816],[-86.2327207,41.7034886],[-86.2326911,41.7034893],[-86.2326865,41.7033817],[-86.2329093,41.7033764],[-86.2328926,41.7029904],[-86.2328578,41.7029912],[-86.2328537,41.7028964],[-86.2330895,41.7028907],[-86.2330934,41.7029826],[-86.2330555,41.7029836],[-86.2330783,41.7035094],[-86.2329433,41.7035126],[-86.2329423,41.7034895],[-86.2328854,41.7034908],[-86.2328978,41.7037777],[-86.2327334,41.7037816]]]}},{"type":"Feature","id":594304555,"properties":{"osmId":594304555,"category":"academic","building":"university","name":"West Lake Hall","_wikiTried":true},"geometry":{"type":"Polygon","coordinates":[[[-86.2452762,41.7003008],[-86.244665,41.7003261],[-86.2446864,41.7006146],[-86.2448504,41.7006078],[-86.2448385,41.7004493],[-86.244981,41.7004433],[-86.2449868,41.7005217],[-86.245104,41.7005168],[-86.2451124,41.7006292],[-86.2453,41.7006214],[-86.2452762,41.7003008]]]}},{"type":"Feature","id":594304557,"properties":{"osmId":594304557,"category":"religious","building":"chapel","name":"Log Chapel","_wikiTried":true},"geometry":{"type":"Polygon","coordinates":[[[-86.2424756,41.7015608],[-86.2425867,41.7015075],[-86.2425427,41.7014564],[-86.2424316,41.7015096],[-86.2424756,41.7015608]]]}},{"type":"Feature","id":594696007,"properties":{"osmId":594696007,"category":"academic","building":"university","name":"Province Archives Center","_wikiTried":true},"geometry":{"type":"Polygon","coordinates":[[[-86.2390917,41.7083678],[-86.2390946,41.708474],[-86.2392117,41.7084721],[-86.239209,41.7083733],[-86.2392301,41.7083729],[-86.239232,41.7084423],[-86.2393407,41.7084406],[-86.2393379,41.7083399],[-86.2392293,41.7083416],[-86.2392296,41.7083515],[-86.2390913,41.7083537],[-86.2390917,41.7083678]]]}},{"type":"Feature","id":594698798,"properties":{"osmId":594698798,"category":"academic","building":"university","name":"Ave Maria Press","_wikiTried":true},"geometry":{"type":"Polygon","coordinates":[[[-86.2413331,41.7090526],[-86.2416066,41.7090529],[-86.2416057,41.7095125],[-86.2414553,41.7095123],[-86.2414545,41.7099442],[-86.240864,41.7099436],[-86.240865,41.70942],[-86.2410584,41.7094202],[-86.2410588,41.7091883],[-86.2413328,41.7091886],[-86.2413331,41.7090526]]]}},{"type":"Feature","id":594698799,"properties":{"osmId":594698799,"category":"academic","building":"university","name":"Landscape Services Building","_wikiTried":true},"geometry":{"type":"Polygon","coordinates":[[[-86.2407687,41.7108384],[-86.2399454,41.7108385],[-86.2399454,41.7106323],[-86.2407687,41.7106323],[-86.2407687,41.7108384]]]}},{"type":"Feature","id":594698801,"properties":{"osmId":594698801,"category":"academic","building":"university","name":"Center for Culinary Excellence","_wikiTried":true},"geometry":{"type":"Polygon","coordinates":[[[-86.2409373,41.7114114],[-86.2409435,41.7119205],[-86.2403391,41.7119246],[-86.240333,41.7114155],[-86.2403851,41.7114151],[-86.2403844,41.7113646],[-86.2408745,41.7113613],[-86.2408751,41.7114119],[-86.2409373,41.7114114]]]}},{"type":"Feature","id":594715382,"properties":{"osmId":594715382,"category":"academic","building":"university","name":"St. Michael's Laundry","_wikiTried":true},"geometry":{"type":"Polygon","coordinates":[[[-86.2378589,41.7107086],[-86.2379931,41.7107073],[-86.2379943,41.7107765],[-86.2382702,41.7107739],[-86.238269,41.7107029],[-86.2384116,41.7107016],[-86.2384032,41.7102126],[-86.2382647,41.7102139],[-86.2382062,41.710171],[-86.2381507,41.7102131],[-86.2380796,41.7102134],[-86.2380619,41.7101741],[-86.2380115,41.7101418],[-86.2379555,41.7101358],[-86.2379024,41.7101459],[-86.2378638,41.7101772],[-86.2378527,41.710215],[-86.2378687,41.7102583],[-86.2379151,41.7102873],[-86.2379165,41.7103712],[-86.2378532,41.7103718],[-86.2378589,41.7107086]]]}},{"type":"Feature","id":594715383,"properties":{"osmId":594715383,"category":"academic","building":"university","name":"Reyniers Life Annex North","_wikiTried":true},"geometry":{"type":"Polygon","coordinates":[[[-86.2380309,41.7098427],[-86.2380306,41.7097786],[-86.237737,41.7097793],[-86.2377373,41.7098434],[-86.2380309,41.7098427]]]}},{"type":"Feature","id":594715384,"properties":{"osmId":594715384,"category":"academic","building":"university","name":"Reyniers Life Annex South","_wikiTried":true},"geometry":{"type":"Polygon","coordinates":[[[-86.2380578,41.7096965],[-86.2377212,41.7096932],[-86.2377221,41.7096422],[-86.2380587,41.7096455],[-86.2380578,41.7096965]]]}},{"type":"Feature","id":594715385,"properties":{"osmId":594715385,"category":"academic","building":"university","name":"Reyniers Life Building","_wikiTried":true},"geometry":{"type":"Polygon","coordinates":[[[-86.2375599,41.7097755],[-86.2372968,41.7097754],[-86.237297,41.7096273],[-86.2371899,41.7096273],[-86.2371902,41.7093613],[-86.2373097,41.7093614],[-86.2373095,41.7094902],[-86.2375031,41.7094903],[-86.237503,41.7095802],[-86.2374206,41.7095801],[-86.2374205,41.7096393],[-86.2375601,41.7096393],[-86.2375599,41.7097755]]]}},{"type":"Feature","id":595094160,"properties":{"osmId":595094160,"category":"academic","building":"university","name":"Hesburgh Center for International Studies","_wikiTried":true},"geometry":{"type":"Polygon","coordinates":[[[-86.2381342,41.6968831],[-86.237625,41.696897],[-86.2376172,41.6967401],[-86.2378976,41.6967324],[-86.2378896,41.6965706],[-86.2378414,41.6966005],[-86.2377812,41.6966059],[-86.2377519,41.6966005],[-86.2377111,41.6965711],[-86.2377019,41.696526],[-86.2377077,41.6965029],[-86.2377432,41.6964733],[-86.2375022,41.6964775],[-86.2375138,41.6968481],[-86.2374365,41.696885],[-86.2373548,41.6968536],[-86.2373249,41.6962858],[-86.2374069,41.6962488],[-86.2374932,41.6962839],[-86.2374999,41.6964217],[-86.2376443,41.6964178],[-86.2376377,41.6962809],[-86.2378721,41.6962745],[-86.2378706,41.6962442],[-86.2381588,41.6962363],[-86.2381692,41.6964486],[-86.2381225,41.6964499],[-86.2381312,41.6966269],[-86.2379561,41.6966317],[-86.2379608,41.6967276],[-86.2381264,41.6967231],[-86.2381342,41.6968831]]]}},{"type":"Feature","id":595099291,"properties":{"osmId":595099291,"category":"academic","building":"university","name":"Knights of Columbus Council Hall","_wikiTried":true},"geometry":{"type":"Polygon","coordinates":[[[-86.2401904,41.700632],[-86.239897,41.7006421],[-86.2398869,41.7004786],[-86.2399874,41.7004751],[-86.2399901,41.7005186],[-86.2401829,41.7005119],[-86.2401904,41.700632]]]}},{"type":"Feature","id":662297395,"properties":{"osmId":662297395,"category":"athletic","building":"stadium"},"geometry":{"type":"Polygon","coordinates":[[[-86.2285873,41.6961369],[-86.2287276,41.6961377],[-86.2287235,41.6960026],[-86.2288058,41.695973],[-86.228755,41.6958758],[-86.2287327,41.6958629],[-86.2287459,41.6958516],[-86.2286178,41.6957597],[-86.2286026,41.6957704],[-86.2285802,41.6957537],[-86.2284511,41.6957127],[-86.2284206,41.6957741],[-86.2282346,41.6957734],[-86.2282367,41.6958834],[-86.2283922,41.6958834],[-86.2284806,41.69591],[-86.2285507,41.6959555],[-86.2285843,41.6960253],[-86.2285873,41.6961369]]]}},{"type":"Feature","id":665964202,"properties":{"osmId":665964202,"category":"academic","architect":"John Simpson","building":"university","name":"Walsh Family Hall of Architecture","_wikiTried":true},"geometry":{"type":"Polygon","coordinates":[[[-86.2352057,41.6951436],[-86.2344776,41.6951506],[-86.234474,41.6946107],[-86.2346133,41.6946095],[-86.2346123,41.6945865],[-86.2348879,41.6945829],[-86.2348856,41.694561],[-86.2349415,41.6945605],[-86.2349426,41.6946496],[-86.2349625,41.6946494],[-86.2349646,41.6947059],[-86.2348991,41.6947054],[-86.2349043,41.6949302],[-86.2351622,41.6949293],[-86.2351609,41.6949661],[-86.2352307,41.6949642],[-86.2352279,41.6948674],[-86.2353942,41.6948681],[-86.2353958,41.6950812],[-86.2352328,41.6950795],[-86.2352351,41.6950263],[-86.2352072,41.6950278],[-86.2352057,41.6951436]]]}},{"type":"Feature","id":726163744,"properties":{"osmId":726163744,"category":"residential","building":"dormitory","name":"Baumer Hall","_wikiTried":true},"geometry":{"type":"Polygon","coordinates":[[[-86.2415296,41.6974604],[-86.2413822,41.6974668],[-86.2413727,41.6973111],[-86.2412333,41.6973158],[-86.241155,41.69732],[-86.2411583,41.697355],[-86.2410097,41.6973605],[-86.2410065,41.6973187],[-86.2409762,41.6973207],[-86.2409712,41.6972052],[-86.2410016,41.6972036],[-86.2409951,41.6970544],[-86.2407787,41.6970645],[-86.2407718,41.6969579],[-86.2409785,41.6969499],[-86.2409763,41.696903],[-86.2411362,41.6968955],[-86.2411535,41.6971953],[-86.241349,41.6971842],[-86.241336,41.6969977],[-86.2414393,41.6969941],[-86.2414414,41.697021],[-86.2416882,41.6970093],[-86.2416954,41.6971213],[-86.2415118,41.6971294],[-86.2415296,41.6974604]]]}},{"type":"Feature","id":949991333,"properties":{"osmId":949991333,"category":"academic","building":"university"},"geometry":{"type":"Polygon","coordinates":[[[-86.2367225,41.708557],[-86.236611,41.7085603],[-86.2365945,41.708338],[-86.2367081,41.7083336],[-86.2367225,41.708557]]]}},{"type":"Feature","id":949991334,"properties":{"osmId":949991334,"category":"academic","building":"university"},"geometry":{"type":"Polygon","coordinates":[[[-86.2338489,41.7052389],[-86.2338453,41.7051885],[-86.2337678,41.7051915],[-86.2337701,41.7052403],[-86.2338489,41.7052389]]]}},{"type":"Feature","id":949991335,"properties":{"osmId":949991335,"category":"academic","building":"university"},"geometry":{"type":"Polygon","coordinates":[[[-86.2337181,41.7052365],[-86.2337132,41.7051605],[-86.2336037,41.7051639],[-86.2336026,41.7051757],[-86.2335592,41.7051767],[-86.2335617,41.7052201],[-86.2336037,41.7052198],[-86.2336068,41.7052412],[-86.2337181,41.7052365]]]}},{"type":"Feature","id":962420163,"properties":{"osmId":962420163,"category":"athletic","building":"stadium","name":"Melissa Cook Softball Stadium","_wikiTried":true},"geometry":{"type":"Polygon","coordinates":[[[-86.2278484,41.694942],[-86.227849,41.6947401],[-86.2278141,41.694715],[-86.2278599,41.6946796],[-86.2277471,41.6945985],[-86.2277027,41.6946329],[-86.2276681,41.694608],[-86.2274245,41.6946098],[-86.2274277,41.6946902],[-86.2274015,41.6946903],[-86.227401,41.6947231],[-86.2276009,41.6947281],[-86.227694,41.6947982],[-86.2276936,41.6949417],[-86.2278484,41.694942]]]}},{"type":"Feature","id":986070411,"properties":{"osmId":986070411,"category":"academic","building":"university"},"geometry":{"type":"Polygon","coordinates":[[[-86.2392068,41.7106748],[-86.2391638,41.7106764],[-86.2391606,41.7106268],[-86.2392636,41.7106231],[-86.2392628,41.7106121],[-86.239623,41.7105991],[-86.2396343,41.710773],[-86.2393568,41.710783],[-86.2393616,41.7108574],[-86.2393039,41.7108595],[-86.2393035,41.7108534],[-86.2392662,41.7108548],[-86.2392632,41.7108079],[-86.2392155,41.7108096],[-86.2392068,41.7106748]]]}},{"type":"Feature","id":986070412,"properties":{"osmId":986070412,"category":"academic","building":"university"},"geometry":{"type":"Polygon","coordinates":[[[-86.241521,41.7103444],[-86.2417423,41.7103436],[-86.2417429,41.7104387],[-86.2415216,41.7104395],[-86.241521,41.7103444]]]}},{"type":"Feature","id":986070416,"properties":{"osmId":986070416,"category":"residential","building":"dormitory","name":"Johnson Family Hall","_wikiTried":true},"geometry":{"type":"Polygon","coordinates":[[[-86.2320538,41.7048461],[-86.2320703,41.7051294],[-86.2323754,41.7051195],[-86.2323763,41.7051355],[-86.232434,41.7051336],[-86.2324269,41.7050123],[-86.2324689,41.705011],[-86.2324681,41.7049973],[-86.232557,41.7049944],[-86.2325578,41.7050082],[-86.232599,41.7050069],[-86.2326063,41.7051316],[-86.2325942,41.705132],[-86.2326003,41.7052372],[-86.2326014,41.705256],[-86.2324559,41.7052607],[-86.2324548,41.7052421],[-86.2320775,41.7052544],[-86.2320787,41.7052762],[-86.2319312,41.705281],[-86.23193,41.7052594],[-86.2319132,41.7052599],[-86.2319069,41.7051509],[-86.2319237,41.7051504],[-86.2319063,41.7048508],[-86.2317984,41.7048543],[-86.231792,41.7047446],[-86.2320668,41.7047358],[-86.2320732,41.7048455],[-86.2320538,41.7048461]]]}},{"type":"Feature","id":1144488451,"properties":{"osmId":1144488451,"category":"academic","addr:city":"Notre Dame","addr:postcode":"46556","addr:state":"IN","addr:street":"St André Way","air_conditioning":"yes","building":"university","museum":"art","name":"Raclin Murphy Museum of Art","opening_hours":"Tue-Wed 10:00-17:00, Thurs 10:00-19:30, Fri 10:00-17:0, Sat-Sun 12:00-17:00","phone":"+1-574-631-5466","tourism":"museum","_wikiTried":true},"geometry":{"type":"Polygon","coordinates":[[[-86.2348462,41.693594],[-86.2353173,41.6935908],[-86.2353193,41.693826],[-86.2353229,41.694052],[-86.2348517,41.6940552],[-86.2348511,41.694001],[-86.2348496,41.6938755],[-86.2348484,41.6937794],[-86.2348462,41.693594]]]}},{"type":"Feature","id":1152230781,"properties":{"osmId":1152230781,"category":"residential","building":"dormitory","name":"Graham Family Hall","_wikiTried":true},"geometry":{"type":"Polygon","coordinates":[[[-86.2316428,41.7038305],[-86.2317623,41.7038265],[-86.2317629,41.703836],[-86.231951,41.7038295],[-86.231968,41.7038289],[-86.2319673,41.7038184],[-86.2321241,41.7038127],[-86.2321362,41.7040089],[-86.2321523,41.7042475],[-86.2319319,41.7042555],[-86.2319451,41.7044584],[-86.2320665,41.704454],[-86.2320731,41.7045556],[-86.2319548,41.7045599],[-86.2319554,41.7045694],[-86.2318001,41.7045748],[-86.2317742,41.7041563],[-86.2319911,41.7041488],[-86.2319833,41.704013],[-86.2319781,41.7039378],[-86.2317615,41.7039452],[-86.2317624,41.7039594],[-86.2316467,41.7039633],[-86.2316476,41.7039784],[-86.2315649,41.7039812],[-86.2315629,41.7039459],[-86.2315415,41.7039466],[-86.2315365,41.7038609],[-86.2315553,41.7038603],[-86.2315531,41.7038243],[-86.2316423,41.7038214],[-86.2316428,41.7038305]]]}},{"type":"Feature","id":1188700525,"properties":{"osmId":1188700525,"category":"religious","building":"chapel"},"geometry":{"type":"Polygon","coordinates":[[[-86.2396835,41.6946095],[-86.2396823,41.6945713],[-86.2396811,41.6945307],[-86.2397834,41.6945289],[-86.2398263,41.6945483],[-86.2398557,41.6945479],[-86.2398566,41.6945858],[-86.2398263,41.6945862],[-86.2397824,41.6946078],[-86.2396835,41.6946095]]]}},{"type":"Feature","id":1202910341,"properties":{"osmId":1202910341,"category":"academic","building":"university","name":"Beichner Hall","_wikiTried":true},"geometry":{"type":"Polygon","coordinates":[[[-86.2471469,41.7134344],[-86.246856,41.7134348],[-86.2468557,41.7133209],[-86.2468555,41.7132185],[-86.2471464,41.7132181],[-86.2471469,41.7134344]]]}},{"type":"Feature","id":1210825305,"properties":{"osmId":1210825305,"category":"academic","building":"university","name":"McCourtney Hall East","_wikiTried":true},"geometry":{"type":"Polygon","coordinates":[[[-86.2304466,41.7028091],[-86.2303572,41.7028123],[-86.2303585,41.7028315],[-86.2303251,41.7028327],[-86.2303316,41.702934],[-86.2303662,41.7029328],[-86.2303983,41.703438],[-86.2303649,41.7034391],[-86.2303712,41.7035372],[-86.2305452,41.703531],[-86.2305467,41.7035543],[-86.23056,41.7037644],[-86.2305255,41.7037656],[-86.2305317,41.7038639],[-86.2306295,41.7038605],[-86.2306308,41.7038806],[-86.2307602,41.7038761],[-86.230759,41.7038565],[-86.2309725,41.703849],[-86.2309735,41.703865],[-86.2311092,41.7038603],[-86.231108,41.7038413],[-86.2311757,41.703839],[-86.2311681,41.7037171],[-86.2311635,41.7036448],[-86.2310961,41.7036472],[-86.231092,41.7035824],[-86.2309563,41.7035872],[-86.2309572,41.7036013],[-86.2307422,41.7036089],[-86.2307388,41.7035556],[-86.230737,41.7035258],[-86.2307782,41.7035243],[-86.2307721,41.7034267],[-86.2307293,41.7034282],[-86.2307003,41.7029678],[-86.2307998,41.702964],[-86.2307923,41.7028584],[-86.2310201,41.7028502],[-86.2310173,41.7028116],[-86.230995,41.7028125],[-86.2306883,41.702825],[-86.2306861,41.7027896],[-86.2305578,41.7027941],[-86.2305583,41.7028019],[-86.2305254,41.7028031],[-86.2304817,41.7028046],[-86.2304831,41.7028252],[-86.2304477,41.7028264],[-86.2304466,41.7028091]]]}}]}