{"type":"FeatureCollection","features":[{"type":"Feature","id":23131431,"properties":{"osmId":23131431,"category":"academic","alt_name":"Reverend Edward V Stanford Hall","building":"yes","created_by":"Potlatch 0.10f","gnis:feature_id":"2115312","name":"Stanford Hall"},"geometry":{"type":"Polygon","coordinates":[[[-75.3412064,40.0315445],[-75.3410229,40.0316456],[-75.3412032,40.0318494],[-75.3412285,40.0318298],[-75.3413094,40.0319257],[-75.3412633,40.0319939],[-75.3412375,40.0319808],[-75.3411002,40.0322042],[-75.3413062,40.0322831],[-75.3414435,40.0320728],[-75.3414178,40.0320531],[-75.3414724,40.031998],[-75.3416238,40.0319939],[-75.3416238,40.0320136],[-75.3419327,40.0320071],[-75.3419359,40.0318271],[-75.3416066,40.0318296],[-75.3416066,40.0318625],[-75.3415068,40.0318534],[-75.3414006,40.0318165],[-75.3413577,40.0317771],[-75.3413866,40.0317482],[-75.3412064,40.0315445]]]}},{"type":"Feature","id":23131435,"properties":{"osmId":23131435,"category":"academic","building":"yes","created_by":"Potlatch 0.10b","gnis:feature_id":"2115326","name":"Saint Monica Hall"},"geometry":{"type":"Polygon","coordinates":[[[-75.3407006,40.0316016],[-75.3403872,40.0315798],[-75.3404034,40.0314435],[-75.340189,40.0314286],[-75.3402064,40.0312822],[-75.3406304,40.0313117],[-75.3406163,40.0314309],[-75.34072,40.0314381],[-75.3407006,40.0316016]]]}},{"type":"Feature","id":23529504,"properties":{"osmId":23529504,"category":"academic","alt_name":"Father Joseph Bartley Hall","building":"university","building:levels":"4","gnis:feature_id":"2115294","name":"Bartley Hall"},"geometry":{"type":"Polygon","coordinates":[[[-75.338979,40.0341373],[-75.3388978,40.034181],[-75.3388718,40.0341484],[-75.3387341,40.0342123],[-75.3381161,40.0345051],[-75.3381238,40.0345156],[-75.3379977,40.0345772],[-75.3380232,40.0346083],[-75.3378892,40.0346735],[-75.3380276,40.0348402],[-75.3381701,40.0350117],[-75.3383286,40.0349368],[-75.33832,40.0349249],[-75.338386,40.0348912],[-75.3383564,40.0348557],[-75.3383669,40.034849],[-75.3383714,40.0348397],[-75.3384175,40.0348434],[-75.3384232,40.0348152],[-75.3384453,40.0347598],[-75.3384618,40.0347321],[-75.3384892,40.0347033],[-75.338517,40.0346741],[-75.3385361,40.0346521],[-75.3385799,40.0346201],[-75.3386279,40.034593],[-75.3386137,40.0345757],[-75.3386018,40.0345612],[-75.3386343,40.0345447],[-75.3386703,40.0345276],[-75.3387017,40.0345081],[-75.3386657,40.0344651],[-75.3390394,40.03429],[-75.3391138,40.0342561],[-75.3390642,40.0341982],[-75.3390363,40.0342094],[-75.338979,40.0341373]]]}},{"type":"Feature","id":23529508,"properties":{"osmId":23529508,"category":"academic","alt_name":"Mendel Science Center","building":"university","gnis:feature_id":"2115305","layer":"1","name":"Mendel Hall"},"geometry":{"type":"Polygon","coordinates":[[[-75.3435307,40.0379469],[-75.3435275,40.0380877],[-75.34353,40.0381771],[-75.3433303,40.0381899],[-75.3433209,40.0381559],[-75.3433228,40.0381191],[-75.3425731,40.038013],[-75.3425909,40.0379296],[-75.3424619,40.0379128],[-75.342382,40.0382573],[-75.3421144,40.0382193],[-75.3421804,40.0379612],[-75.3417001,40.0378977],[-75.3417157,40.0378284],[-75.341726,40.0377723],[-75.3417454,40.037686],[-75.3424913,40.0377896],[-75.3424771,40.0378339],[-75.3425664,40.0378439],[-75.3426611,40.0378564],[-75.3426745,40.0378168],[-75.3433312,40.0379073],[-75.3433224,40.0379389],[-75.3433883,40.0379483],[-75.3434509,40.0379572],[-75.3434512,40.0379351],[-75.3434845,40.0379343],[-75.3435307,40.0379469]]]}},{"type":"Feature","id":23529512,"properties":{"osmId":23529512,"category":"library","alt_name":"Reverend Daniel P Falvey Memorial Library","amenity":"library","building":"yes","gnis:feature_id":"2115311","name":"Falvey Memorial Library","operator:type":"university","website":"https://library.villanova.edu/"},"geometry":{"type":"Polygon","coordinates":[[[-75.3422048,40.0371671],[-75.3420255,40.0371402],[-75.3420283,40.037128],[-75.3420519,40.0371156],[-75.3420421,40.037103],[-75.3420223,40.0370915],[-75.3420037,40.0370868],[-75.3419808,40.0370864],[-75.3419602,40.0370925],[-75.3419462,40.0371008],[-75.34196,40.0371166],[-75.3419568,40.0371286],[-75.3417771,40.0371049],[-75.341677,40.0374874],[-75.3418918,40.0375176],[-75.3418882,40.0375333],[-75.3419668,40.0375447],[-75.34197,40.0375308],[-75.3421118,40.0375513],[-75.342114,40.0375421],[-75.3422017,40.0371798],[-75.3422048,40.0371671]]]}},{"type":"Feature","id":23529521,"properties":{"osmId":23529521,"category":"library","amenity":"library","building":"yes","layer":"1","name":"Old Falvey Hall","operator:type":"university"},"geometry":{"type":"Polygon","coordinates":[[[-75.3424691,40.0375878],[-75.342114,40.0375421],[-75.3422017,40.0371798],[-75.3425546,40.03723],[-75.3425284,40.0373372],[-75.3424691,40.0375878]]]}},{"type":"Feature","id":23547093,"properties":{"osmId":23547093,"category":"academic","building":"university","gnis:feature_id":"2115334","name":"Tolentine Hall"},"geometry":{"type":"Polygon","coordinates":[[[-75.345261,40.0367384],[-75.3448625,40.0366515],[-75.3444257,40.0365562],[-75.3444095,40.0366357],[-75.3443533,40.0367949],[-75.3442826,40.0370503],[-75.3444914,40.0370823],[-75.3445658,40.0368239],[-75.3450004,40.0369189],[-75.3449091,40.0371722],[-75.3451065,40.0372182],[-75.345261,40.0367384]]]}},{"type":"Feature","id":23547271,"properties":{"osmId":23547271,"category":"dining","amenity":"food_court","building":"yes","name":"Dougherty Hall"},"geometry":{"type":"Polygon","coordinates":[[[-75.3407641,40.0354347],[-75.3409747,40.0351005],[-75.341582,40.0353248],[-75.3413714,40.035659],[-75.3407641,40.0354347]]]}},{"type":"Feature","id":23547361,"properties":{"osmId":23547361,"category":"academic","alt_name":"Reverend Nicolas J Vasey Hall","building":"university","gnis:feature_id":"2115318","name":"Vasey Hall"},"geometry":{"type":"Polygon","coordinates":[[[-75.3399762,40.0350038],[-75.3398268,40.0352271],[-75.3399866,40.0352898],[-75.3400348,40.0352178],[-75.3404137,40.0353665],[-75.340515,40.0352152],[-75.3399762,40.0350038]]]}},{"type":"Feature","id":23547547,"properties":{"osmId":23547547,"category":"academic","building":"yes","gnis:feature_id":"2115288","name":"Connelly Center"},"geometry":{"type":"Polygon","coordinates":[[[-75.340455,40.0357122],[-75.3406267,40.0357782],[-75.3404484,40.0360499],[-75.3402732,40.0359826],[-75.3402437,40.0360275],[-75.3401147,40.0359779],[-75.3401449,40.0359318],[-75.3398216,40.0358074],[-75.3398338,40.0357887],[-75.3397529,40.0357576],[-75.3396622,40.0358957],[-75.3393831,40.0357882],[-75.3396233,40.0354226],[-75.3399023,40.0355301],[-75.3398756,40.0355707],[-75.3399511,40.0355998],[-75.3399555,40.0355932],[-75.3400209,40.0356183],[-75.3401093,40.0356523],[-75.3401862,40.0355352],[-75.340361,40.0356024],[-75.3402843,40.0357193],[-75.3403511,40.035745],[-75.3404169,40.0357703],[-75.340455,40.0357122]]]}},{"type":"Feature","id":23547566,"properties":{"osmId":23547566,"category":"residential","building":"dormitory","name":"Alumni Hall"},"geometry":{"type":"Polygon","coordinates":[[[-75.3426119,40.0362714],[-75.342395,40.0362323],[-75.342328,40.0364503],[-75.3429467,40.0365618],[-75.3429794,40.0364556],[-75.342718,40.0364085],[-75.3427242,40.0363881],[-75.3426518,40.036375],[-75.3426461,40.0363936],[-75.342578,40.0363814],[-75.3426119,40.0362714]]]}},{"type":"Feature","id":23557508,"properties":{"osmId":23557508,"category":"academic","building":"yes","created_by":"Potlatch 0.10b","gnis:feature_id":"2115295","name":"Fedigan Hall"},"geometry":{"type":"Polygon","coordinates":[[[-75.3457252,40.0371526],[-75.3450987,40.0374106],[-75.3451882,40.0375381],[-75.3458148,40.0372801],[-75.3457644,40.0372085],[-75.3457252,40.0371526]]]}},{"type":"Feature","id":23557515,"properties":{"osmId":23557515,"category":"academic","alt_name":"Mother Katharine Mary Drexel Hall","building":"yes","created_by":"Potlatch 0.10b","gnis:feature_id":"2115307","name":"Katharine Hall"},"geometry":{"type":"Polygon","coordinates":[[[-75.3406996,40.0307377],[-75.3405415,40.0307324],[-75.3405345,40.0308566],[-75.3403314,40.0308499],[-75.3403142,40.0311539],[-75.340458,40.0311587],[-75.3404638,40.0310559],[-75.3406811,40.0310631],[-75.3406996,40.0307377]]]}},{"type":"Feature","id":23764444,"properties":{"osmId":23764444,"category":"residential","alt_name":"Saint Clare of the Cross of Montefalco Hall","building":"dormitory","gnis:feature_id":"2115324","name":"Saint Clare Hall"},"geometry":{"type":"Polygon","coordinates":[[[-75.344657,40.0417146],[-75.3444237,40.0417745],[-75.3445461,40.0420542],[-75.3441376,40.042159],[-75.3442134,40.0423321],[-75.34471,40.0422047],[-75.3446706,40.0421147],[-75.3447066,40.0421055],[-75.3447142,40.0421228],[-75.3448235,40.0420948],[-75.344657,40.0417146]]]}},{"type":"Feature","id":24007121,"properties":{"osmId":24007121,"category":"academic","alt_name":"Reverend Francis X McGuire Hall","building":"yes","created_by":"Potlatch 0.10b","gnis:feature_id":"2115313","name":"McGuire Hall"},"geometry":{"type":"Polygon","coordinates":[[[-75.3418917,40.0302254],[-75.3415096,40.0303054],[-75.3415592,40.0304444],[-75.3417025,40.0304144],[-75.3417567,40.0305663],[-75.3421418,40.0304857],[-75.3420848,40.0303259],[-75.3419385,40.0303566],[-75.3418917,40.0302254]]]}},{"type":"Feature","id":24007125,"properties":{"osmId":24007125,"category":"academic","building":"yes","created_by":"Potlatch 0.10e","name":"Donahue Hall"},"geometry":{"type":"Polygon","coordinates":[[[-75.3424246,40.0305187],[-75.3419491,40.0307246],[-75.342217,40.0310875],[-75.3426925,40.0308816],[-75.3424246,40.0305187]]]}},{"type":"Feature","id":24007126,"properties":{"osmId":24007126,"category":"academic","alt_name":"Great Counsel Hall","building":"yes","created_by":"Potlatch 0.10f","gnis:feature_id":"2115298","name":"Good Counsel Hall"},"geometry":{"type":"Polygon","coordinates":[[[-75.343132,40.0308856],[-75.3430418,40.0309239],[-75.3430808,40.0309777],[-75.3426759,40.0311495],[-75.3427671,40.0312755],[-75.3429313,40.0312057],[-75.3431177,40.0314631],[-75.3432016,40.0314274],[-75.3431699,40.0313836],[-75.34358,40.0312095],[-75.3434835,40.0310763],[-75.3432361,40.0311813],[-75.3432016,40.0311336],[-75.3432857,40.0310979],[-75.343132,40.0308856]]]}},{"type":"Feature","id":26314841,"properties":{"osmId":26314841,"category":"academic","building":"university","ele":"140","gnis:feature_id":"2115286","name":"Center for Engineering Education and Research","name2":"CEER"},"geometry":{"type":"Polygon","coordinates":[[[-75.3461929,40.0369888],[-75.3459011,40.0371202],[-75.3455835,40.0367259],[-75.3455492,40.0367391],[-75.3454977,40.0366734],[-75.3454633,40.0366799],[-75.3453689,40.0365485],[-75.3455234,40.0364828],[-75.3455492,40.0363514],[-75.3457895,40.0364039],[-75.345944,40.0365748],[-75.3459182,40.0365879],[-75.3461929,40.0369888]]]}},{"type":"Feature","id":26314863,"properties":{"osmId":26314863,"category":"academic","building":"university","gnis:feature_id":"2115302","name":"John Barry Hall"},"geometry":{"type":"Polygon","coordinates":[[[-75.3441736,40.0377485],[-75.3439957,40.0378276],[-75.3438025,40.0379135],[-75.3436178,40.0379957],[-75.3436821,40.0380767],[-75.3437423,40.03805],[-75.3438206,40.0381563],[-75.3442548,40.0379623],[-75.3441702,40.0378542],[-75.3442433,40.037817],[-75.3441736,40.0377485]]]}},{"type":"Feature","id":26944735,"properties":{"osmId":26944735,"category":"academic","addr:city":"Villanova","addr:country":"US","addr:housenumber":"800","addr:postcode":"19085","addr:state":"PA","addr:street":"VEMS Avenue","building":"yes","gnis:feature_id":"2115299","healthcare":"yes","name":"Health Services Building"},"geometry":{"type":"Polygon","coordinates":[[[-75.337387,40.0347836],[-75.3371421,40.0348962],[-75.3373665,40.0351823],[-75.3375006,40.0351206],[-75.3373983,40.0349903],[-75.3375092,40.0349393],[-75.337387,40.0347836]]]}},{"type":"Feature","id":26944736,"properties":{"osmId":26944736,"category":"residential","alt_name":"Reverand Mortimer A Sullivan Hall","building":"dormitory","building:colour":"#535163","building:material":"stone","gnis:feature_id":"2115310","name":"Sullivan Hall","roof:colour":"#0e384a","roof:material":"tile"},"geometry":{"type":"Polygon","coordinates":[[[-75.3385519,40.0349091],[-75.3383903,40.0351554],[-75.3393643,40.035525],[-75.339536,40.035295],[-75.3394126,40.0352477],[-75.3393986,40.0352424],[-75.3393042,40.0353804],[-75.3390184,40.0352697],[-75.3389646,40.0352488],[-75.3389423,40.0352402],[-75.3389127,40.0352287],[-75.3388848,40.0352179],[-75.3385747,40.0350978],[-75.3386737,40.0349556],[-75.3385519,40.0349091]]]}},{"type":"Feature","id":26944737,"properties":{"osmId":26944737,"category":"residential","building":"dormitory","building:colour":"#535163","building:material":"stone","name":"Sheehan Hall","roof:colour":"#0e384a","roof:material":"tile"},"geometry":{"type":"Polygon","coordinates":[[[-75.3389806,40.0344407],[-75.3387599,40.0346593],[-75.3388338,40.0347016],[-75.338873,40.0347241],[-75.3389943,40.0346011],[-75.3392413,40.0347501],[-75.3392935,40.0347823],[-75.3393177,40.034796],[-75.3393327,40.0348051],[-75.3393667,40.0348255],[-75.3396361,40.034988],[-75.339511,40.0351055],[-75.3395294,40.0351171],[-75.3396195,40.0351737],[-75.3398478,40.0349724],[-75.3389806,40.0344407]]]}},{"type":"Feature","id":27030845,"properties":{"osmId":27030845,"category":"residential","building":"dormitory","name":"Austin Hall"},"geometry":{"type":"Polygon","coordinates":[[[-75.3419636,40.0357753],[-75.3419478,40.0358295],[-75.3415587,40.0357634],[-75.3415737,40.0357118],[-75.3414856,40.0356969],[-75.3414258,40.0359033],[-75.3415128,40.0359181],[-75.3415285,40.0358639],[-75.3419186,40.0359301],[-75.3419021,40.0359868],[-75.3420222,40.0360072],[-75.3420835,40.0357957],[-75.3419636,40.0357753]]]}},{"type":"Feature","id":27030931,"properties":{"osmId":27030931,"category":"academic","alt_name":"Reverend Patrick Moriarty Hall","building":"yes","created_by":"Potlatch 0.10b","gnis:feature_id":"2115320","name":"Moriarity Hall"},"geometry":{"type":"Polygon","coordinates":[[[-75.3444851,40.0345938],[-75.3444336,40.0347844],[-75.3446224,40.0348238],[-75.3446739,40.0346267],[-75.3444851,40.0345938]]]}},{"type":"Feature","id":27896183,"properties":{"osmId":27896183,"category":"residential","alt_name":"Reverend Owen Raymond Jackson Hall","building":"dormitory","gnis:feature_id":"2115319","name":"Jackson Hall"},"geometry":{"type":"Polygon","coordinates":[[[-75.3437644,40.0412559],[-75.3438416,40.0414596],[-75.3442708,40.0413479],[-75.3443995,40.0416699],[-75.344597,40.0416239],[-75.3444081,40.0411836],[-75.3442794,40.0412165],[-75.3442365,40.0411311],[-75.3437644,40.0412559]]]}},{"type":"Feature","id":27896227,"properties":{"osmId":27896227,"category":"academic","alt_name":"Dundale Mansion","building":"university","gnis:feature_id":"2115308","name":"Picotte Hall at Dundale"},"geometry":{"type":"Polygon","coordinates":[[[-75.3444091,40.0435416],[-75.3444978,40.0435399],[-75.344497,40.0435163],[-75.3444803,40.0435052],[-75.344474,40.0434879],[-75.3444851,40.0434723],[-75.3445843,40.0434678],[-75.3446022,40.0434805],[-75.3446056,40.0434964],[-75.344592,40.0435142],[-75.3445749,40.0435186],[-75.3445754,40.0435384],[-75.3448192,40.0435346],[-75.3448231,40.0436783],[-75.3449217,40.0436768],[-75.3449238,40.0437532],[-75.3447888,40.0437553],[-75.3447875,40.0437075],[-75.3446051,40.0437105],[-75.3446048,40.0436994],[-75.3444143,40.043703],[-75.3444091,40.0435416]]]}},{"type":"Feature","id":27896232,"properties":{"osmId":27896232,"category":"residential","alt_name":"Jane Rudolph Hall","building":"dormitory","gnis:feature_id":"2115301","name":"Rudolph Hall"},"geometry":{"type":"Polygon","coordinates":[[[-75.3435412,40.0413282],[-75.3436271,40.0415122],[-75.3431893,40.0416239],[-75.3433438,40.0419459],[-75.3431378,40.0419984],[-75.3429662,40.0415779],[-75.3430692,40.041545],[-75.3430348,40.0414728],[-75.3435412,40.0413282]]]}},{"type":"Feature","id":27896234,"properties":{"osmId":27896234,"category":"residential","alt_name":"Reverend Robert J Welsh Hall","building":"dormitory","gnis:feature_id":"2115321;2115289","name":"Welsh Hall"},"geometry":{"type":"Polygon","coordinates":[[[-75.3439417,40.0422171],[-75.3435323,40.0423227],[-75.3434059,40.0420358],[-75.3431878,40.0420921],[-75.3433865,40.0425436],[-75.3440141,40.0423816],[-75.3439417,40.0422171]]]}},{"type":"Feature","id":27925432,"properties":{"osmId":27925432,"category":"academic","alt_name":"William Simpson Hall","building":"yes","created_by":"Potlatch 0.10e","gnis:feature_id":"2115338","name":"Simpson Hall"},"geometry":{"type":"Polygon","coordinates":[[[-75.3457109,40.0356333],[-75.3456553,40.0357907],[-75.3457652,40.0358135],[-75.3457817,40.0357669],[-75.3458338,40.0357777],[-75.345873,40.0356669],[-75.3457109,40.0356333]]]}},{"type":"Feature","id":27925454,"properties":{"osmId":27925454,"category":"academic","building":"yes","created_by":"Potlatch 0.10f","gnis:feature_id":"2115285","name":"Caughlin Hall"},"geometry":{"type":"Polygon","coordinates":[[[-75.3413062,40.0304181],[-75.341014,40.030617],[-75.3410791,40.0306731],[-75.3411169,40.0306473],[-75.3411747,40.0306971],[-75.3410215,40.0308014],[-75.3411269,40.0308921],[-75.3413379,40.0307485],[-75.3413724,40.0307783],[-75.3414704,40.0307116],[-75.3413674,40.0306229],[-75.3413262,40.0306509],[-75.3412814,40.0306124],[-75.3414213,40.0305172],[-75.3413062,40.0304181]]]}},{"type":"Feature","id":27925504,"properties":{"osmId":27925504,"category":"athletic","building":"yes","building:colour":"#821f04","building:material":"brick","height":"13.87","leisure":"sports_centre","name":"Finneran Pavilion","roof:colour":"white","roof:height":"9.00","roof:material":"plastic","roof:shape":"gabled","sport":"basketball","wikidata":"Q7930886","wikipedia":"en:Villanova Wildcats men's basketball"},"geometry":{"type":"Polygon","coordinates":[[[-75.3362361,40.0336561],[-75.335742,40.0340716],[-75.3362797,40.0344463],[-75.33652,40.0342447],[-75.3370236,40.0342227],[-75.3372171,40.0340611],[-75.3372272,40.0340526],[-75.3375331,40.0340417],[-75.3375159,40.0337054],[-75.3374386,40.0337075],[-75.3370439,40.0337185],[-75.3370353,40.0337777],[-75.336958,40.0338171],[-75.3367778,40.03385],[-75.336589,40.0338368],[-75.3364774,40.0338171],[-75.3362361,40.0336561]]]}},{"type":"Feature","id":28355173,"properties":{"osmId":28355173,"category":"academic","building":"yes","name":"Kennedy Hall"},"geometry":{"type":"Polygon","coordinates":[[[-75.3403785,40.0362069],[-75.3402182,40.0363594],[-75.3406665,40.0366356],[-75.3408267,40.0364831],[-75.3403785,40.0362069]]]}},{"type":"Feature","id":28355186,"properties":{"osmId":28355186,"category":"residential","alt_name":"Reverend Lawrence Gallen Hall","building":"dormitory","gnis:feature_id":"2115317","name":"Gallen Hall"},"geometry":{"type":"Polygon","coordinates":[[[-75.3435299,40.0409212],[-75.3438904,40.0407767],[-75.3437187,40.0405138],[-75.3439247,40.0404153],[-75.344165,40.040803],[-75.3440449,40.040849],[-75.3440964,40.0409212],[-75.3436329,40.0411052],[-75.3435299,40.0409212]]]}},{"type":"Feature","id":28457376,"properties":{"osmId":28457376,"category":"religious","building":"church","gnis:feature_id":"2115328","name":"Saint Thomas of Villanova Monastery"},"geometry":{"type":"Polygon","coordinates":[[[-75.3443576,40.0364045],[-75.3436282,40.0362534],[-75.3436498,40.0361924],[-75.3434966,40.0361606],[-75.3434785,40.0362118],[-75.3433502,40.0361933],[-75.3432717,40.0361897],[-75.3432632,40.0361892],[-75.3432149,40.0361873],[-75.3432064,40.0362184],[-75.3434353,40.0362618],[-75.3434015,40.0363575],[-75.3435096,40.0363799],[-75.3436912,40.0364175],[-75.3438962,40.03646],[-75.3438628,40.0365545],[-75.3439689,40.0365764],[-75.3439571,40.0366098],[-75.3439445,40.0366455],[-75.3440565,40.0366687],[-75.3440351,40.036729],[-75.3443533,40.0367949],[-75.3444095,40.0366357],[-75.344285,40.0366099],[-75.3443576,40.0364045]]]}},{"type":"Feature","id":28800392,"properties":{"osmId":28800392,"category":"residential","alt_name":"William and Julia Moulden Hall","building":"dormitory","gnis:feature_id":"2115337","name":"Moulden Hall"},"geometry":{"type":"Polygon","coordinates":[[[-75.3433264,40.0410055],[-75.3434466,40.0411632],[-75.3429659,40.0413801],[-75.342923,40.0413275],[-75.3428286,40.0413669],[-75.3425797,40.0409989],[-75.3427514,40.0409201],[-75.3429488,40.0411764],[-75.3433264,40.0410055]]]}},{"type":"Feature","id":28800398,"properties":{"osmId":28800398,"category":"residential","alt_name":"Reverend John A Klekotka Hall","building":"dormitory","gnis:feature_id":"2115314","name":"Klekotka Hall"},"geometry":{"type":"Polygon","coordinates":[[[-75.3427685,40.040217],[-75.3422793,40.0404338],[-75.3423136,40.0404864],[-75.3422364,40.0405258],[-75.3425025,40.0409069],[-75.3426827,40.0408347],[-75.3425025,40.0405652],[-75.3428801,40.0403944],[-75.3427685,40.040217]]]}},{"type":"Feature","id":28800407,"properties":{"osmId":28800407,"category":"residential","alt_name":"Marguerite M Farley Hall","building":"dormitory","building:colour":"#535163","building:levels":"3","building:material":"stone","gnis:feature_id":"2115304","name":"Farley Hall","roof:height":"6","roof:shape":"hipped"},"geometry":{"type":"Polygon","coordinates":[[[-75.3429402,40.0401316],[-75.3430604,40.0403024],[-75.3434552,40.0401513],[-75.3436268,40.0404141],[-75.3438414,40.0403287],[-75.3435925,40.0399673],[-75.3434466,40.0400264],[-75.3433951,40.0399541],[-75.3429402,40.0401316]]]}},{"type":"Feature","id":28807365,"properties":{"osmId":28807365,"category":"academic","building":"yes","name":"Farrell Hall"},"geometry":{"type":"Polygon","coordinates":[[[-75.3471417,40.0351763],[-75.3469373,40.0351384],[-75.346908,40.035231],[-75.3471124,40.0352689],[-75.3471417,40.0351763]]]}},{"type":"Feature","id":28807367,"properties":{"osmId":28807367,"category":"academic","building":"yes","gnis:feature_id":"2115297","name":"Geraghty Hall"},"geometry":{"type":"Polygon","coordinates":[[[-75.3460507,40.0349691],[-75.3458741,40.0349388],[-75.3458493,40.0350237],[-75.3460259,40.035054],[-75.3460507,40.0349691]]]}},{"type":"Feature","id":28807377,"properties":{"osmId":28807377,"category":"academic","addr:city":"East Lancaster Avenue","addr:state":"PA","building":"yes","name":"Stone Hall"},"geometry":{"type":"Polygon","coordinates":[[[-75.3476141,40.0352578],[-75.3478464,40.0352976],[-75.3478168,40.0353988],[-75.3475846,40.035359],[-75.3476141,40.0352578]]]}},{"type":"Feature","id":28807390,"properties":{"osmId":28807390,"category":"academic","building":"yes","name":"Alumni House"},"geometry":{"type":"Polygon","coordinates":[[[-75.3455558,40.034876],[-75.3452731,40.0348247],[-75.3452462,40.0349115],[-75.3455289,40.0349628],[-75.3455558,40.034876]]]}},{"type":"Feature","id":28807398,"properties":{"osmId":28807398,"category":"academic","building":"yes","created_by":"Potlatch 0.10f","gnis:feature_id":"2115332","name":"Technology Services Building"},"geometry":{"type":"Polygon","coordinates":[[[-75.3485953,40.0350622],[-75.3484989,40.0350452],[-75.3484621,40.0351678],[-75.3484028,40.0351573],[-75.348426,40.0350802],[-75.3483223,40.0350619],[-75.3482118,40.035429],[-75.3483049,40.0354454],[-75.3483194,40.035397],[-75.3484857,40.0354263],[-75.3485953,40.0350622]]]}},{"type":"Feature","id":28807481,"properties":{"osmId":28807481,"category":"academic","alt_name":"Reverend Lawrence A Delurey Hall","building":"yes","created_by":"Potlatch 0.10f","gnis:feature_id":"2115316","name":"Delurey Hall"},"geometry":{"type":"Polygon","coordinates":[[[-75.3466722,40.0366145],[-75.3465091,40.0366736],[-75.3466722,40.0369365],[-75.3468439,40.0368773],[-75.3466722,40.0366145]]]}},{"type":"Feature","id":28807482,"properties":{"osmId":28807482,"category":"academic","building":"yes","created_by":"Potlatch 0.10f","gnis:feature_id":"2115306","name":"Military Sciences Building"},"geometry":{"type":"Polygon","coordinates":[[[-75.3467494,40.0361808],[-75.3466979,40.0362333],[-75.3468954,40.0363516],[-75.3469554,40.0362991],[-75.3467494,40.0361808]]]}},{"type":"Feature","id":28807485,"properties":{"osmId":28807485,"category":"academic","alt_name":"Reverend John P O'Dwyer Hall","building":"yes","created_by":"Potlatch 0.10f","gnis:feature_id":"2115315","name":"O'Dwyer Hall"},"geometry":{"type":"Polygon","coordinates":[[[-75.3468563,40.0358596],[-75.3468224,40.0359717],[-75.3466677,40.0359443],[-75.3466308,40.0360665],[-75.3468954,40.0361134],[-75.3469663,40.0358791],[-75.3468563,40.0358596]]]}},{"type":"Feature","id":28807527,"properties":{"osmId":28807527,"category":"academic","alt_name":"Reverend Thomas C Middleton Hall","building":"yes","created_by":"Potlatch 0.10f","gnis:feature_id":"2115322","name":"Middleton Hall"},"geometry":{"type":"Polygon","coordinates":[[[-75.3471793,40.0360259],[-75.3471411,40.0361611],[-75.3471693,40.0361657],[-75.3471394,40.0362716],[-75.3472121,40.0362837],[-75.347242,40.036178],[-75.3472712,40.0361829],[-75.3473095,40.0360475],[-75.3471793,40.0360259]]]}},{"type":"Feature","id":29007841,"properties":{"osmId":29007841,"category":"academic","building":"yes","created_by":"Potlatch 0.10f","name":"Facilities Management Building"},"geometry":{"type":"Polygon","coordinates":[[[-75.3375044,40.0365023],[-75.3373501,40.0366599],[-75.3378045,40.0369207],[-75.3379588,40.0367631],[-75.3375044,40.0365023]]]}},{"type":"Feature","id":29007904,"properties":{"osmId":29007904,"category":"academic","building":"yes","gnis:feature_id":"2115331","name":"Structural Engineering Teaching and Research Laboratory"},"geometry":{"type":"Polygon","coordinates":[[[-75.3371121,40.0360599],[-75.336953,40.0362207],[-75.3373437,40.0364472],[-75.3375028,40.0362863],[-75.3371121,40.0360599]]]}},{"type":"Feature","id":29007920,"properties":{"osmId":29007920,"category":"academic","building":"university","name":"Steam Plant"},"geometry":{"type":"Polygon","coordinates":[[[-75.3382741,40.0367744],[-75.3382057,40.036848],[-75.3383223,40.0369115],[-75.3382668,40.0369712],[-75.3385474,40.0371241],[-75.3386713,40.0369909],[-75.3382741,40.0367744]]]}},{"type":"Feature","id":29008082,"properties":{"osmId":29008082,"category":"academic","alt_name":"Eugene Lester Garey Hall","building":"university","gnis:feature_id":"2115292","name":"Garey Hall"},"geometry":{"type":"Polygon","coordinates":[[[-75.3398728,40.038881],[-75.3396668,40.0389664],[-75.3397011,40.0390321],[-75.3392291,40.0392292],[-75.3393235,40.0393475],[-75.3397269,40.0391701],[-75.3398728,40.0393738],[-75.3395896,40.0395052],[-75.3394608,40.0393541],[-75.3392377,40.0394461],[-75.3395295,40.0398207],[-75.3396582,40.0397681],[-75.3395982,40.0396827],[-75.3400273,40.0394855],[-75.3401131,40.0396104],[-75.3402848,40.0395249],[-75.340199,40.0394132],[-75.340259,40.039387],[-75.3401303,40.0392358],[-75.3400616,40.0392687],[-75.339993,40.0391898],[-75.3400874,40.0391504],[-75.3398728,40.038881]]]}},{"type":"Feature","id":29008367,"properties":{"osmId":29008367,"category":"academic","alt_name":"Bernard Corr Hall","building":"yes","gnis:feature_id":"2115282","name":"Corr Hall"},"geometry":{"type":"Polygon","coordinates":[[[-75.3414564,40.0362897],[-75.3414305,40.0362897],[-75.3414304,40.0362708],[-75.3413747,40.0362709],[-75.3413748,40.0362892],[-75.3413445,40.0362892],[-75.3413446,40.0364249],[-75.3413311,40.0364249],[-75.3413168,40.0364341],[-75.3413167,40.0364533],[-75.3413303,40.0364624],[-75.341352,40.0364625],[-75.3413519,40.0365134],[-75.3409565,40.036513],[-75.3409563,40.0366418],[-75.3414779,40.0366423],[-75.3414918,40.0366271],[-75.3415197,40.0366271],[-75.3415193,40.036532],[-75.3414927,40.0365321],[-75.3414926,40.0365186],[-75.341478,40.0365101],[-75.341457,40.0365099],[-75.3414576,40.0364636],[-75.3414699,40.0364637],[-75.3414861,40.0364516],[-75.341486,40.0364344],[-75.3414706,40.0364225],[-75.3414565,40.0364225],[-75.3414564,40.0362897]]]}},{"type":"Feature","id":29009045,"properties":{"osmId":29009045,"category":"residential","building":"dormitory","gnis:feature_id":"2115327","name":"Saint Rita Hall"},"geometry":{"type":"Polygon","coordinates":[[[-75.342594,40.0359688],[-75.3427235,40.0359928],[-75.3427279,40.035979],[-75.3427471,40.0359825],[-75.3427508,40.035971],[-75.3427994,40.03598],[-75.3427949,40.0359942],[-75.3428267,40.0360001],[-75.3428226,40.036013],[-75.3429518,40.0360369],[-75.3429229,40.0361284],[-75.3429086,40.0361257],[-75.3428959,40.036166],[-75.3427694,40.0361425],[-75.3427798,40.0361097],[-75.3427946,40.0361125],[-75.3427988,40.0360991],[-75.3425664,40.036056],[-75.342594,40.0359688]]]}},{"type":"Feature","id":34362790,"properties":{"osmId":34362790,"category":"academic","building":"yes","gnis:feature_id":"2115283","name":"Burns Hall"},"geometry":{"type":"Polygon","coordinates":[[[-75.3450157,40.0424501],[-75.3449102,40.0424793],[-75.3449804,40.0426276],[-75.3448657,40.0426594],[-75.3448983,40.0427285],[-75.3451185,40.0426674],[-75.3450157,40.0424501]]]}},{"type":"Feature","id":40532668,"properties":{"osmId":40532668,"category":"academic","building":"university","name":"Greenhouse"},"geometry":{"type":"Polygon","coordinates":[[[-75.342952,40.038397],[-75.3426305,40.0383533],[-75.3426099,40.0384423],[-75.3429314,40.0384859],[-75.342952,40.038397]]]}},{"type":"Feature","id":232184250,"properties":{"osmId":232184250,"category":"academic","amenity":"parking","building":"parking","name":"North Campus Parking Garage","note":"parking garage","parking":"multi-storey"},"geometry":{"type":"Polygon","coordinates":[[[-75.3413269,40.0387807],[-75.3409655,40.039203],[-75.340104,40.0387708],[-75.3401422,40.0387262],[-75.3401009,40.0387055],[-75.3399739,40.0386418],[-75.340059,40.0385425],[-75.3400996,40.0385628],[-75.3403378,40.0382845],[-75.3413269,40.0387807]]]}},{"type":"Feature","id":427870461,"properties":{"osmId":427870461,"category":"academic","building":"train_station"},"geometry":{"type":"Polygon","coordinates":[[[-75.3439987,40.0339846],[-75.3441137,40.0339996],[-75.344107,40.0340295],[-75.3439921,40.0340145],[-75.3439987,40.0339846]]]}},{"type":"Feature","id":427870463,"properties":{"osmId":427870463,"category":"academic","building":"train_station"},"geometry":{"type":"Polygon","coordinates":[[[-75.3440053,40.0341205],[-75.3440094,40.0340994],[-75.3439537,40.0340931],[-75.3439496,40.0341141],[-75.3440053,40.0341205]]]}},{"type":"Feature","id":456629156,"properties":{"osmId":456629156,"category":"religious","addr:country":"US","addr:housenumber":"1116","addr:state":"PA","addr:street":"Lancaster Avenue","amenity":"place_of_worship","building":"yes","building:levels":"4","check_date":"2022-10-25","denomination":"episcopal","name":"Church of the Good Shepherd","religion":"christian","website":"http://www.goodshepherdrosemont.net"},"geometry":{"type":"Polygon","coordinates":[[[-75.326243,40.0248747],[-75.3262211,40.0248539],[-75.3262118,40.024858],[-75.3262032,40.0248497],[-75.3261677,40.024867],[-75.3261581,40.0248717],[-75.3261246,40.024833],[-75.3261783,40.024802],[-75.3260927,40.0247125],[-75.3260522,40.0247346],[-75.3260109,40.0246893],[-75.3260047,40.0246994],[-75.3259649,40.0246869],[-75.3259696,40.0246761],[-75.3258108,40.024697],[-75.3257882,40.0247239],[-75.3257586,40.0247125],[-75.3256644,40.0248228],[-75.3256838,40.0248312],[-75.3256355,40.0248878],[-75.3254993,40.0248175],[-75.3256589,40.0246237],[-75.3257041,40.0246433],[-75.3257547,40.0245783],[-75.3258341,40.0246159],[-75.3258481,40.0246201],[-75.3259112,40.0245843],[-75.3258645,40.024533],[-75.3261799,40.0243601],[-75.3262282,40.0244024],[-75.3262539,40.0243893],[-75.3262796,40.0244185],[-75.3262546,40.0244317],[-75.3262873,40.024468],[-75.3261954,40.0245163],[-75.326169,40.0244883],[-75.32594,40.0246153],[-75.3259315,40.0246058],[-75.3258871,40.0246302],[-75.3258917,40.0246547],[-75.3259058,40.0246535],[-75.3259011,40.0246272],[-75.3259836,40.0246153],[-75.3260452,40.0245819],[-75.3260568,40.024595],[-75.3261308,40.0245533],[-75.3261456,40.0245682],[-75.3261441,40.0245545],[-75.3261729,40.0245396],[-75.3262017,40.0245485],[-75.3262243,40.0245384],[-75.3262873,40.0246082],[-75.3262531,40.0246261],[-75.3263239,40.0247119],[-75.3263473,40.0247006],[-75.3263839,40.0247089],[-75.326401,40.0247292],[-75.3263894,40.0247555],[-75.3263637,40.0247692],[-75.3263894,40.024799],[-75.326243,40.0248747]]]}},{"type":"Feature","id":456629157,"properties":{"osmId":456629157,"category":"residential","addr:housenumber":"19","addr:street":"Montrose Avenue","building":"house","building:levels":"3","house":"detached","name":"Retreat House"},"geometry":{"type":"Polygon","coordinates":[[[-75.3264556,40.0245296],[-75.3264287,40.0245417],[-75.3265387,40.02466],[-75.3266884,40.0245842],[-75.3266084,40.0244963],[-75.3265965,40.0245029],[-75.3265767,40.0244829],[-75.3265593,40.0244823],[-75.3265039,40.0244217],[-75.3264967,40.0244253],[-75.3264865,40.0244114],[-75.32645,40.024429],[-75.3264619,40.0244405],[-75.3264041,40.0244732],[-75.3264556,40.0245296]]]}},{"type":"Feature","id":456629158,"properties":{"osmId":456629158,"category":"residential","addr:housenumber":"1111","addr:street":"County Line Road","building":"house","building:levels":"3","house":"detached","name":"Vicarage"},"geometry":{"type":"Polygon","coordinates":[[[-75.3266258,40.024007],[-75.3265664,40.0239275],[-75.326473,40.0239675],[-75.3264817,40.0239803],[-75.3264374,40.0240003],[-75.3264477,40.0240088],[-75.3263851,40.0240391],[-75.3264033,40.0240603],[-75.3264176,40.0240518],[-75.3264484,40.0240876],[-75.3264833,40.0240737],[-75.326492,40.0240846],[-75.3265474,40.0240597],[-75.3265379,40.0240476],[-75.3266258,40.024007]]]}},{"type":"Feature","id":574627788,"properties":{"osmId":574627788,"category":"academic","building":"university","name":"White Hall"},"geometry":{"type":"Polygon","coordinates":[[[-75.3444391,40.0376092],[-75.3444776,40.0373002],[-75.3443886,40.0372945],[-75.3443914,40.0372643],[-75.344296,40.0372629],[-75.3442474,40.0376197],[-75.3443079,40.0376281],[-75.3443079,40.0376436],[-75.344351,40.0376478],[-75.3443547,40.0376035],[-75.3444391,40.0376092]]]}},{"type":"Feature","id":574627789,"properties":{"osmId":574627789,"category":"academic","building":"university","name":"Chemical Engineering Building"},"geometry":{"type":"Polygon","coordinates":[[[-75.3447256,40.0377024],[-75.3446585,40.0376108],[-75.3444352,40.0377161],[-75.3444077,40.0376813],[-75.3442958,40.0377357],[-75.344409,40.0378782],[-75.3445242,40.0378307],[-75.3445075,40.0378008],[-75.3447256,40.0377024]]]}},{"type":"Feature","id":575589669,"properties":{"osmId":575589669,"category":"academic","building":"university","building:levels":"4","name":"Charles Widger School of Law"},"geometry":{"type":"Polygon","coordinates":[[[-75.339725,40.0386733],[-75.3395121,40.038571],[-75.339469,40.0386236],[-75.3391388,40.038465],[-75.33944,40.0380976],[-75.3393232,40.038076],[-75.3392206,40.0379838],[-75.3391788,40.0380342],[-75.3391407,40.0380157],[-75.3388773,40.0383334],[-75.3388169,40.0382505],[-75.3386463,40.0383234],[-75.3389934,40.0387997],[-75.33888,40.0388481],[-75.3389886,40.0389971],[-75.3396099,40.0387317],[-75.3396581,40.0387548],[-75.339725,40.0386733]]]}},{"type":"Feature","id":575589677,"properties":{"osmId":575589677,"category":"academic","building":"yes","leisure":"fitness_centre","name":"Davis Center for Athletics & Fitness","sport":"baseball;athletics;cardio;weightlifting"},"geometry":{"type":"Polygon","coordinates":[[[-75.3364316,40.0349166],[-75.3371489,40.0345688],[-75.3370085,40.0343991],[-75.3369233,40.0344404],[-75.3369119,40.0344266],[-75.3369422,40.0344119],[-75.3369313,40.0343987],[-75.3369299,40.0343799],[-75.3368512,40.0343833],[-75.3368529,40.0344059],[-75.3368304,40.0344068],[-75.3368092,40.0343953],[-75.3367844,40.0343899],[-75.3367623,40.0343913],[-75.3367393,40.0344001],[-75.336726,40.0344204],[-75.3367225,40.0344387],[-75.3365785,40.0345085],[-75.3365899,40.0345223],[-75.3363614,40.0346331],[-75.3363489,40.034618],[-75.3363073,40.0346382],[-75.3363562,40.0346973],[-75.3363701,40.0346905],[-75.3363799,40.0347024],[-75.3362903,40.0347458],[-75.3364316,40.0349166]]]}},{"type":"Feature","id":575589678,"properties":{"osmId":575589678,"category":"academic","building":"yes"},"geometry":{"type":"Polygon","coordinates":[[[-75.3385795,40.0337084],[-75.3385207,40.0336673],[-75.3385839,40.0336144],[-75.3383209,40.0334301],[-75.3382983,40.033449],[-75.338265,40.0334257],[-75.3382204,40.0334631],[-75.338198,40.0334475],[-75.3381206,40.0335123],[-75.3378913,40.0337043],[-75.3378019,40.0336418],[-75.3375614,40.0338432],[-75.3375751,40.0338528],[-75.3377141,40.0339501],[-75.3378736,40.0338164],[-75.3381177,40.0339873],[-75.3380991,40.0340029],[-75.3382012,40.0340744],[-75.3383102,40.0339831],[-75.3382781,40.0339606],[-75.3385795,40.0337084]]]}},{"type":"Feature","id":575589679,"properties":{"osmId":575589679,"category":"academic","building":"yes","leisure":"fitness_centre","name":"Andrew J. Talley Athletic Center"},"geometry":{"type":"Polygon","coordinates":[[[-75.3381206,40.0335123],[-75.3380921,40.0334922],[-75.3381317,40.0334587],[-75.3378601,40.0332529],[-75.3377348,40.033366],[-75.3376883,40.033338],[-75.3376825,40.0334011],[-75.3376642,40.0334587],[-75.3376449,40.0335015],[-75.3376073,40.0335537],[-75.3375666,40.0335949],[-75.3375087,40.0336393],[-75.3374721,40.0336626],[-75.3374111,40.0336844],[-75.3374386,40.0337075],[-75.3375159,40.0337054],[-75.3375382,40.0338836],[-75.3375751,40.0338528],[-75.3375614,40.0338432],[-75.3378019,40.0336418],[-75.3378913,40.0337043],[-75.3381206,40.0335123]]]}},{"type":"Feature","id":575589689,"properties":{"osmId":575589689,"category":"academic","building":"university","name":"Driscoll Hall"},"geometry":{"type":"Polygon","coordinates":[[[-75.3380407,40.0361144],[-75.3381749,40.0359796],[-75.3378428,40.0357858],[-75.3378301,40.0357363],[-75.3378228,40.035708],[-75.3380441,40.0354817],[-75.337869,40.0353813],[-75.3376164,40.0356395],[-75.3376595,40.035892],[-75.3380407,40.0361144]]]}},{"type":"Feature","id":656586815,"properties":{"osmId":656586815,"category":"athletic","building":"stadium"},"geometry":{"type":"Polygon","coordinates":[[[-75.3366999,40.0337312],[-75.3368525,40.0336068],[-75.3359023,40.0329233],[-75.3357569,40.0328187],[-75.3356043,40.0329431],[-75.3366999,40.0337312]]]}},{"type":"Feature","id":656586816,"properties":{"osmId":656586816,"category":"athletic","building":"stadium"},"geometry":{"type":"Polygon","coordinates":[[[-75.3375182,40.0330609],[-75.3376442,40.0329593],[-75.3371931,40.0326669],[-75.3372723,40.0326011],[-75.3370486,40.0324366],[-75.3369859,40.0324896],[-75.3367115,40.0322869],[-75.3366218,40.0322487],[-75.3364154,40.0322118],[-75.3363721,40.0323624],[-75.3365804,40.0323995],[-75.3366904,40.0324769],[-75.3367314,40.0324427],[-75.3367616,40.032466],[-75.3367224,40.0324997],[-75.3375182,40.0330609]]]}},{"type":"Feature","id":691286056,"properties":{"osmId":691286056,"category":"residential","building":"dormitory"},"geometry":{"type":"Polygon","coordinates":[[[-75.3410953,40.0342152],[-75.3414392,40.0343184],[-75.3414631,40.0342849],[-75.3415816,40.0343223],[-75.3416644,40.0341437],[-75.3417851,40.0338831],[-75.3417017,40.0338604],[-75.3416928,40.0338762],[-75.3416106,40.0338375],[-75.3412755,40.0336797],[-75.3412508,40.0337107],[-75.3411936,40.0336802],[-75.3411363,40.0336496],[-75.3411607,40.0336198],[-75.3408739,40.0334479],[-75.3408659,40.0334593],[-75.3408477,40.033447],[-75.3407823,40.0334028],[-75.3407997,40.0333844],[-75.3407158,40.0333221],[-75.3406425,40.0333754],[-75.3406222,40.0333561],[-75.3402586,40.0336258],[-75.3401608,40.0335085],[-75.3400081,40.0335793],[-75.3400944,40.0336861],[-75.3401781,40.0337895],[-75.3401521,40.0338195],[-75.3405531,40.0340213],[-75.3405698,40.0339991],[-75.340615,40.0340207],[-75.3406896,40.0339362],[-75.340636,40.0339089],[-75.340645,40.0338942],[-75.3403634,40.0337519],[-75.3407003,40.0335009],[-75.3407502,40.0335295],[-75.3407763,40.0335444],[-75.3407571,40.0335589],[-75.3409926,40.0336996],[-75.3409445,40.0337475],[-75.3410699,40.0338109],[-75.3412086,40.033881],[-75.3412486,40.0338331],[-75.3414988,40.0339442],[-75.3415163,40.0339288],[-75.3415611,40.0339489],[-75.3414911,40.0340939],[-75.3414592,40.0341616],[-75.3411605,40.0340754],[-75.3411491,40.0340951],[-75.3410996,40.0340803],[-75.3410741,40.0341268],[-75.3410495,40.0341717],[-75.3411047,40.0341865],[-75.3410953,40.0342152]]]}},{"type":"Feature","id":700139005,"properties":{"osmId":700139005,"category":"academic","amenity":"parking","building":"parking","name":"Ithan Garage","parking":"multi-storey"},"geometry":{"type":"Polygon","coordinates":[[[-75.3406311,40.0329704],[-75.3405803,40.0329034],[-75.3406118,40.0328893],[-75.3403418,40.0325335],[-75.3403091,40.032548],[-75.3400626,40.0322234],[-75.3392819,40.032571],[-75.339292,40.0325844],[-75.3392476,40.0326041],[-75.339757,40.0332758],[-75.339777,40.033267],[-75.3398241,40.033329],[-75.3405615,40.0330013],[-75.3406311,40.0329704]]]}},{"type":"Feature","id":705828150,"properties":{"osmId":705828150,"category":"academic","building":"train_station","name":"Villanova Station","operator":"SEPTA"},"geometry":{"type":"Polygon","coordinates":[[[-75.3422552,40.0388807],[-75.3422806,40.0388641],[-75.3423305,40.0388026],[-75.3422383,40.0387587],[-75.3422476,40.0387472],[-75.3421662,40.0387085],[-75.3420854,40.038808],[-75.3420997,40.0388148],[-75.342083,40.0388354],[-75.3421468,40.0388657],[-75.3421351,40.0388801],[-75.3421749,40.038899],[-75.3422079,40.0388582],[-75.3422552,40.0388807]]]}},{"type":"Feature","id":707826025,"properties":{"osmId":707826025,"category":"residential","building":"dormitory"},"geometry":{"type":"Polygon","coordinates":[[[-75.3433376,40.0345621],[-75.3431096,40.034521],[-75.3431335,40.0344434],[-75.3431796,40.0342938],[-75.3431095,40.0342811],[-75.3431317,40.0342099],[-75.3423556,40.0340677],[-75.3423373,40.0341263],[-75.3423314,40.0341451],[-75.3422795,40.0341356],[-75.3422316,40.0342871],[-75.342213,40.034346],[-75.3420181,40.0343099],[-75.3420379,40.0342474],[-75.3420847,40.0340995],[-75.3421075,40.0340274],[-75.3419349,40.0339954],[-75.341914,40.0340615],[-75.3418768,40.0340546],[-75.3418328,40.0341946],[-75.3417736,40.0343832],[-75.3418997,40.0344063],[-75.3418911,40.034434],[-75.3423039,40.0345086],[-75.3423285,40.0344286],[-75.3423795,40.0344377],[-75.3424162,40.0343167],[-75.3424492,40.0342076],[-75.3427102,40.0342539],[-75.3429737,40.0343007],[-75.3429404,40.0344108],[-75.3428979,40.0345513],[-75.3429431,40.0345593],[-75.3429149,40.0346535],[-75.3434001,40.0347387],[-75.3434242,40.0346585],[-75.343517,40.0346748],[-75.3436107,40.0343625],[-75.3435893,40.0343587],[-75.3436054,40.0343059],[-75.3434263,40.0342736],[-75.3433413,40.0345499],[-75.3433376,40.0345621]]]}},{"type":"Feature","id":762515011,"properties":{"osmId":762515011,"category":"academic","building":"university","name":"Heffernan Hall"},"geometry":{"type":"Polygon","coordinates":[[[-75.3288619,40.0346953],[-75.3287841,40.0348367],[-75.3288755,40.0348662],[-75.3288681,40.0348795],[-75.3293698,40.0350413],[-75.3293771,40.0350279],[-75.3294389,40.0350479],[-75.3295167,40.0349065],[-75.3288619,40.0346953]]]}},{"type":"Feature","id":762515014,"properties":{"osmId":762515014,"category":"academic","building":"university","name":"Dorothy McKenna Brown Science Building"},"geometry":{"type":"Polygon","coordinates":[[[-75.3295801,40.0347161],[-75.3296934,40.0348637],[-75.3301517,40.0346654],[-75.3302556,40.0348068],[-75.330403,40.0347432],[-75.3302187,40.0344924],[-75.3300546,40.034563],[-75.33004,40.0345432],[-75.3299872,40.0345659],[-75.3299731,40.0345467],[-75.3295801,40.0347161]]]}},{"type":"Feature","id":762515017,"properties":{"osmId":762515017,"category":"academic","building":"university","name":"Kaul Hall"},"geometry":{"type":"Polygon","coordinates":[[[-75.3293109,40.0320833],[-75.3293051,40.0322768],[-75.328972,40.032271],[-75.328968,40.032404],[-75.3294746,40.0324129],[-75.3294844,40.0320863],[-75.3293109,40.0320833]]]}},{"type":"Feature","id":762515019,"properties":{"osmId":762515019,"category":"academic","building":"university","name":"Cornelia Connelly Hall"},"geometry":{"type":"Polygon","coordinates":[[[-75.3300814,40.0334001],[-75.3302327,40.0333178],[-75.3302281,40.0332687],[-75.3302632,40.0332438],[-75.3302279,40.0332099],[-75.330313,40.0331559],[-75.3304455,40.0332723],[-75.3303533,40.0333285],[-75.3303809,40.0333543],[-75.3302578,40.0334341],[-75.3302254,40.0334095],[-75.330143,40.0334669],[-75.3300814,40.0334001]]]}},{"type":"Feature","id":762515021,"properties":{"osmId":762515021,"category":"library","amenity":"library","building":"yes","name":"Gertrude Kistler Memorial Library","operator:type":"public","website":"https://www.rosemont.edu/library/"},"geometry":{"type":"Polygon","coordinates":[[[-75.3302312,40.0323205],[-75.3304005,40.0323363],[-75.3303768,40.0324847],[-75.3304927,40.0324955],[-75.330473,40.0326196],[-75.3303068,40.0326041],[-75.3302406,40.0326438],[-75.3302216,40.0326252],[-75.3300809,40.0327095],[-75.3301156,40.0327435],[-75.3300306,40.0327945],[-75.3298965,40.0326633],[-75.3299746,40.0326165],[-75.3300132,40.0326543],[-75.3301612,40.0325656],[-75.3301225,40.0325277],[-75.3302062,40.0324776],[-75.3302312,40.0323205]]]}},{"type":"Feature","id":762515023,"properties":{"osmId":762515023,"category":"religious","building":"chapel","name":"Immaculate Conception Chapel"},"geometry":{"type":"Polygon","coordinates":[[[-75.3282691,40.0330455],[-75.3282153,40.0331475],[-75.3283332,40.033184],[-75.3283184,40.0332122],[-75.3284869,40.0332644],[-75.3285049,40.0332304],[-75.3286566,40.0332774],[-75.3286734,40.0332455],[-75.3287295,40.0332629],[-75.3287647,40.0331963],[-75.3287091,40.0331791],[-75.3287159,40.0331663],[-75.3285491,40.0331146],[-75.3285569,40.0331],[-75.3285122,40.0330861],[-75.3285306,40.0330512],[-75.3284646,40.0330308],[-75.3284399,40.0330775],[-75.3283835,40.03306],[-75.328374,40.033078],[-75.3282691,40.0330455]]]}},{"type":"Feature","id":762515024,"properties":{"osmId":762515024,"category":"academic","building":"university","layer":"1","name":"Main Building: Rathalla"},"geometry":{"type":"Polygon","coordinates":[[[-75.3293455,40.033273],[-75.3293885,40.0332843],[-75.3294107,40.0333171],[-75.3294111,40.0333431],[-75.3293953,40.0333561],[-75.3293376,40.033427],[-75.3294752,40.0334581],[-75.3295114,40.0334686],[-75.3294674,40.0335306],[-75.3294796,40.0335515],[-75.3294607,40.0335698],[-75.329429,40.0335745],[-75.3294059,40.0335573],[-75.3293275,40.0335352],[-75.3293023,40.0335519],[-75.32928,40.0335527],[-75.3292582,40.0335457],[-75.3292492,40.0335258],[-75.3292118,40.0335139],[-75.3291811,40.0335638],[-75.3291145,40.0335403],[-75.3291445,40.0334896],[-75.3290259,40.0334502],[-75.3289835,40.0334031],[-75.3289893,40.0333416],[-75.3290219,40.0332772],[-75.3290826,40.0332396],[-75.3291468,40.0332284],[-75.3292253,40.0332562],[-75.3293157,40.0332788],[-75.3293455,40.033273]]]}},{"type":"Feature","id":762515026,"properties":{"osmId":762515026,"category":"academic","building":"university","name":"Lawrence Hall"},"geometry":{"type":"Polygon","coordinates":[[[-75.3286408,40.0340081],[-75.3282669,40.0339169],[-75.3281626,40.0341675],[-75.3285365,40.0342587],[-75.3286408,40.0340081]]]}},{"type":"Feature","id":762515028,"properties":{"osmId":762515028,"category":"academic","building":"university","name":"Alumnae Hall"},"geometry":{"type":"Polygon","coordinates":[[[-75.3315539,40.0335413],[-75.3315975,40.0335995],[-75.331244,40.0337547],[-75.3312592,40.033775],[-75.3311318,40.033831],[-75.3312436,40.0339802],[-75.3318901,40.0336963],[-75.3317196,40.0334686],[-75.3315539,40.0335413]]]}},{"type":"Feature","id":762515029,"properties":{"osmId":762515029,"category":"academic","building":"university","name":"Cardinal Hall"},"geometry":{"type":"Polygon","coordinates":[[[-75.3306617,40.0328093],[-75.3306721,40.0328761],[-75.3307275,40.0328711],[-75.3307718,40.0331578],[-75.3311155,40.0331267],[-75.3311029,40.033045],[-75.3314502,40.0330136],[-75.3314277,40.0328679],[-75.3311887,40.0328895],[-75.3311692,40.0327634],[-75.3306617,40.0328093]]]}},{"type":"Feature","id":762515030,"properties":{"osmId":762515030,"category":"academic","building":"school","name":"Holy Child School at Rosemont"},"geometry":{"type":"Polygon","coordinates":[[[-75.3273729,40.0318625],[-75.3274797,40.0320236],[-75.3273271,40.0320829],[-75.3275077,40.0323552],[-75.3274613,40.0323732],[-75.3275165,40.0324565],[-75.3274407,40.0324859],[-75.3274775,40.0325414],[-75.3274136,40.0325662],[-75.3274333,40.0325958],[-75.3273123,40.0326428],[-75.3271105,40.0323377],[-75.3272143,40.0322974],[-75.3270989,40.0321232],[-75.3269384,40.0321854],[-75.3269817,40.0322509],[-75.3266868,40.0323653],[-75.3265963,40.0322286],[-75.3269325,40.0320982],[-75.3268825,40.0320227],[-75.3270072,40.0319742],[-75.3270233,40.0319984],[-75.3273729,40.0318625]]]}},{"type":"Feature","id":762515033,"properties":{"osmId":762515033,"category":"academic","building":"university","name":"Good Counsel Hall"},"geometry":{"type":"Polygon","coordinates":[[[-75.3287444,40.0340235],[-75.329219,40.0339991],[-75.3292356,40.034179],[-75.3287603,40.0342055],[-75.3287444,40.0340235]]]}},{"type":"Feature","id":762515034,"properties":{"osmId":762515034,"category":"academic","building":"university","name":"Mayfield Hall"},"geometry":{"type":"Polygon","coordinates":[[[-75.329411,40.0338977],[-75.3295737,40.0340534],[-75.3296624,40.0339991],[-75.3295952,40.0339348],[-75.3297519,40.0338388],[-75.3298249,40.0339086],[-75.3299269,40.0338461],[-75.3297584,40.0336849],[-75.329411,40.0338977]]]}},{"type":"Feature","id":762515722,"properties":{"osmId":762515722,"category":"academic","building":"kindergarten","name":"The West Hill School"},"geometry":{"type":"Polygon","coordinates":[[[-75.3302412,40.0312834],[-75.3304004,40.0315925],[-75.3304169,40.0315876],[-75.3304417,40.0316358],[-75.3305448,40.0316047],[-75.3305191,40.0315548],[-75.3305654,40.0315408],[-75.330514,40.031441],[-75.3306097,40.0314121],[-75.3305589,40.0313133],[-75.3304683,40.0313407],[-75.3304122,40.0312318],[-75.3302412,40.0312834]]]}},{"type":"Feature","id":837494917,"properties":{"osmId":837494917,"category":"religious","addr:housenumber":"800","addr:street":"East Lancaster Avenue","amenity":"place_of_worship","building":"church","building:colour":"#535163","building:levels":"4","building:material":"stone","check_date":"2023-06-08","denomination":"catholic","height":"30.06","name":"St. Thomas of Villanova Church","religion":"christian","roof:colour":"#0e384a","roof:height":"18.89","roof:material":"tile","roof:shape":"hipped","website":"https://www.stthomasofvillanova.org/"},"geometry":{"type":"Polygon","coordinates":[[[-75.3432423,40.0358439],[-75.3431943,40.0359889],[-75.3431232,40.0359751],[-75.3431101,40.0359857],[-75.3430849,40.0360675],[-75.3431529,40.0360811],[-75.3431498,40.0360933],[-75.3431632,40.0361374],[-75.3432075,40.0361739],[-75.3432627,40.0361833],[-75.3433253,40.0361688],[-75.343365,40.0361348],[-75.3433798,40.036089],[-75.343386,40.0360702],[-75.3434357,40.0360795],[-75.3434496,40.0360401],[-75.3433996,40.0360298],[-75.34345,40.0358858],[-75.3434725,40.0358903],[-75.3434952,40.0358228],[-75.343467,40.0358173],[-75.3434204,40.0358081],[-75.3433932,40.0358038],[-75.343395,40.0357987],[-75.3433391,40.0357876],[-75.3433367,40.0357946],[-75.3433209,40.0357915],[-75.3432706,40.0357817],[-75.3432384,40.0357754],[-75.3432172,40.035839],[-75.3432423,40.0358439]]]}},{"type":"Feature","id":864843272,"properties":{"osmId":864843272,"category":"academic","building":"yes"},"geometry":{"type":"Polygon","coordinates":[[[-75.3492356,40.0353252],[-75.3492887,40.035151],[-75.3493614,40.035164],[-75.3493767,40.0351138],[-75.3494508,40.0351271],[-75.3494978,40.0349732],[-75.3491889,40.0349179],[-75.3490734,40.0352962],[-75.3492356,40.0353252]]]}},{"type":"Feature","id":864843280,"properties":{"osmId":864843280,"category":"academic","building":"yes","name":"John and Joan Mullen Center for the Performing Arts"},"geometry":{"type":"Polygon","coordinates":[[[-75.3395863,40.0332426],[-75.339214,40.0327572],[-75.3391104,40.0327976],[-75.339084,40.0327572],[-75.3387574,40.0329038],[-75.3387802,40.0329401],[-75.3386994,40.0329777],[-75.3388276,40.0331472],[-75.3389189,40.0331095],[-75.3390665,40.0333193],[-75.3391156,40.0333448],[-75.3391912,40.0333731],[-75.3392632,40.0333811],[-75.3393176,40.0333825],[-75.3394054,40.0333704],[-75.3394651,40.0333435],[-75.3394511,40.0333085],[-75.3395863,40.0332426]]]}},{"type":"Feature","id":964696141,"properties":{"osmId":964696141,"category":"medical","addr:city":"Radnor","addr:housenumber":"145","addr:postcode":"19087","addr:state":"PA","addr:street":"King of Prussia Road","amenity":"clinic","building":"yes","healthcare":"clinic","name":"Penn Medicine Radnor","operator":"Penn Medicine"},"geometry":{"type":"Polygon","coordinates":[[[-75.3539642,40.0397488],[-75.3540809,40.0397367],[-75.3541324,40.0399098],[-75.3542685,40.0399061],[-75.3548112,40.0398912],[-75.3547865,40.0395702],[-75.35415,40.0395978],[-75.3541051,40.0393767],[-75.3549299,40.0391915],[-75.3548152,40.0388959],[-75.3538441,40.0391164],[-75.3538718,40.0391958],[-75.3538335,40.0392086],[-75.353859,40.0393213],[-75.3539642,40.0397488]]]}},{"type":"Feature","id":1032365108,"properties":{"osmId":1032365108,"category":"religious","building":"church","name":"Augustinian Province of Saint Thomas of Villanova"},"geometry":{"type":"Polygon","coordinates":[[[-75.3504483,40.0389057],[-75.3506522,40.0390781],[-75.3508989,40.0390453],[-75.350974,40.0392014],[-75.3508775,40.0392506],[-75.3509204,40.0393739],[-75.3505744,40.0394149],[-75.3504483,40.0389057]]]}},{"type":"Feature","id":1097356725,"properties":{"osmId":1097356725,"category":"academic","addr:city":"Bryn Mawr","addr:housenumber":"275","addr:postcode":"19010","addr:state":"PA","addr:street":"South Ithan Avenue","building":"school","name":"The Agnes Irwin School"},"geometry":{"type":"Polygon","coordinates":[[[-75.3508601,40.0283727],[-75.350657,40.0284612],[-75.350627,40.0284208],[-75.3506011,40.0284321],[-75.3506105,40.0284571],[-75.3500895,40.0287064],[-75.3500524,40.028661],[-75.3500104,40.0286681],[-75.3499234,40.0285576],[-75.3499754,40.0285336],[-75.349925,40.0284695],[-75.350005,40.0284326],[-75.3497909,40.0281608],[-75.3501481,40.0279958],[-75.3501808,40.0280191],[-75.3502084,40.0280095],[-75.3501628,40.0279321],[-75.3500921,40.0279565],[-75.3500641,40.0279332],[-75.3500734,40.0279118],[-75.3500321,40.0278592],[-75.3499531,40.0278956],[-75.349828,40.0277363],[-75.3499553,40.0276777],[-75.3499667,40.0276923],[-75.3500717,40.0276442],[-75.3500503,40.0276167],[-75.3503791,40.0274668],[-75.350442,40.0275478],[-75.3504187,40.0275584],[-75.3505013,40.0276652],[-75.3504302,40.0276974],[-75.350494,40.02778],[-75.3502065,40.02791],[-75.3502392,40.0279279],[-75.3504678,40.0278292],[-75.3505025,40.0278765],[-75.350276,40.0279743],[-75.3502814,40.0279816],[-75.3504284,40.0279176],[-75.3506215,40.0281779],[-75.3504773,40.0282407],[-75.350502,40.0282739],[-75.350717,40.0281802],[-75.3508601,40.0283727]]]}},{"type":"Feature","id":1372534829,"properties":{"osmId":1372534829,"category":"academic","addr:city":"Bryn Mawr","addr:state":"PA","building":"school","building:levels":"3","name":"Agnes Irwin School Lower School Building"},"geometry":{"type":"Polygon","coordinates":[[[-75.3520152,40.027377],[-75.3519599,40.0274904],[-75.3518801,40.0274643],[-75.3518423,40.0275603],[-75.3515451,40.0274733],[-75.3515397,40.0274981],[-75.3514659,40.0274792],[-75.3514558,40.0274987],[-75.3513831,40.0274812],[-75.3514006,40.027422],[-75.3513274,40.0274069],[-75.3513104,40.0274424],[-75.3512605,40.0274322],[-75.3510364,40.0273718],[-75.3510141,40.0274277],[-75.3509532,40.0274167],[-75.3509532,40.0274317],[-75.350814,40.0273932],[-75.3508231,40.0273826],[-75.3507746,40.027369],[-75.3508826,40.027109],[-75.3509511,40.027123],[-75.3509703,40.027085],[-75.3510971,40.0271213],[-75.3510782,40.0271581],[-75.3515217,40.0272758],[-75.3514962,40.0273142],[-75.3516749,40.0273643],[-75.3517266,40.0273521],[-75.3517709,40.0273604],[-75.3517908,40.0273816],[-75.3517811,40.0273963],[-75.351855,40.0274169],[-75.3518958,40.0273447],[-75.3520152,40.027377]]]}}]}