{"type":"FeatureCollection","features":[{"type":"Feature","id":31266421,"properties":{"osmId":31266421,"category":"athletic","building":"yes","created_by":"Potlatch 0.10f","layer":"1","leisure":"stadium"},"geometry":{"type":"Polygon","coordinates":[[[-80.2793707,36.1388151],[-80.2791167,36.1388253],[-80.2790721,36.1381033],[-80.2793261,36.1380931],[-80.2793707,36.1388151]]]}},{"type":"Feature","id":31267355,"properties":{"osmId":31267355,"category":"religious","addr:city":"Winston Salem","addr:housenumber":"1834","addr:postcode":"27109","addr:state":"NC","addr:street":"Wake Forest Road","amenity":"place_of_worship","building":"yes","denomination":"baptist","name":"Wait Chapel","religion":"christian","tourism":"attraction","wikidata":"Q7960384"},"geometry":{"type":"Polygon","coordinates":[[[-80.2788703,36.1349606],[-80.2786925,36.1350807],[-80.2788075,36.1351896],[-80.2787599,36.1352477],[-80.2787669,36.1353106],[-80.279019,36.1354692],[-80.279056,36.1354956],[-80.2790884,36.1354752],[-80.2792039,36.1354038],[-80.2792904,36.1353587],[-80.2792592,36.1353124],[-80.2792423,36.135281],[-80.2791329,36.1350779],[-80.2791142,36.1350691],[-80.2790743,36.1350603],[-80.2790562,36.1350563],[-80.2789865,36.1350826],[-80.2788703,36.1349606]]]}},{"type":"Feature","id":31267938,"properties":{"osmId":31267938,"category":"religious","amenity":"place_of_worship","building":"yes","building:shape":"dome","name":"First Assembly of God","name_2":"God-Dome","religion":"christian"},"geometry":{"type":"Polygon","coordinates":[[[-80.2770716,36.1413381],[-80.2768027,36.1414129],[-80.2765667,36.1413058],[-80.2764739,36.1412486],[-80.2764575,36.1412514],[-80.276438,36.1411959],[-80.2764504,36.1411928],[-80.2765029,36.1411214],[-80.2764966,36.1410956],[-80.2763755,36.1410402],[-80.2765022,36.1408447],[-80.2765147,36.1408252],[-80.2765006,36.1408028],[-80.2765486,36.1407752],[-80.2766147,36.1407292],[-80.2767681,36.1406887],[-80.2767854,36.1407415],[-80.2769495,36.1407557],[-80.2769893,36.1406953],[-80.2772432,36.1408057],[-80.2771988,36.1408653],[-80.2772285,36.1408773],[-80.2772035,36.1409141],[-80.2771749,36.1409022],[-80.277128,36.1409635],[-80.2772382,36.1410081],[-80.2772583,36.1410064],[-80.2772801,36.1410633],[-80.27726,36.1410685],[-80.2771885,36.1411656],[-80.2770716,36.1413381]]]}},{"type":"Feature","id":31269041,"properties":{"osmId":31269041,"category":"academic","building":"university","layer":"2","name":"Reynolda Hall"},"geometry":{"type":"Polygon","coordinates":[[[-80.2772751,36.1339988],[-80.277428,36.1339365],[-80.2772819,36.1337656],[-80.2773205,36.1337494],[-80.2774114,36.1336909],[-80.2774375,36.1337171],[-80.2775854,36.1336213],[-80.2775654,36.1335976],[-80.2776024,36.1335777],[-80.2776763,36.1335367],[-80.2778119,36.1336611],[-80.2779515,36.133576],[-80.2775185,36.1331105],[-80.2774468,36.1331534],[-80.276868,36.13351],[-80.2768212,36.1335391],[-80.2772751,36.1339988]]]}},{"type":"Feature","id":31270193,"properties":{"osmId":31270193,"category":"athletic","building":"yes","layer":"1","leisure":"sports_centre","name":"Reynolds Gymnasium","wikidata":"Q7319644"},"geometry":{"type":"Polygon","coordinates":[[[-80.2757484,36.1349342],[-80.2760476,36.1347525],[-80.2761431,36.1348458],[-80.2761744,36.1348279],[-80.2764436,36.1351056],[-80.2766483,36.1349753],[-80.2758489,36.1341396],[-80.2756431,36.1342711],[-80.2756921,36.1343292],[-80.2753599,36.1345279],[-80.2753973,36.1345662],[-80.275349,36.1345959],[-80.2756813,36.13492],[-80.2757163,36.1349],[-80.2757484,36.1349342]]]}},{"type":"Feature","id":31270203,"properties":{"osmId":31270203,"category":"athletic","building":"yes","leisure":"sports_centre","name":"Manchester Athletic Center"},"geometry":{"type":"Polygon","coordinates":[[[-80.2755011,36.1341453],[-80.275169,36.1343541],[-80.2746213,36.1337909],[-80.2749474,36.1335829],[-80.2752055,36.1338446],[-80.2752916,36.1337848],[-80.2754285,36.1339347],[-80.2753602,36.1339772],[-80.2755011,36.1341453]]]}},{"type":"Feature","id":31270645,"properties":{"osmId":31270645,"category":"academic","building":"university","layer":"2","name":"Scales Fine Arts Center (music)"},"geometry":{"type":"Polygon","coordinates":[[[-80.2799142,36.1340697],[-80.2801373,36.133945],[-80.280309,36.1340004],[-80.2806388,36.1338919],[-80.2807074,36.1339821],[-80.2804291,36.1341044],[-80.280618,36.1342292],[-80.2805665,36.1343678],[-80.2806523,36.134451],[-80.2804721,36.1345064],[-80.2804206,36.1344649],[-80.2802918,36.1345203],[-80.2800429,36.1342569],[-80.2801201,36.1342292],[-80.2800515,36.134139],[-80.2799142,36.1340697]]]}},{"type":"Feature","id":31270659,"properties":{"osmId":31270659,"category":"academic","building":"university","layer":"1","name":"Scales Fine Arts Center (art and theatre)"},"geometry":{"type":"Polygon","coordinates":[[[-80.2809956,36.1343747],[-80.2809355,36.134347],[-80.2807038,36.1340004],[-80.2806265,36.1338895],[-80.2806952,36.1338479],[-80.2806265,36.133737],[-80.2808154,36.1336677],[-80.2809355,36.1333835],[-80.2808755,36.1333627],[-80.2809098,36.1332448],[-80.280987,36.1331824],[-80.2811158,36.1332171],[-80.2812445,36.1331686],[-80.2813304,36.1333349],[-80.2812016,36.1333835],[-80.2811587,36.1334736],[-80.2812274,36.1335776],[-80.28109,36.1336469],[-80.2810471,36.1337231],[-80.2810729,36.1338271],[-80.2811673,36.1337994],[-80.2813046,36.1339935],[-80.2811844,36.1342846],[-80.2809956,36.1343747]]]}},{"type":"Feature","id":31270956,"properties":{"osmId":31270956,"category":"academic","building":"yes","created_by":"Potlatch 0.10f","layer":"1","name":"Greene Hall"},"geometry":{"type":"Polygon","coordinates":[[[-80.275842,36.1335509],[-80.2762847,36.1332742],[-80.2760627,36.1330425],[-80.27562,36.1333193],[-80.275842,36.1335509]]]}},{"type":"Feature","id":31270961,"properties":{"osmId":31270961,"category":"academic","building":"university","layer":"1","name":"Carswell Hall"},"geometry":{"type":"Polygon","coordinates":[[[-80.2757514,36.1330576],[-80.2756569,36.1330438],[-80.275554,36.1329675],[-80.2755969,36.132919],[-80.2755454,36.1328358],[-80.2755883,36.1328012],[-80.2755883,36.1327596],[-80.2757943,36.132614],[-80.2760775,36.1328635],[-80.2757514,36.1330576]]]}},{"type":"Feature","id":31271378,"properties":{"osmId":31271378,"category":"academic","addr:city":"Winston Salem","addr:housenumber":"1834","addr:postcode":"27109","addr:state":"NC","addr:street":"Wake Forest Road","building":"university","name":"Divinity and Religious Studies"},"geometry":{"type":"Polygon","coordinates":[[[-80.2790329,36.1356878],[-80.2788935,36.1355424],[-80.279019,36.1354692],[-80.279056,36.1354956],[-80.2790884,36.1354752],[-80.2792039,36.1354038],[-80.2792904,36.1353587],[-80.2792592,36.1353124],[-80.2793716,36.1352363],[-80.2795176,36.1353791],[-80.2794275,36.1354388],[-80.279395,36.1353965],[-80.2793211,36.1354446],[-80.2793427,36.1354723],[-80.2791876,36.1355757],[-80.2791573,36.1355518],[-80.2790852,36.135594],[-80.2791201,36.1356325],[-80.2790329,36.1356878]]]}},{"type":"Feature","id":31273208,"properties":{"osmId":31273208,"category":"residential","building":"dormitory","layer":"2","name":"Taylor Residence Hall"},"geometry":{"type":"Polygon","coordinates":[[[-80.2790449,36.1346186],[-80.2787196,36.1342951],[-80.2788818,36.1341887],[-80.2789541,36.1342606],[-80.2788814,36.1343083],[-80.2790704,36.1344962],[-80.2794413,36.1342528],[-80.2791924,36.1340055],[-80.2793012,36.1339341],[-80.2796141,36.1342453],[-80.2790449,36.1346186]]]}},{"type":"Feature","id":31273359,"properties":{"osmId":31273359,"category":"academic","addr:city":"Winston-Salem","addr:housenumber":"1850","addr:postcode":"27109","addr:state":"NC","addr:street":"Wake Forest Road","building":"university","name":"Poteat Residence Hall"},"geometry":{"type":"Polygon","coordinates":[[[-80.2777634,36.1349872],[-80.2776862,36.1348971],[-80.2778493,36.1347862],[-80.2779536,36.1348894],[-80.2781462,36.1350799],[-80.278184,36.1350581],[-80.2782474,36.1351264],[-80.2781314,36.1351974],[-80.2779405,36.135321],[-80.2776653,36.1354992],[-80.2772828,36.1351674],[-80.2775489,36.135008],[-80.2776261,36.1350912],[-80.2774802,36.1351605],[-80.277696,36.135367],[-80.277865,36.1352416],[-80.2780209,36.1351258],[-80.2780553,36.135112],[-80.2779457,36.1350042],[-80.2778579,36.1349179],[-80.2777634,36.1349872]]]}},{"type":"Feature","id":31273485,"properties":{"osmId":31273485,"category":"academic","building":"university","name":"Kitchin Residence Hall"},"geometry":{"type":"Polygon","coordinates":[[[-80.2771197,36.1347307],[-80.2769996,36.1348139],[-80.2766391,36.1344881],[-80.2769255,36.1343063],[-80.2772399,36.1341068],[-80.2773546,36.1342295],[-80.277412,36.1342909],[-80.2775202,36.1344066],[-80.2775575,36.1344465],[-80.2773772,36.1345505],[-80.2772742,36.1344465],[-80.2773515,36.134398],[-80.2773128,36.134357],[-80.2772141,36.1342524],[-80.2770086,36.1343778],[-80.2768279,36.1344881],[-80.2770253,36.1346753],[-80.277094,36.1346198],[-80.2771712,36.134703],[-80.2771197,36.1347307]]]}},{"type":"Feature","id":31273727,"properties":{"osmId":31273727,"category":"library","amenity":"library","building":"yes","library:type":"academic","name":"Z. Smith Reynolds Library","operator":"Wake Forest University","operator:type":"university","phone":"+1-336-758-4931","website":"https://zsr.wfu.edu/"},"geometry":{"type":"Polygon","coordinates":[[[-80.2777549,36.1322768],[-80.2780038,36.1321312],[-80.2780553,36.1321797],[-80.2781669,36.1321104],[-80.2781239,36.1320549],[-80.2783557,36.1319024],[-80.2781669,36.1316806],[-80.2780896,36.1317153],[-80.277978,36.1315974],[-80.2778836,36.1315627],[-80.2777634,36.1315627],[-80.2776519,36.1315905],[-80.2775489,36.1316598],[-80.2775145,36.131736],[-80.2775918,36.1318262],[-80.2774888,36.1318955],[-80.2776261,36.1320133],[-80.2775489,36.1320619],[-80.2777549,36.1322768]]]}},{"type":"Feature","id":31273898,"properties":{"osmId":31273898,"category":"academic","building":"university","name":"Salem Hall"},"geometry":{"type":"Polygon","coordinates":[[[-80.2790938,36.131431],[-80.2789393,36.1312716],[-80.2790681,36.1311815],[-80.2789136,36.1310151],[-80.2791367,36.1308764],[-80.2792483,36.1309735],[-80.279317,36.1309319],[-80.2795745,36.1311676],[-80.2794886,36.1312161],[-80.2795745,36.131334],[-80.2793599,36.1314726],[-80.2792312,36.1313548],[-80.2790938,36.131431]]]}},{"type":"Feature","id":31273921,"properties":{"osmId":31273921,"category":"academic","building":"university","name":"Winston Hall"},"geometry":{"type":"Polygon","coordinates":[[[-80.279729,36.1310844],[-80.2798577,36.1312231],[-80.280141,36.1310498],[-80.280098,36.1310151],[-80.280201,36.1309458],[-80.2802525,36.1310082],[-80.2804242,36.1308972],[-80.2802697,36.1307378],[-80.2800208,36.1308972],[-80.279729,36.1306269],[-80.2798749,36.1305229],[-80.2797719,36.130405],[-80.2796689,36.1304674],[-80.2794801,36.1304466],[-80.2794028,36.1303912],[-80.2792226,36.1304952],[-80.2793685,36.1306477],[-80.2793685,36.1307031],[-80.2794629,36.1308071],[-80.2795401,36.1307586],[-80.2796431,36.1308557],[-80.2795831,36.1309111],[-80.2796431,36.1309666],[-80.2797118,36.130925],[-80.2798234,36.131029],[-80.279729,36.1310844]]]}},{"type":"Feature","id":31273997,"properties":{"osmId":31273997,"category":"academic","building":"university","name":"Olin Physical Laboratory"},"geometry":{"type":"Polygon","coordinates":[[[-80.2786904,36.1321936],[-80.2785273,36.1320064],[-80.2789651,36.1317222],[-80.2791367,36.1318955],[-80.2786904,36.1321936]]]}},{"type":"Feature","id":31274090,"properties":{"osmId":31274090,"category":"residential","building":"dormitory","name":"Luter Residence Hall"},"geometry":{"type":"Polygon","coordinates":[[[-80.2778664,36.1309666],[-80.2776175,36.131126],[-80.2776519,36.1311607],[-80.2775231,36.1312369],[-80.2771455,36.1308279],[-80.2775317,36.1305853],[-80.2776433,36.1307031],[-80.2774545,36.1308279],[-80.2776004,36.1309804],[-80.277772,36.1308764],[-80.2778664,36.1309666]]]}},{"type":"Feature","id":31274103,"properties":{"osmId":31274103,"category":"residential","building":"dormitory","name":"Babcock Residence Hall"},"geometry":{"type":"Polygon","coordinates":[[[-80.2767163,36.1315558],[-80.2768021,36.1316321],[-80.2770253,36.1314865],[-80.277094,36.1315558],[-80.2772141,36.1314865],[-80.276785,36.1310012],[-80.276682,36.1310706],[-80.2767249,36.131126],[-80.2764417,36.1312785],[-80.2765447,36.1313825],[-80.276785,36.1312161],[-80.2768279,36.1312577],[-80.2767421,36.1313132],[-80.2768365,36.1314102],[-80.2769137,36.1313686],[-80.2769481,36.1314033],[-80.2767163,36.1315558]]]}},{"type":"Feature","id":31274120,"properties":{"osmId":31274120,"category":"residential","building":"dormitory","name":"Johnson Residence Hall"},"geometry":{"type":"Polygon","coordinates":[[[-80.2765532,36.1317915],[-80.2763472,36.1319094],[-80.2761927,36.1317291],[-80.2759953,36.131847],[-80.2757722,36.1316043],[-80.2759009,36.1315142],[-80.2760297,36.1316529],[-80.2762786,36.1315004],[-80.2765532,36.1317915]]]}},{"type":"Feature","id":31274141,"properties":{"osmId":31274141,"category":"residential","building":"dormitory","name":"Bostwick Residence Hall"},"geometry":{"type":"Polygon","coordinates":[[[-80.2756263,36.1324015],[-80.2754117,36.1325194],[-80.2753087,36.1324293],[-80.2753688,36.1323877],[-80.2752143,36.1322144],[-80.275446,36.1320549],[-80.2752915,36.1319163],[-80.2753859,36.1318608],[-80.2756434,36.1320896],[-80.2754203,36.1322213],[-80.2756263,36.1324015]]]}},{"type":"Feature","id":31274162,"properties":{"osmId":31274162,"category":"residential","building":"residential","name":"Collins Residence Hall"},"geometry":{"type":"Polygon","coordinates":[[[-80.2757378,36.1314033],[-80.2756348,36.1312855],[-80.2753945,36.131431],[-80.2752143,36.13123],[-80.2750855,36.1313132],[-80.2752658,36.1315142],[-80.275034,36.1316459],[-80.2751542,36.1317846],[-80.2757378,36.1314033]]]}},{"type":"Feature","id":31274187,"properties":{"osmId":31274187,"category":"academic","building":"university","layer":"1","name":"Benson University Center"},"geometry":{"type":"Polygon","coordinates":[[[-80.2774131,36.1329763],[-80.2774304,36.1329654],[-80.2775124,36.13305],[-80.2775657,36.1330163],[-80.2776396,36.1329696],[-80.2775961,36.1329247],[-80.2777098,36.1328528],[-80.2777225,36.132866],[-80.2777451,36.1328517],[-80.2777701,36.1328775],[-80.2778666,36.1328165],[-80.2778395,36.1327885],[-80.277861,36.1327749],[-80.277847,36.1327605],[-80.2779554,36.132692],[-80.2779999,36.1327379],[-80.2781285,36.1326566],[-80.2780482,36.1325738],[-80.2780602,36.1325663],[-80.2779802,36.1324837],[-80.2779675,36.1324917],[-80.2778827,36.1324042],[-80.2777464,36.1324904],[-80.277781,36.1325262],[-80.2776863,36.132586],[-80.2776627,36.1325617],[-80.2776392,36.1325766],[-80.2776059,36.1325423],[-80.277541,36.1325834],[-80.2775125,36.1326013],[-80.2775451,36.132635],[-80.2775203,36.1326507],[-80.2775398,36.1326708],[-80.2774221,36.1327452],[-80.2773805,36.1327022],[-80.2773065,36.132749],[-80.2772544,36.1327819],[-80.2773423,36.1328725],[-80.2773239,36.1328842],[-80.2774131,36.1329763]]]}},{"type":"Feature","id":31274201,"properties":{"osmId":31274201,"category":"academic","building":"university","layer":"1","name":"Tribble Hall"},"geometry":{"type":"Polygon","coordinates":[[[-80.2768279,36.1323946],[-80.277463,36.1319856],[-80.277197,36.1317222],[-80.2770682,36.1317984],[-80.2771712,36.1319024],[-80.2772056,36.1319371],[-80.2771473,36.1319737],[-80.2770511,36.1318886],[-80.2768107,36.1320272],[-80.2769114,36.1321219],[-80.2768193,36.1321797],[-80.276682,36.132048],[-80.2765361,36.1321381],[-80.2768279,36.1323946]]]}},{"type":"Feature","id":31274218,"properties":{"osmId":31274218,"category":"academic","building":"yes","layer":"1","name":"Polo Residence Hall"},"geometry":{"type":"Polygon","coordinates":[[[-80.281076,36.1375535],[-80.28106,36.1375405],[-80.281083,36.137522],[-80.2811004,36.1375361],[-80.2811203,36.1375219],[-80.2811844,36.1375251],[-80.2812205,36.137558],[-80.2812723,36.1375575],[-80.281272,36.1375374],[-80.281797,36.1375318],[-80.2817986,36.1376277],[-80.2813379,36.1376327],[-80.2813381,36.1376412],[-80.281296,36.1376417],[-80.2812969,36.1376959],[-80.281264,36.1376963],[-80.281269,36.1379867],[-80.2812739,36.1382988],[-80.281153,36.1383001],[-80.2811481,36.1379873],[-80.2811431,36.1376976],[-80.2811548,36.1376974],[-80.281154,36.137649],[-80.2811108,36.1376469],[-80.2810683,36.137608],[-80.2810722,36.1375562],[-80.281076,36.1375535]]]}},{"type":"Feature","id":31274283,"properties":{"osmId":31274283,"category":"academic","addr:city":"Winston Salem","addr:housenumber":"1790","addr:postcode":"27109","addr:state":"NC","addr:street":"Wake Forest Road","building":"yes","layer":"1","name":"Efird Residence Hall"},"geometry":{"type":"Polygon","coordinates":[[[-80.2790767,36.1345366],[-80.2789908,36.1345921],[-80.2790252,36.1346198],[-80.2789994,36.1348],[-80.2789651,36.1348486],[-80.2790252,36.1349109],[-80.279111,36.1348694],[-80.2791453,36.1346337],[-80.2790767,36.1345366]]]}},{"type":"Feature","id":31274329,"properties":{"osmId":31274329,"category":"academic","building":"yes","name":"Building 29"},"geometry":{"type":"Polygon","coordinates":[[[-80.2738248,36.1349578],[-80.2737149,36.1348811],[-80.2739151,36.1346941],[-80.274025,36.1347708],[-80.2738248,36.1349578]]]}},{"type":"Feature","id":31274330,"properties":{"osmId":31274330,"category":"academic","building":"yes","name":"Piccolo Hall"},"geometry":{"type":"Polygon","coordinates":[[[-80.2723138,36.1361785],[-80.2726066,36.136073],[-80.2725183,36.1359132],[-80.272575,36.1358928],[-80.2725172,36.135788],[-80.2724454,36.1358139],[-80.2723704,36.1356781],[-80.272083,36.1357816],[-80.2721746,36.1359474],[-80.2723738,36.1358756],[-80.2724116,36.1359441],[-80.2722221,36.1360123],[-80.2723138,36.1361785]]]}},{"type":"Feature","id":31274332,"properties":{"osmId":31274332,"category":"academic","building":"yes","name":"Palmer Hall"},"geometry":{"type":"Polygon","coordinates":[[[-80.272491,36.1356245],[-80.2726615,36.1355563],[-80.2726921,36.1356062],[-80.2728404,36.1355469],[-80.2728127,36.1355017],[-80.2729825,36.1354338],[-80.2729511,36.1353826],[-80.2728371,36.1351968],[-80.2726296,36.1352798],[-80.2727289,36.1354418],[-80.2726568,36.1354706],[-80.2725553,36.135305],[-80.2723464,36.1353886],[-80.272491,36.1356245]]]}},{"type":"Feature","id":31274333,"properties":{"osmId":31274333,"category":"athletic","building":"yes","created_by":"Potlatch 0.10f","leisure":"stadium","name":"Kentner Stadium","wikidata":"Q6392055"},"geometry":{"type":"Polygon","coordinates":[[[-80.2749053,36.1357844],[-80.2751113,36.1356527],[-80.2743131,36.1348416],[-80.2741242,36.1349525],[-80.2749053,36.1357844]]]}},{"type":"Feature","id":31274393,"properties":{"osmId":31274393,"category":"academic","building":"yes","name":"Worrell Professional Center (Wake Forest School of Law)"},"geometry":{"type":"Polygon","coordinates":[[[-80.2748334,36.136917],[-80.274945,36.1368477],[-80.2751253,36.1370834],[-80.2746875,36.1373121],[-80.2744901,36.1371042],[-80.2746103,36.1370557],[-80.2745073,36.136924],[-80.273958,36.1371042],[-80.274018,36.1372151],[-80.2743099,36.137118],[-80.2745159,36.1373676],[-80.2743442,36.1374646],[-80.27443,36.1376033],[-80.2746103,36.1375062],[-80.2747047,36.1376241],[-80.2748334,36.1375686],[-80.2748935,36.1376379],[-80.2753913,36.1374022],[-80.2752969,36.1373052],[-80.2754514,36.1372428],[-80.2754085,36.1371943],[-80.2755458,36.137125],[-80.2753742,36.136917],[-80.2752454,36.1369794],[-80.2750738,36.1367784],[-80.275254,36.1366883],[-80.2751596,36.1365566],[-80.2747304,36.1367922],[-80.2748334,36.136917]]]}},{"type":"Feature","id":31274395,"properties":{"osmId":31274395,"category":"other","building":"yes","man_made":"water_tower","operator":"Wake Forest University"},"geometry":{"type":"Polygon","coordinates":[[[-80.2736522,36.1376955],[-80.2736418,36.1377369],[-80.2736149,36.1377731],[-80.2735745,36.1377998],[-80.2735253,36.1378141],[-80.2734769,36.1378146],[-80.2734306,36.1378029],[-80.2733912,36.1377802],[-80.2733626,36.1377486],[-80.2733475,36.1377114],[-80.2733476,36.1376723],[-80.2733628,36.1376352],[-80.2733917,36.1376037],[-80.2734312,36.1375811],[-80.2734813,36.1375692],[-80.2735335,36.1375715],[-80.2735817,36.1375879],[-80.2736202,36.1376164],[-80.2736447,36.1376537],[-80.2736522,36.1376955]]]}},{"type":"Feature","id":31274398,"properties":{"osmId":31274398,"category":"academic","building":"yes","name":"Alumni Hall"},"geometry":{"type":"Polygon","coordinates":[[[-80.275137,36.1383075],[-80.2750083,36.1379332],[-80.275858,36.1377322],[-80.2759696,36.1377391],[-80.2760125,36.1377807],[-80.2760125,36.1378431],[-80.2759696,36.1378847],[-80.2759181,36.1379055],[-80.2759696,36.1380719],[-80.2759953,36.1381134],[-80.275137,36.1383075]]]}},{"type":"Feature","id":31274481,"properties":{"osmId":31274481,"category":"academic","addr:city":"Winston-Salem","addr:housenumber":"1840","addr:postcode":"27109","addr:state":"NC","addr:street":"Wake Forest Road","building":"yes","name":"Huffman Residence Hall"},"geometry":{"type":"Polygon","coordinates":[[[-80.2786202,36.1352229],[-80.2785968,36.1352372],[-80.2785172,36.1352859],[-80.2781945,36.1352531],[-80.2781314,36.1351974],[-80.2782474,36.1351264],[-80.2785172,36.1351674],[-80.2785316,36.1351581],[-80.2785601,36.1351397],[-80.2786202,36.1352229]]]}},{"type":"Feature","id":31307136,"properties":{"osmId":31307136,"category":"academic","access":"private","building":"school","fixme":"geometry"},"geometry":{"type":"Polygon","coordinates":[[[-80.2855851,36.1237713],[-80.2863662,36.1237366],[-80.2863662,36.1238268],[-80.2865293,36.1238198],[-80.2864692,36.1234247],[-80.2866923,36.1234108],[-80.2866923,36.1234524],[-80.2870443,36.1234385],[-80.2870099,36.1231335],[-80.2866151,36.1231681],[-80.2866065,36.1230572],[-80.2861774,36.1230711],[-80.2861516,36.1228978],[-80.2857482,36.1229047],[-80.2857568,36.1229602],[-80.2855336,36.1229671],[-80.2855422,36.1230364],[-80.2854049,36.1230434],[-80.2854221,36.1231612],[-80.285525,36.1231612],[-80.2855508,36.1233553],[-80.285465,36.12339],[-80.2852847,36.12339],[-80.2852676,36.1231751],[-80.2846925,36.1231959],[-80.2846925,36.1234039],[-80.2851817,36.12339],[-80.2853706,36.1235148],[-80.2854907,36.1235079],[-80.2856109,36.1235703],[-80.2855851,36.1237713]]]}},{"type":"Feature","id":31357646,"properties":{"osmId":31357646,"category":"academic","building":"university","name":"Admissions"},"geometry":{"type":"Polygon","coordinates":[[[-80.2832352,36.1313195],[-80.2829274,36.1313693],[-80.2828478,36.1310479],[-80.2831557,36.1309982],[-80.2832352,36.1313195]]]}},{"type":"Feature","id":31357796,"properties":{"osmId":31357796,"category":"residential","building":"dormitory","layer":"1","name":"Davis Residence Hall"},"geometry":{"type":"Polygon","coordinates":[[[-80.2783698,36.1339462],[-80.2781952,36.1337749],[-80.2780584,36.1336407],[-80.2786226,36.1332654],[-80.2787784,36.1334182],[-80.2789392,36.133576],[-80.2787994,36.133669],[-80.2786283,36.133501],[-80.2785639,36.1334379],[-80.2782969,36.1336154],[-80.278351,36.1336685],[-80.2785273,36.1338415],[-80.2783698,36.1339462]]]}},{"type":"Feature","id":31357923,"properties":{"osmId":31357923,"category":"academic","building":"yes","created_by":"Potlatch 0.10f"},"geometry":{"type":"Polygon","coordinates":[[[-80.2736144,36.1330643],[-80.2733484,36.1328216],[-80.2734599,36.1327385],[-80.2737346,36.1329741],[-80.2736144,36.1330643]]]}},{"type":"Feature","id":31357928,"properties":{"osmId":31357928,"category":"academic","building":"yes","created_by":"Potlatch 0.10f"},"geometry":{"type":"Polygon","coordinates":[[[-80.2729621,36.1321977],[-80.272696,36.1322671],[-80.2728162,36.1326137],[-80.2729106,36.1326067],[-80.2728162,36.1323572],[-80.273005,36.1322879],[-80.2729621,36.1321977]]]}},{"type":"Feature","id":31357937,"properties":{"osmId":31357937,"category":"academic","building":"yes","created_by":"Potlatch 0.10f"},"geometry":{"type":"Polygon","coordinates":[[[-80.2722154,36.1328147],[-80.2727304,36.132683],[-80.2726617,36.1324958],[-80.2723785,36.1325721],[-80.2723527,36.1326275],[-80.2721553,36.1326691],[-80.2722154,36.1328147]]]}},{"type":"Feature","id":31357944,"properties":{"osmId":31357944,"category":"academic","building":"university","name":"H.S. Moore"},"geometry":{"type":"Polygon","coordinates":[[[-80.2727765,36.1320317],[-80.2727246,36.1319036],[-80.2733476,36.1317174],[-80.2733569,36.1317354],[-80.2735696,36.1316758],[-80.2736326,36.1318293],[-80.2734882,36.1318695],[-80.273473,36.1318302],[-80.2727765,36.1320317]]]}},{"type":"Feature","id":31357949,"properties":{"osmId":31357949,"category":"academic","building":"university","name":"Facilities Shops"},"geometry":{"type":"Polygon","coordinates":[[[-80.2725764,36.1319605],[-80.2724597,36.1316988],[-80.2731132,36.1315112],[-80.2731622,36.1316209],[-80.2725813,36.1317869],[-80.2726586,36.1319382],[-80.2725764,36.1319605]]]}},{"type":"Feature","id":31358083,"properties":{"osmId":31358083,"category":"academic","building":"yes","created_by":"Potlatch 0.10f"},"geometry":{"type":"Polygon","coordinates":[[[-80.2732625,36.1328008],[-80.2731681,36.1327038],[-80.2733312,36.1326137],[-80.2733999,36.1326899],[-80.2732625,36.1328008]]]}},{"type":"Feature","id":31358088,"properties":{"osmId":31358088,"category":"academic","building":"university","name":"Central Heating Plant"},"geometry":{"type":"Polygon","coordinates":[[[-80.273351,36.1323307],[-80.2732898,36.1321876],[-80.2736034,36.1320996],[-80.2736677,36.1322443],[-80.273351,36.1323307]]]}},{"type":"Feature","id":31358144,"properties":{"osmId":31358144,"category":"academic","building":"yes","created_by":"Potlatch 0.10f"},"geometry":{"type":"Polygon","coordinates":[[[-80.2799745,36.131657],[-80.2798629,36.1316432],[-80.2798887,36.1314837],[-80.2800002,36.1314976],[-80.2799745,36.131657]]]}},{"type":"Feature","id":31363532,"properties":{"osmId":31363532,"category":"academic","building":"yes","created_by":"Potlatch 0.10f"},"geometry":{"type":"Polygon","coordinates":[[[-80.2784395,36.1375068],[-80.2781906,36.1375137],[-80.2781992,36.1377147],[-80.2784395,36.1377147],[-80.2784395,36.1375068]]]}},{"type":"Feature","id":31363572,"properties":{"osmId":31363572,"category":"academic","building":"yes","created_by":"Potlatch 0.10f"},"geometry":{"type":"Polygon","coordinates":[[[-80.2768603,36.137992],[-80.2765169,36.1380682],[-80.2764225,36.1378395],[-80.2768002,36.1377494],[-80.2768603,36.137992]]]}},{"type":"Feature","id":31363596,"properties":{"osmId":31363596,"category":"academic","building":"yes","created_by":"Potlatch 0.10f"},"geometry":{"type":"Polygon","coordinates":[[[-80.2761537,36.1390436],[-80.2761118,36.1385515],[-80.2762718,36.1385293],[-80.2762856,36.1390178],[-80.2761537,36.1390436]]]}},{"type":"Feature","id":31363618,"properties":{"osmId":31363618,"category":"academic","building":"yes","created_by":"Potlatch 0.10f"},"geometry":{"type":"Polygon","coordinates":[[[-80.2751522,36.1392674],[-80.2748862,36.1392951],[-80.2749205,36.1394199],[-80.2751522,36.1394199],[-80.2751522,36.1392674]]]}},{"type":"Feature","id":31363629,"properties":{"osmId":31363629,"category":"academic","building":"yes","created_by":"Potlatch 0.10f"},"geometry":{"type":"Polygon","coordinates":[[[-80.2756369,36.1386691],[-80.2754672,36.138696],[-80.2757187,36.1391426],[-80.2758761,36.1391136],[-80.2756369,36.1386691]]]}},{"type":"Feature","id":31363632,"properties":{"osmId":31363632,"category":"academic","building":"yes","created_by":"Potlatch 0.10f"},"geometry":{"type":"Polygon","coordinates":[[[-80.2753129,36.1387464],[-80.275113,36.1387788],[-80.2751924,36.1392663],[-80.275351,36.1392287],[-80.2753129,36.1387464]]]}},{"type":"Feature","id":31363641,"properties":{"osmId":31363641,"category":"academic","building":"yes","created_by":"Potlatch 0.10f"},"geometry":{"type":"Polygon","coordinates":[[[-80.2746745,36.1388068],[-80.2744913,36.1388376],[-80.274707,36.1392764],[-80.2748826,36.1392504],[-80.2746745,36.1388068]]]}},{"type":"Feature","id":31363702,"properties":{"osmId":31363702,"category":"academic","building":"school","name":"Winston-Salem Christian School","religion":"christian","website":"https://wsfirst.com/"},"geometry":{"type":"Polygon","coordinates":[[[-80.2771269,36.1420209],[-80.2773017,36.141948],[-80.2773283,36.1419485],[-80.2774034,36.1419208],[-80.2775795,36.1419585],[-80.2775893,36.1418652],[-80.2776983,36.1418623],[-80.277702,36.1419585],[-80.2780352,36.1418178],[-80.2781888,36.1419315],[-80.2780739,36.1422423],[-80.2780351,36.1422326],[-80.2780193,36.1422795],[-80.2779901,36.1422743],[-80.2779191,36.1424931],[-80.277891,36.1424887],[-80.2778479,36.1425893],[-80.2777218,36.1427021],[-80.2776476,36.1427492],[-80.2775781,36.1427757],[-80.2773094,36.1423729],[-80.2772814,36.1423835],[-80.2772354,36.1423188],[-80.277298,36.1422857],[-80.2771269,36.1420209]]]}},{"type":"Feature","id":242376006,"properties":{"osmId":242376006,"category":"academic","building":"commercial","name":"Farrell Hall"},"geometry":{"type":"Polygon","coordinates":[[[-80.2781549,36.136302],[-80.2777515,36.1365474],[-80.2777515,36.1365854],[-80.2777316,36.1365927],[-80.2777623,36.1371055],[-80.2777822,36.137107],[-80.2777985,36.1371435],[-80.2782038,36.1373261],[-80.2783449,36.1371333],[-80.2782237,36.1370719],[-80.2782472,36.137031],[-80.2782653,36.1369696],[-80.2782761,36.1368995],[-80.2782761,36.1368104],[-80.2782562,36.1367081],[-80.2782259,36.1366236],[-80.2781712,36.1365319],[-80.278295,36.1364568],[-80.2781549,36.136302]]]}},{"type":"Feature","id":252368931,"properties":{"osmId":252368931,"category":"residential","building":"dormitory","name":"South Residence Hall"},"geometry":{"type":"Polygon","coordinates":[[[-80.2763234,36.131072],[-80.2764291,36.1309997],[-80.2762034,36.13076],[-80.2758619,36.1309981],[-80.2757542,36.1309209],[-80.2756404,36.1309997],[-80.2759148,36.131292],[-80.2760307,36.1312066],[-80.2759453,36.1310966],[-80.2762055,36.1309472],[-80.2763234,36.131072]]]}},{"type":"Feature","id":255425784,"properties":{"osmId":255425784,"category":"academic","building":"yes","name":"Manchester Hall (Mathematics and Computer Science)"},"geometry":{"type":"Polygon","coordinates":[[[-80.276642,36.13361],[-80.2767614,36.1335309],[-80.2766735,36.1334443],[-80.2767005,36.1334265],[-80.2766175,36.1333448],[-80.2765974,36.1333581],[-80.2765077,36.1332698],[-80.2763814,36.1333535],[-80.2764288,36.1334002],[-80.2763175,36.1334732],[-80.2764837,36.1336378],[-80.2765952,36.1335639],[-80.276642,36.13361]]]}},{"type":"Feature","id":255425785,"properties":{"osmId":255425785,"category":"academic","building":"yes","name":"Calloway Hall"},"geometry":{"type":"Polygon","coordinates":[[[-80.2765139,36.1336767],[-80.2763175,36.1334732],[-80.2761045,36.1336073],[-80.2760573,36.1335584],[-80.2759236,36.1336426],[-80.2759844,36.1337056],[-80.2760202,36.133683],[-80.2760824,36.1337474],[-80.2761463,36.1338136],[-80.276113,36.1338345],[-80.2761877,36.1339119],[-80.2763301,36.1338222],[-80.2762827,36.1337731],[-80.2764075,36.1336946],[-80.276437,36.1337252],[-80.2765139,36.1336767]]]}},{"type":"Feature","id":255425789,"properties":{"osmId":255425789,"category":"academic","building":"yes","name":"The University Activities Center"},"geometry":{"type":"Polygon","coordinates":[[[-80.2709653,36.1349429],[-80.2710097,36.1347689],[-80.2709277,36.1347574],[-80.2709398,36.1347252],[-80.2707655,36.1346939],[-80.2707558,36.1347309],[-80.2706953,36.134722],[-80.2706524,36.1348987],[-80.2709653,36.1349429]]]}},{"type":"Feature","id":255427051,"properties":{"osmId":255427051,"category":"academic","building":"yes","name":"Sundry","shop":"convenience"},"geometry":{"type":"Polygon","coordinates":[[[-80.2775124,36.13305],[-80.2774304,36.1329654],[-80.2774837,36.1329317],[-80.2775657,36.1330163],[-80.2775124,36.13305]]]}},{"type":"Feature","id":255427053,"properties":{"osmId":255427053,"category":"dining","amenity":"restaurant","building":"yes","name":"Shorty's"},"geometry":{"type":"Polygon","coordinates":[[[-80.2773423,36.1328725],[-80.2773944,36.1328396],[-80.2773065,36.132749],[-80.2772544,36.1327819],[-80.2773423,36.1328725]]]}},{"type":"Feature","id":255427054,"properties":{"osmId":255427054,"category":"dining","addr:city":"Winston Salem","addr:housenumber":"The","addr:postcode":"27109","addr:state":"NC","addr:street":"Quad Reynolda Road","amenity":"fast_food","brand":"Subway","brand:wikidata":"Q244457","building":"yes","cuisine":"sandwich","name":"Subway","phone":"+1 336-758-4245","takeaway":"yes","website":"https://restaurants.subway.com/united-states/nc/winston-salem/the-quad-@-reynolda-rd"},"geometry":{"type":"Polygon","coordinates":[[[-80.2781796,36.1336996],[-80.278242,36.1336586],[-80.2783495,36.1337653],[-80.2782804,36.1338055],[-80.2781796,36.1336996]]]}},{"type":"Feature","id":255427055,"properties":{"osmId":255427055,"category":"academic","building":"yes","name":"Food Mart","shop":"convenience"},"geometry":{"type":"Polygon","coordinates":[[[-80.2782804,36.1338055],[-80.2783495,36.1337653],[-80.2784292,36.1338547],[-80.2783601,36.1338949],[-80.2782804,36.1338055]]]}},{"type":"Feature","id":255427058,"properties":{"osmId":255427058,"category":"dining","amenity":"restaurant","building":"yes","name":"Zick's"},"geometry":{"type":"Polygon","coordinates":[[[-80.278184,36.1350581],[-80.2781462,36.1350799],[-80.2779536,36.1348894],[-80.2780034,36.1348754],[-80.2780644,36.1349371],[-80.278184,36.1350581]]]}},{"type":"Feature","id":546407819,"properties":{"osmId":546407819,"category":"residential","building":"dormitory","name":"Dogwood Residence Hall"},"geometry":{"type":"Polygon","coordinates":[[[-80.2809521,36.1370334],[-80.280826,36.1371027],[-80.2806501,36.1369297],[-80.2807724,36.1368536],[-80.2804908,36.1365438],[-80.2806919,36.1364203],[-80.2806651,36.1363813],[-80.2807938,36.136299],[-80.2809467,36.1364812],[-80.2807858,36.1365633],[-80.2809736,36.1367864],[-80.2810631,36.1367416],[-80.2811452,36.1368536],[-80.2809172,36.13699],[-80.2809521,36.1370334]]]}},{"type":"Feature","id":546407821,"properties":{"osmId":546407821,"category":"residential","building":"dormitory","name":"Magnolia Residence Hall"},"geometry":{"type":"Polygon","coordinates":[[[-80.2805739,36.1371157],[-80.2804425,36.1371936],[-80.2804183,36.1371568],[-80.280185,36.1372803],[-80.2800965,36.1371763],[-80.2801528,36.1371417],[-80.279957,36.136925],[-80.2797987,36.1370204],[-80.2796459,36.1368492],[-80.2797773,36.1367734],[-80.2798095,36.1368037],[-80.280016,36.1366911],[-80.2802976,36.1370074],[-80.2804183,36.1369359],[-80.2804946,36.137024],[-80.2805739,36.1371157]]]}},{"type":"Feature","id":546407823,"properties":{"osmId":546407823,"category":"academic","building":"university","name":"North Campus Dining Hall"},"geometry":{"type":"Polygon","coordinates":[[[-80.2797975,36.1371781],[-80.279546,36.1369012],[-80.2795054,36.1369217],[-80.2794622,36.1368519],[-80.2792971,36.1369484],[-80.279325,36.1369791],[-80.279199,36.1370538],[-80.2793301,36.1372171],[-80.2794165,36.1371658],[-80.2795486,36.1373177],[-80.2797975,36.1371781]]]}},{"type":"Feature","id":1124036974,"properties":{"osmId":1124036974,"category":"residential","addr:housename":"North Campus Apartment 1","building":"residential","name":"North Campus Apartment 1","source":"microsoft/BuildingFootprints"},"geometry":{"type":"Polygon","coordinates":[[[-80.2821411,36.1333752],[-80.2822027,36.1333767],[-80.2822042,36.1333378],[-80.2822847,36.1333398],[-80.2822843,36.1333484],[-80.2824157,36.1333517],[-80.2824143,36.1333885],[-80.28248,36.1333901],[-80.2824864,36.1332213],[-80.2824288,36.1332198],[-80.2824277,36.133248],[-80.2822883,36.1332445],[-80.2822881,36.1332488],[-80.2822077,36.1332468],[-80.2822092,36.1332068],[-80.2821476,36.1332053],[-80.2821411,36.1333752]]]}},{"type":"Feature","id":1124036975,"properties":{"osmId":1124036975,"category":"residential","addr:housename":"North Campus Apartment 2","building":"residential","name":"North Campus Apartment 2","source":"microsoft/BuildingFootprints"},"geometry":{"type":"Polygon","coordinates":[[[-80.2823808,36.1335282],[-80.2823784,36.133604],[-80.2823998,36.1336044],[-80.2823973,36.1336856],[-80.2825152,36.133688],[-80.2825226,36.133451],[-80.2824074,36.1334486],[-80.2824049,36.1335287],[-80.2823808,36.1335282]]]}},{"type":"Feature","id":1124036976,"properties":{"osmId":1124036976,"category":"residential","addr:housename":"North Campus Apartment 3","building":"residential","name":"North Campus Apartment 3","source":"microsoft/BuildingFootprints"},"geometry":{"type":"Polygon","coordinates":[[[-80.2824599,36.1337505],[-80.2823996,36.1337497],[-80.282399,36.1337811],[-80.2822676,36.1337793],[-80.2822675,36.1337847],[-80.282183,36.1337835],[-80.2821839,36.1337423],[-80.2821236,36.1337415],[-80.2821199,36.1339104],[-80.2821789,36.1339112],[-80.2821796,36.1338787],[-80.2823123,36.1338806],[-80.2823124,36.1338752],[-80.2823955,36.1338764],[-80.2823946,36.1339186],[-80.2824563,36.1339195],[-80.2824599,36.1337505]]]}},{"type":"Feature","id":1124036977,"properties":{"osmId":1124036977,"category":"residential","addr:housename":"North Campus Apartment 4","building":"residential","name":"North Campus Apartment 4","source":"microsoft/BuildingFootprints"},"geometry":{"type":"Polygon","coordinates":[[[-80.2824995,36.1339856],[-80.2823842,36.1339833],[-80.2823819,36.134059],[-80.2823605,36.1340586],[-80.282358,36.1341387],[-80.2823794,36.1341392],[-80.282377,36.1342182],[-80.2824923,36.1342205],[-80.2824995,36.1339856]]]}},{"type":"Feature","id":1124036978,"properties":{"osmId":1124036978,"category":"residential","addr:housename":"North Campus Apartment 5","building":"residential","name":"North Campus Apartment 5","source":"microsoft/BuildingFootprints"},"geometry":{"type":"Polygon","coordinates":[[[-80.2824394,36.1342838],[-80.2823778,36.1342823],[-80.2823764,36.1343213],[-80.2822933,36.1343193],[-80.2822935,36.1343138],[-80.2821595,36.1343106],[-80.2821607,36.1342792],[-80.2821017,36.1342778],[-80.2820955,36.1344466],[-80.2821571,36.1344481],[-80.2821587,36.1344059],[-80.2822444,36.134408],[-80.2822434,36.1344228],[-80.2822847,36.1344237],[-80.2822849,36.1344121],[-80.2823701,36.1344128],[-80.2823703,36.1344522],[-80.2824332,36.1344537],[-80.2824394,36.1342838]]]}},{"type":"Feature","id":1124036979,"properties":{"osmId":1124036979,"category":"residential","addr:housename":"North Campus Apartment 6","building":"residential","name":"North Campus Apartment 6","source":"microsoft/BuildingFootprints"},"geometry":{"type":"Polygon","coordinates":[[[-80.2824207,36.1346771],[-80.2823617,36.1346767],[-80.2823613,36.1347113],[-80.2821187,36.1347094],[-80.2821176,36.1348036],[-80.2823575,36.1348055],[-80.282357,36.1348467],[-80.2824186,36.1348472],[-80.2824207,36.1346771]]]}},{"type":"Feature","id":1124036980,"properties":{"osmId":1124036980,"category":"residential","building":"residential","name":"North Campus Apartment 7","source":"microsoft/BuildingFootprints"},"geometry":{"type":"Polygon","coordinates":[[[-80.2824591,36.1349135],[-80.2823653,36.134912],[-80.2823632,36.1349943],[-80.282315,36.1349935],[-80.2823131,36.1350671],[-80.2823399,36.1350675],[-80.2823379,36.1351476],[-80.2824532,36.1351495],[-80.2824591,36.1349135]]]}},{"type":"Feature","id":1124036981,"properties":{"osmId":1124036981,"category":"residential","building":"residential","name":"North Campus Apartment 9","source":"microsoft/BuildingFootprints"},"geometry":{"type":"Polygon","coordinates":[[[-80.2823042,36.1356798],[-80.2824302,36.135682],[-80.2824363,36.135446],[-80.282321,36.135444],[-80.282319,36.135522],[-80.2823083,36.1355218],[-80.2823042,36.1356798]]]}},{"type":"Feature","id":1124036982,"properties":{"osmId":1124036982,"category":"residential","building":"residential","name":"North Campus Apartment 8","source":"microsoft/BuildingFootprints"},"geometry":{"type":"Polygon","coordinates":[[[-80.2820529,36.1352474],[-80.2820515,36.135372],[-80.2821185,36.1353725],[-80.282119,36.1353335],[-80.2822006,36.1353341],[-80.2822004,36.1353525],[-80.2822475,36.1353528],[-80.2822477,36.1353388],[-80.282332,36.1353394],[-80.2823315,36.1353816],[-80.2823959,36.1353821],[-80.2823978,36.135211],[-80.2823377,36.1352105],[-80.2823372,36.1352495],[-80.2820529,36.1352474]]]}},{"type":"Feature","id":1124037305,"properties":{"osmId":1124037305,"category":"residential","addr:housename":"North Campus Apartment 10","building":"residential","name":"North Campus Apartment 10","source":"microsoft/BuildingFootprints","wheelchair":"limited"},"geometry":{"type":"Polygon","coordinates":[[[-80.282376,36.1357448],[-80.2823155,36.1357437],[-80.2823144,36.1357816],[-80.2822302,36.1357801],[-80.2822304,36.1357725],[-80.2820653,36.1357696],[-80.2820627,36.1358659],[-80.2823093,36.1358703],[-80.2823082,36.1359125],[-80.2823714,36.1359137],[-80.282376,36.1357448]]]}},{"type":"Feature","id":1124037306,"properties":{"osmId":1124037306,"category":"academic","building":"yes","source":"microsoft/BuildingFootprints"},"geometry":{"type":"Polygon","coordinates":[[[-80.2823599,36.1380825],[-80.2820553,36.138088],[-80.2820569,36.1381475],[-80.2820935,36.1381469],[-80.2820944,36.1381815],[-80.2823759,36.1381764],[-80.2823745,36.1381245],[-80.2824388,36.1381233],[-80.2824381,36.1380952],[-80.2824783,36.1380945],[-80.282469,36.1377567],[-80.2824315,36.1377574],[-80.2824307,36.1377292],[-80.282369,36.1377303],[-80.2823675,36.1376762],[-80.2820861,36.1376813],[-80.2820869,36.1377116],[-80.2820494,36.1377122],[-80.2820511,36.1377772],[-80.2823514,36.1377718],[-80.2823599,36.1380825]]]}},{"type":"Feature","id":1124037307,"properties":{"osmId":1124037307,"category":"academic","building":"yes","source":"microsoft/BuildingFootprints"},"geometry":{"type":"Polygon","coordinates":[[[-80.28234,36.1371352],[-80.2823467,36.1374481],[-80.2820446,36.1374523],[-80.2820459,36.137513],[-80.2820825,36.1375125],[-80.2820832,36.1375471],[-80.2823648,36.1375432],[-80.2823636,36.1374901],[-80.282429,36.1374892],[-80.2824283,36.1374589],[-80.2824649,36.1374584],[-80.2824578,36.1371228],[-80.2824186,36.1371233],[-80.2824179,36.1370919],[-80.2823579,36.1370927],[-80.2823569,36.1370451],[-80.2820378,36.1370495],[-80.2820397,36.1371394],[-80.28234,36.1371352]]]}},{"type":"Feature","id":1124037308,"properties":{"osmId":1124037308,"category":"academic","building":"yes","source":"microsoft/BuildingFootprints"},"geometry":{"type":"Polygon","coordinates":[[[-80.2823542,36.1376345],[-80.2824803,36.1376326],[-80.2824792,36.1375828],[-80.2823531,36.1375847],[-80.2823542,36.1376345]]]}},{"type":"Feature","id":1124037309,"properties":{"osmId":1124037309,"category":"academic","building":"yes","source":"microsoft/BuildingFootprints"},"geometry":{"type":"Polygon","coordinates":[[[-80.2821214,36.137986],[-80.2822421,36.1379847],[-80.2822402,36.1378732],[-80.2821195,36.1378745],[-80.2821214,36.137986]]]}},{"type":"Feature","id":1124037310,"properties":{"osmId":1124037310,"category":"academic","building":"yes","source":"microsoft/BuildingFootprints"},"geometry":{"type":"Polygon","coordinates":[[[-80.2830251,36.1379698],[-80.2830151,36.1381764],[-80.2829639,36.1381748],[-80.2829597,36.1382605],[-80.2830101,36.1382621],[-80.2830096,36.1382719],[-80.2830972,36.1382747],[-80.2830999,36.1382203],[-80.2831296,36.1382212],[-80.2831315,36.1381812],[-80.2830951,36.13818],[-80.2830966,36.1381482],[-80.2831225,36.138149],[-80.2831232,36.1381346],[-80.2831241,36.1381166],[-80.2830963,36.1381157],[-80.2830978,36.1380849],[-80.283134,36.138086],[-80.2831394,36.1379734],[-80.2830251,36.1379698]]]}},{"type":"Feature","id":1124037311,"properties":{"osmId":1124037311,"category":"academic","building":"yes","source":"microsoft/BuildingFootprints"},"geometry":{"type":"Polygon","coordinates":[[[-80.2831473,36.1378403],[-80.2830537,36.1378364],[-80.2830482,36.1379217],[-80.2831419,36.1379256],[-80.2831473,36.1378403]]]}},{"type":"Feature","id":1124037312,"properties":{"osmId":1124037312,"category":"academic","building":"yes","source":"microsoft/BuildingFootprints"},"geometry":{"type":"Polygon","coordinates":[[[-80.2830379,36.1376831],[-80.2830338,36.137775],[-80.2831704,36.137779],[-80.2831745,36.1376871],[-80.2830379,36.1376831]]]}},{"type":"Feature","id":1124037313,"properties":{"osmId":1124037313,"category":"academic","building":"yes","source":"microsoft/BuildingFootprints"},"geometry":{"type":"Polygon","coordinates":[[[-80.283074,36.137435],[-80.2831625,36.1374342],[-80.2831612,36.1373411],[-80.2830727,36.1373419],[-80.283074,36.137435]]]}},{"type":"Feature","id":1124037314,"properties":{"osmId":1124037314,"category":"academic","building":"yes","source":"microsoft/BuildingFootprints"},"geometry":{"type":"Polygon","coordinates":[[[-80.2831704,36.1371972],[-80.2830123,36.1371935],[-80.2830091,36.1372812],[-80.2831672,36.1372849],[-80.2831704,36.1371972]]]}},{"type":"Feature","id":1124037315,"properties":{"osmId":1124037315,"category":"academic","building":"yes","source":"microsoft/BuildingFootprints"},"geometry":{"type":"Polygon","coordinates":[[[-80.2830636,36.1371167],[-80.2831746,36.1371158],[-80.2831727,36.1369728],[-80.2830429,36.136974],[-80.2830437,36.1370303],[-80.2830624,36.1370301],[-80.2830636,36.1371167]]]}},{"type":"Feature","id":1124037316,"properties":{"osmId":1124037316,"category":"academic","building":"yes","source":"microsoft/BuildingFootprints"},"geometry":{"type":"Polygon","coordinates":[[[-80.282885,36.1371486],[-80.2828233,36.1371478],[-80.2828222,36.1372019],[-80.2828839,36.1372027],[-80.282885,36.1371486]]]}},{"type":"Feature","id":1124037317,"properties":{"osmId":1124037317,"category":"academic","building":"yes","source":"microsoft/BuildingFootprints"},"geometry":{"type":"Polygon","coordinates":[[[-80.2816354,36.1383042],[-80.2815067,36.1383068],[-80.2815115,36.1384648],[-80.2813641,36.1384677],[-80.2813669,36.1385586],[-80.2814339,36.1385573],[-80.2814343,36.1385725],[-80.2816515,36.1385681],[-80.2816515,36.1385703],[-80.2820402,36.1385626],[-80.2820371,36.1384609],[-80.2818897,36.1384638],[-80.2818847,36.1383014],[-80.2817588,36.1383039],[-80.2817632,36.138449],[-80.2816931,36.1384504],[-80.2816399,36.1384514],[-80.2816354,36.1383042]]]}},{"type":"Feature","id":1124037318,"properties":{"osmId":1124037318,"category":"academic","building":"yes","source":"microsoft/BuildingFootprints"},"geometry":{"type":"Polygon","coordinates":[[[-80.2827276,36.1387206],[-80.2830064,36.1386839],[-80.2829869,36.1385875],[-80.2827081,36.1386243],[-80.2827276,36.1387206]]]}},{"type":"Feature","id":1124037358,"properties":{"osmId":1124037358,"category":"academic","building":"yes","source":"microsoft/BuildingFootprints"},"geometry":{"type":"Polygon","coordinates":[[[-80.2744154,36.137936],[-80.2743184,36.1378225],[-80.274088,36.137951],[-80.274185,36.1380645],[-80.2744154,36.137936]]]}},{"type":"Feature","id":1124039054,"properties":{"osmId":1124039054,"category":"academic","building":"yes","source":"microsoft/BuildingFootprints"},"geometry":{"type":"Polygon","coordinates":[[[-80.2769897,36.1391973],[-80.2770324,36.1393229],[-80.277202,36.1392854],[-80.2771699,36.1391907],[-80.2770651,36.1392139],[-80.2770546,36.1391829],[-80.2769897,36.1391973]]]}},{"type":"Feature","id":1124039055,"properties":{"osmId":1124039055,"category":"academic","building":"yes","source":"microsoft/BuildingFootprints"},"geometry":{"type":"Polygon","coordinates":[[[-80.2769302,36.1393535],[-80.2768986,36.1392585],[-80.2768085,36.139278],[-80.2767891,36.1392194],[-80.276689,36.1392411],[-80.27674,36.1393947],[-80.2769302,36.1393535]]]}},{"type":"Feature","id":1124039056,"properties":{"osmId":1124039056,"category":"academic","building":"yes","source":"microsoft/BuildingFootprints"},"geometry":{"type":"Polygon","coordinates":[[[-80.27662,36.1393348],[-80.2764154,36.139378],[-80.2764504,36.1394862],[-80.2766551,36.1394429],[-80.27662,36.1393348]]]}},{"type":"Feature","id":1124039057,"properties":{"osmId":1124039057,"category":"academic","building":"yes","source":"microsoft/BuildingFootprints"},"geometry":{"type":"Polygon","coordinates":[[[-80.2763526,36.1394215],[-80.2761337,36.1394596],[-80.2761586,36.1395528],[-80.2763775,36.1395146],[-80.2763526,36.1394215]]]}},{"type":"Feature","id":1124039058,"properties":{"osmId":1124039058,"category":"academic","building":"yes","source":"microsoft/BuildingFootprints"},"geometry":{"type":"Polygon","coordinates":[[[-80.2759847,36.1394506],[-80.2758523,36.1394701],[-80.275876,36.1395749],[-80.2758526,36.1395783],[-80.2758628,36.1396236],[-80.2760186,36.1396007],[-80.2759847,36.1394506]]]}},{"type":"Feature","id":1124039059,"properties":{"osmId":1124039059,"category":"academic","building":"yes","source":"microsoft/BuildingFootprints"},"geometry":{"type":"Polygon","coordinates":[[[-80.2755475,36.1394486],[-80.2754472,36.1394654],[-80.2754739,36.1395692],[-80.2754611,36.1395714],[-80.2754819,36.1396524],[-80.2756593,36.1396226],[-80.275643,36.139559],[-80.2756121,36.1395642],[-80.2756012,36.1395219],[-80.2755678,36.1395275],[-80.2755475,36.1394486]]]}},{"type":"Feature","id":1150500463,"properties":{"osmId":1150500463,"category":"academic","building":"yes","source":"microsoft/BuildingFootprints"},"geometry":{"type":"Polygon","coordinates":[[[-80.2661605,36.132742],[-80.2659671,36.1328338],[-80.266028,36.1329175],[-80.2662214,36.1328257],[-80.2661605,36.132742]]]}},{"type":"Feature","id":1150500464,"properties":{"osmId":1150500464,"category":"academic","building":"yes","source":"microsoft/BuildingFootprints"},"geometry":{"type":"Polygon","coordinates":[[[-80.2662199,36.1326711],[-80.2663022,36.1327565],[-80.2664625,36.1326557],[-80.2664465,36.132639],[-80.2664815,36.132617],[-80.2664152,36.1325482],[-80.2662199,36.1326711]]]}},{"type":"Feature","id":1150500465,"properties":{"osmId":1150500465,"category":"academic","building":"yes","source":"microsoft/BuildingFootprints"},"geometry":{"type":"Polygon","coordinates":[[[-80.2669108,36.1322225],[-80.2668623,36.1322492],[-80.266894,36.1322867],[-80.266776,36.1323518],[-80.2668392,36.1324266],[-80.2670496,36.1323106],[-80.2669826,36.1322314],[-80.2669387,36.1322556],[-80.2669108,36.1322225]]]}},{"type":"Feature","id":1150500466,"properties":{"osmId":1150500466,"category":"academic","building":"yes","source":"microsoft/BuildingFootprints"},"geometry":{"type":"Polygon","coordinates":[[[-80.2665157,36.1325166],[-80.2665673,36.1325804],[-80.2667543,36.1324817],[-80.2666921,36.1324048],[-80.2666113,36.1324475],[-80.2665961,36.1324287],[-80.2665238,36.1324669],[-80.2665496,36.1324987],[-80.2665157,36.1325166]]]}},{"type":"Feature","id":1150500467,"properties":{"osmId":1150500467,"category":"academic","building":"yes","source":"microsoft/BuildingFootprints"},"geometry":{"type":"Polygon","coordinates":[[[-80.2671774,36.133315],[-80.2672585,36.1333584],[-80.2673808,36.1332095],[-80.2672997,36.1331661],[-80.2671774,36.133315]]]}},{"type":"Feature","id":1150500468,"properties":{"osmId":1150500468,"category":"academic","building":"yes","source":"microsoft/BuildingFootprints"},"geometry":{"type":"Polygon","coordinates":[[[-80.2672742,36.1330141],[-80.2674551,36.1330661],[-80.2675017,36.1329604],[-80.2673209,36.1329083],[-80.2672742,36.1330141]]]}},{"type":"Feature","id":1150500469,"properties":{"osmId":1150500469,"category":"academic","building":"yes","source":"microsoft/BuildingFootprints"},"geometry":{"type":"Polygon","coordinates":[[[-80.2676869,36.1326497],[-80.2675741,36.1325918],[-80.2674872,36.1327024],[-80.2676191,36.13277],[-80.2676057,36.132787],[-80.2676726,36.1328213],[-80.2677345,36.1327426],[-80.2676485,36.1326985],[-80.2676869,36.1326497]]]}},{"type":"Feature","id":1150500470,"properties":{"osmId":1150500470,"category":"academic","building":"yes","source":"microsoft/BuildingFootprints"},"geometry":{"type":"Polygon","coordinates":[[[-80.2677192,36.1325474],[-80.267828,36.1326588],[-80.2679752,36.1325651],[-80.2678703,36.1324577],[-80.2678852,36.1324482],[-80.2678322,36.132394],[-80.2677686,36.1324345],[-80.2678177,36.1324847],[-80.2677192,36.1325474]]]}},{"type":"Feature","id":1150500471,"properties":{"osmId":1150500471,"category":"academic","building":"yes","source":"microsoft/BuildingFootprints"},"geometry":{"type":"Polygon","coordinates":[[[-80.2682374,36.1324471],[-80.2681924,36.1323983],[-80.2682787,36.1323464],[-80.2681952,36.1322558],[-80.2680648,36.1323342],[-80.268052,36.1323203],[-80.2679683,36.1323705],[-80.2680711,36.1324821],[-80.268141,36.1324401],[-80.2681795,36.1324819],[-80.2682374,36.1324471]]]}},{"type":"Feature","id":1150500472,"properties":{"osmId":1150500472,"category":"academic","building":"yes","source":"microsoft/BuildingFootprints"},"geometry":{"type":"Polygon","coordinates":[[[-80.2672226,36.1320398],[-80.2670955,36.1321107],[-80.2671055,36.1321224],[-80.2670311,36.132164],[-80.2671051,36.1322505],[-80.2673066,36.1321381],[-80.2672226,36.1320398]]]}},{"type":"Feature","id":1150500473,"properties":{"osmId":1150500473,"category":"academic","building":"yes","source":"microsoft/BuildingFootprints"},"geometry":{"type":"Polygon","coordinates":[[[-80.2675937,36.1319696],[-80.2674811,36.1318255],[-80.2673948,36.1318695],[-80.2673935,36.1318679],[-80.2673061,36.1319124],[-80.2673638,36.1319862],[-80.2673149,36.1320111],[-80.2673711,36.132083],[-80.2675937,36.1319696]]]}},{"type":"Feature","id":1150500474,"properties":{"osmId":1150500474,"category":"academic","building":"yes","source":"microsoft/BuildingFootprints"},"geometry":{"type":"Polygon","coordinates":[[[-80.2677282,36.1316808],[-80.2676224,36.131754],[-80.2676052,36.1317378],[-80.2675233,36.1317946],[-80.267624,36.1318894],[-80.2678117,36.1317594],[-80.2677282,36.1316808]]]}},{"type":"Feature","id":1150500475,"properties":{"osmId":1150500475,"category":"academic","building":"yes","source":"microsoft/BuildingFootprints"},"geometry":{"type":"Polygon","coordinates":[[[-80.268215,36.1321365],[-80.2683628,36.1322267],[-80.2684467,36.132137],[-80.2682988,36.1320468],[-80.268215,36.1321365]]]}},{"type":"Feature","id":1150500476,"properties":{"osmId":1150500476,"category":"academic","building":"yes","source":"microsoft/BuildingFootprints"},"geometry":{"type":"Polygon","coordinates":[[[-80.2685495,36.1317887],[-80.2684224,36.1319415],[-80.268572,36.1320228],[-80.2686421,36.1319386],[-80.2686014,36.1319165],[-80.2686585,36.1318479],[-80.2685495,36.1317887]]]}},{"type":"Feature","id":1150500477,"properties":{"osmId":1150500477,"category":"academic","building":"yes","source":"microsoft/BuildingFootprints"},"geometry":{"type":"Polygon","coordinates":[[[-80.2687707,36.1316039],[-80.2686756,36.1315564],[-80.2685802,36.1316812],[-80.2687063,36.1317441],[-80.2687375,36.1317034],[-80.2687065,36.1316879],[-80.2687707,36.1316039]]]}},{"type":"Feature","id":1150500478,"properties":{"osmId":1150500478,"category":"academic","building":"yes","source":"microsoft/BuildingFootprints"},"geometry":{"type":"Polygon","coordinates":[[[-80.2679979,36.1315502],[-80.2679283,36.1314902],[-80.2678426,36.1315551],[-80.2677918,36.1315112],[-80.2677289,36.1315588],[-80.2678494,36.1316626],[-80.2679979,36.1315502]]]}},{"type":"Feature","id":1150500479,"properties":{"osmId":1150500479,"category":"academic","building":"yes","source":"microsoft/BuildingFootprints"},"geometry":{"type":"Polygon","coordinates":[[[-80.2679571,36.131283],[-80.2680248,36.1313302],[-80.2679691,36.1313823],[-80.2680567,36.1314434],[-80.2682133,36.1312969],[-80.2681241,36.1312347],[-80.268079,36.1312769],[-80.2680129,36.1312309],[-80.2679571,36.131283]]]}},{"type":"Feature","id":1150500480,"properties":{"osmId":1150500480,"category":"academic","building":"yes","source":"microsoft/BuildingFootprints"},"geometry":{"type":"Polygon","coordinates":[[[-80.2681896,36.1311181],[-80.2682224,36.1311424],[-80.2681815,36.1311784],[-80.2682709,36.1312447],[-80.2684106,36.1311218],[-80.2683897,36.1311062],[-80.2684217,36.131078],[-80.2683205,36.131003],[-80.2681896,36.1311181]]]}},{"type":"Feature","id":1150500481,"properties":{"osmId":1150500481,"category":"academic","building":"yes","source":"microsoft/BuildingFootprints"},"geometry":{"type":"Polygon","coordinates":[[[-80.2687859,36.1313693],[-80.2688248,36.1313947],[-80.2687794,36.1314399],[-80.2688993,36.1315183],[-80.2690082,36.1314097],[-80.2688494,36.1313059],[-80.2687859,36.1313693]]]}},{"type":"Feature","id":1150500482,"properties":{"osmId":1150500482,"category":"academic","building":"yes","source":"microsoft/BuildingFootprints"},"geometry":{"type":"Polygon","coordinates":[[[-80.2686795,36.1308409],[-80.2685879,36.1307765],[-80.2683993,36.1309516],[-80.2684909,36.131016],[-80.2686795,36.1308409]]]}},{"type":"Feature","id":1150500483,"properties":{"osmId":1150500483,"category":"academic","building":"yes","source":"microsoft/BuildingFootprints"},"geometry":{"type":"Polygon","coordinates":[[[-80.2693829,36.131016],[-80.2694538,36.131115],[-80.2695764,36.1310578],[-80.2695404,36.1310074],[-80.2696147,36.1309727],[-80.2695508,36.1308834],[-80.2694523,36.1309294],[-80.2694814,36.13097],[-80.2693829,36.131016]]]}},{"type":"Feature","id":1150500484,"properties":{"osmId":1150500484,"category":"academic","building":"yes","source":"microsoft/BuildingFootprints"},"geometry":{"type":"Polygon","coordinates":[[[-80.2702577,36.1306141],[-80.2699648,36.130673],[-80.269995,36.1307709],[-80.270048,36.1307602],[-80.2700631,36.1308092],[-80.2701591,36.1307899],[-80.2701453,36.130745],[-80.2702892,36.130716],[-80.2702577,36.1306141]]]}},{"type":"Feature","id":1150500485,"properties":{"osmId":1150500485,"category":"academic","building":"yes","building:levels":"1","name":"Dianne Daily Golf Learning Center","source":"microsoft/BuildingFootprints"},"geometry":{"type":"Polygon","coordinates":[[[-80.2704928,36.1312186],[-80.2704498,36.1311229],[-80.2701025,36.1312248],[-80.2701455,36.1313205],[-80.2704928,36.1312186]]]}},{"type":"Feature","id":1150500486,"properties":{"osmId":1150500486,"category":"academic","building":"yes","source":"microsoft/BuildingFootprints"},"geometry":{"type":"Polygon","coordinates":[[[-80.2686582,36.1303581],[-80.2685139,36.1304491],[-80.2684731,36.1304068],[-80.2684307,36.1304335],[-80.2685341,36.1305404],[-80.2687206,36.1304227],[-80.2686582,36.1303581]]]}},{"type":"Feature","id":1150500487,"properties":{"osmId":1150500487,"category":"academic","building":"yes","source":"microsoft/BuildingFootprints"},"geometry":{"type":"Polygon","coordinates":[[[-80.2692977,36.1300955],[-80.2691301,36.1301011],[-80.269134,36.1301768],[-80.2692133,36.1301741],[-80.2692155,36.1302183],[-80.2693039,36.1302154],[-80.2692977,36.1300955]]]}},{"type":"Feature","id":1150500488,"properties":{"osmId":1150500488,"category":"academic","building":"yes","source":"microsoft/BuildingFootprints"},"geometry":{"type":"Polygon","coordinates":[[[-80.2696658,36.1302986],[-80.2696363,36.1302214],[-80.2695981,36.130231],[-80.2695875,36.1302033],[-80.269514,36.1302216],[-80.2695303,36.1302642],[-80.2694985,36.1302721],[-80.2695223,36.1303344],[-80.2696658,36.1302986]]]}},{"type":"Feature","id":1150500489,"properties":{"osmId":1150500489,"category":"academic","building":"yes","source":"microsoft/BuildingFootprints"},"geometry":{"type":"Polygon","coordinates":[[[-80.2700297,36.1300663],[-80.2698082,36.1301255],[-80.2698542,36.1302378],[-80.2700757,36.1301787],[-80.2700297,36.1300663]]]}},{"type":"Feature","id":1150500490,"properties":{"osmId":1150500490,"category":"academic","building":"yes","source":"microsoft/BuildingFootprints"},"geometry":{"type":"Polygon","coordinates":[[[-80.2703188,36.1299787],[-80.2701783,36.1300041],[-80.2702264,36.1301774],[-80.2704246,36.1301415],[-80.270396,36.1300384],[-80.2703383,36.1300488],[-80.2703188,36.1299787]]]}},{"type":"Feature","id":1150500491,"properties":{"osmId":1150500491,"category":"academic","building":"yes","source":"microsoft/BuildingFootprints"},"geometry":{"type":"Polygon","coordinates":[[[-80.2708917,36.1300203],[-80.2707571,36.1300269],[-80.2707548,36.1299967],[-80.2706746,36.1300006],[-80.2706774,36.1300373],[-80.2705892,36.1300416],[-80.2705963,36.1301366],[-80.2708288,36.1301252],[-80.2708267,36.1300971],[-80.2708973,36.1300936],[-80.2708917,36.1300203]]]}},{"type":"Feature","id":1150500492,"properties":{"osmId":1150500492,"category":"academic","building":"yes","source":"microsoft/BuildingFootprints"},"geometry":{"type":"Polygon","coordinates":[[[-80.2703304,36.130558],[-80.2703463,36.1306471],[-80.2704067,36.1306401],[-80.270413,36.1306752],[-80.270538,36.1306606],[-80.2705205,36.1305619],[-80.2704401,36.1305712],[-80.2704355,36.1305458],[-80.2703304,36.130558]]]}},{"type":"Feature","id":1150500493,"properties":{"osmId":1150500493,"category":"academic","building":"yes","source":"microsoft/BuildingFootprints"},"geometry":{"type":"Polygon","coordinates":[[[-80.2708044,36.1304935],[-80.2708112,36.1306146],[-80.2710414,36.1306061],[-80.2710343,36.1304797],[-80.2709738,36.1304819],[-80.2709756,36.1305143],[-80.2709103,36.1305167],[-80.2709088,36.1304897],[-80.2708044,36.1304935]]]}},{"type":"Feature","id":1150500494,"properties":{"osmId":1150500494,"category":"academic","building":"yes","source":"microsoft/BuildingFootprints"},"geometry":{"type":"Polygon","coordinates":[[[-80.271339,36.1304756],[-80.271196,36.1304806],[-80.2711966,36.1304914],[-80.2711334,36.1304936],[-80.2711394,36.1306039],[-80.2713455,36.1305966],[-80.271339,36.1304756]]]}},{"type":"Feature","id":1150547790,"properties":{"osmId":1150547790,"category":"academic","building":"yes","source":"microsoft/BuildingFootprints"},"geometry":{"type":"Polygon","coordinates":[[[-80.2717234,36.1304839],[-80.2716403,36.1304851],[-80.2716412,36.1305241],[-80.2715903,36.1305249],[-80.2715896,36.1304956],[-80.2714984,36.130497],[-80.271501,36.1306085],[-80.2717262,36.1306051],[-80.2717234,36.1304839]]]}},{"type":"Feature","id":1150547791,"properties":{"osmId":1150547791,"category":"academic","building":"yes","source":"microsoft/BuildingFootprints"},"geometry":{"type":"Polygon","coordinates":[[[-80.2719411,36.1304996],[-80.2718124,36.1305013],[-80.2718151,36.1306312],[-80.2719905,36.1306289],[-80.2719899,36.1306029],[-80.272057,36.130602],[-80.2720551,36.1305111],[-80.2719414,36.1305126],[-80.2719411,36.1304996]]]}},{"type":"Feature","id":1150547792,"properties":{"osmId":1150547792,"category":"academic","building":"yes","source":"microsoft/BuildingFootprints"},"geometry":{"type":"Polygon","coordinates":[[[-80.272343,36.1304806],[-80.27215,36.130485],[-80.2721535,36.1305824],[-80.2722205,36.1305809],[-80.2722208,36.1305896],[-80.2723977,36.1305855],[-80.2723927,36.1304448],[-80.2723418,36.130446],[-80.272343,36.1304806]]]}},{"type":"Feature","id":1150547793,"properties":{"osmId":1150547793,"category":"academic","building":"yes","source":"microsoft/BuildingFootprints"},"geometry":{"type":"Polygon","coordinates":[[[-80.2725165,36.1304775],[-80.2725209,36.1306096],[-80.2725772,36.1306083],[-80.2725789,36.1306581],[-80.2726486,36.1306566],[-80.2726464,36.1305917],[-80.2726946,36.1305906],[-80.2726919,36.1305105],[-80.2726367,36.1305117],[-80.2726355,36.1304749],[-80.2725165,36.1304775]]]}},{"type":"Feature","id":1150547794,"properties":{"osmId":1150547794,"category":"academic","building":"yes","source":"microsoft/BuildingFootprints"},"geometry":{"type":"Polygon","coordinates":[[[-80.2729841,36.1306138],[-80.2729864,36.1305154],[-80.2728551,36.1305133],[-80.2728522,36.1306346],[-80.2729016,36.1306354],[-80.2729021,36.1306126],[-80.2729841,36.1306138]]]}},{"type":"Feature","id":1150547795,"properties":{"osmId":1150547795,"category":"academic","building":"yes","name":"Haddock House","source":"microsoft/BuildingFootprints"},"geometry":{"type":"Polygon","coordinates":[[[-80.2718115,36.1311492],[-80.2718786,36.1312468],[-80.2717466,36.1313126],[-80.2718358,36.1314243],[-80.2719604,36.1313685],[-80.2720196,36.131449],[-80.2721744,36.1313828],[-80.2721101,36.1312754],[-80.2721357,36.131265],[-80.2720763,36.1311701],[-80.2720336,36.1311875],[-80.2719478,36.1310809],[-80.2718115,36.1311492]]]}},{"type":"Feature","id":1150547798,"properties":{"osmId":1150547798,"category":"academic","building":"yes","source":"microsoft/BuildingFootprints"},"geometry":{"type":"Polygon","coordinates":[[[-80.2727327,36.1300219],[-80.2727321,36.1299331],[-80.2727187,36.1299331],[-80.2727185,36.1298953],[-80.2725763,36.1298958],[-80.2725762,36.1298752],[-80.2724877,36.1298756],[-80.2724886,36.1300229],[-80.2727327,36.1300219]]]}},{"type":"Feature","id":1150547799,"properties":{"osmId":1150547799,"category":"academic","building":"yes","source":"microsoft/BuildingFootprints"},"geometry":{"type":"Polygon","coordinates":[[[-80.2721502,36.1298556],[-80.2721581,36.1300221],[-80.2723885,36.130015],[-80.2723838,36.1299166],[-80.272282,36.1299197],[-80.2722787,36.1298516],[-80.2721502,36.1298556]]]}},{"type":"Feature","id":1150547800,"properties":{"osmId":1150547800,"category":"academic","building":"yes","source":"microsoft/BuildingFootprints"},"geometry":{"type":"Polygon","coordinates":[[[-80.2719961,36.1299253],[-80.2718191,36.1299279],[-80.2718214,36.1300297],[-80.2720574,36.1300262],[-80.2720545,36.1299006],[-80.2719955,36.1299014],[-80.2719961,36.1299253]]]}},{"type":"Feature","id":1150547801,"properties":{"osmId":1150547801,"category":"academic","building":"yes","source":"microsoft/BuildingFootprints"},"geometry":{"type":"Polygon","coordinates":[[[-80.2710369,36.1300101],[-80.2710432,36.1301083],[-80.2712267,36.1301007],[-80.2712204,36.1300024],[-80.2710369,36.1300101]]]}},{"type":"Feature","id":1150547802,"properties":{"osmId":1150547802,"category":"academic","building":"university","name":"Angelou Residence Hall","source":"microsoft/BuildingFootprints"},"geometry":{"type":"Polygon","coordinates":[[[-80.2742977,36.1318794],[-80.2745622,36.1321826],[-80.2746966,36.1321061],[-80.2745703,36.1319613],[-80.2746285,36.1319282],[-80.2746538,36.1319572],[-80.2747864,36.1318817],[-80.2747543,36.1318449],[-80.2748224,36.1318061],[-80.2749265,36.1319254],[-80.2750447,36.1318581],[-80.2748219,36.1316027],[-80.2746929,36.1316762],[-80.274727,36.1317153],[-80.2744653,36.1318642],[-80.2744186,36.1318106],[-80.2742977,36.1318794]]]}},{"type":"Feature","id":1150547803,"properties":{"osmId":1150547803,"category":"academic","building":"yes","source":"microsoft/BuildingFootprints"},"geometry":{"type":"Polygon","coordinates":[[[-80.2749096,36.1301064],[-80.2749041,36.1298964],[-80.2747137,36.1298997],[-80.2747186,36.130088],[-80.2747776,36.130087],[-80.2747782,36.1301087],[-80.2749096,36.1301064]]]}},{"type":"Feature","id":1150547804,"properties":{"osmId":1150547804,"category":"academic","building":"yes","source":"microsoft/BuildingFootprints"},"geometry":{"type":"Polygon","coordinates":[[[-80.2772579,36.130087],[-80.2772579,36.1299895],[-80.2771023,36.1299895],[-80.2771023,36.1300134],[-80.2770835,36.1300134],[-80.2770835,36.1300524],[-80.2771023,36.1300524],[-80.2771023,36.130087],[-80.2772579,36.130087]]]}},{"type":"Feature","id":1150547805,"properties":{"osmId":1150547805,"category":"academic","building":"yes","source":"microsoft/BuildingFootprints"},"geometry":{"type":"Polygon","coordinates":[[[-80.276949,36.1299365],[-80.2768536,36.1299394],[-80.2768552,36.1299741],[-80.2767471,36.1299774],[-80.2767513,36.1300669],[-80.2768354,36.1300643],[-80.2768363,36.1300837],[-80.2768979,36.1300818],[-80.2768969,36.1300616],[-80.2769548,36.1300598],[-80.276949,36.1299365]]]}},{"type":"Feature","id":1150547806,"properties":{"osmId":1150547806,"category":"academic","building":"yes","source":"microsoft/BuildingFootprints"},"geometry":{"type":"Polygon","coordinates":[[[-80.2765582,36.1299849],[-80.2764456,36.1299868],[-80.2764481,36.1300843],[-80.2765607,36.1300823],[-80.2765582,36.1299849]]]}},{"type":"Feature","id":1150547807,"properties":{"osmId":1150547807,"category":"academic","building":"yes","source":"microsoft/BuildingFootprints"},"geometry":{"type":"Polygon","coordinates":[[[-80.2770919,36.1294039],[-80.2769909,36.1294193],[-80.2770005,36.1294604],[-80.2768917,36.1294769],[-80.276927,36.1296283],[-80.2770073,36.1296161],[-80.276997,36.1295722],[-80.2771447,36.1295497],[-80.2771261,36.1294702],[-80.277108,36.1294729],[-80.2770919,36.1294039]]]}},{"type":"Feature","id":1150547808,"properties":{"osmId":1150547808,"category":"academic","building":"yes","source":"microsoft/BuildingFootprints"},"geometry":{"type":"Polygon","coordinates":[[[-80.2765354,36.1294221],[-80.2765361,36.1294408],[-80.2764798,36.1294421],[-80.2764811,36.129481],[-80.2764462,36.1294818],[-80.276448,36.1295337],[-80.2766319,36.1295297],[-80.2766282,36.1294201],[-80.2765354,36.1294221]]]}},{"type":"Feature","id":1150547809,"properties":{"osmId":1150547809,"category":"academic","building":"yes","source":"microsoft/BuildingFootprints"},"geometry":{"type":"Polygon","coordinates":[[[-80.2756577,36.1294676],[-80.2757237,36.1294679],[-80.2757228,36.1295923],[-80.2758623,36.1295929],[-80.2758637,36.1294015],[-80.2756582,36.1294005],[-80.2756577,36.1294676]]]}},{"type":"Feature","id":1150547810,"properties":{"osmId":1150547810,"category":"academic","building":"yes","source":"microsoft/BuildingFootprints"},"geometry":{"type":"Polygon","coordinates":[[[-80.276255,36.129479],[-80.2761461,36.1294817],[-80.2761492,36.1295631],[-80.2761197,36.1295638],[-80.2761215,36.1296115],[-80.2762599,36.1296081],[-80.276255,36.129479]]]}},{"type":"Feature","id":1150547811,"properties":{"osmId":1150547811,"category":"academic","building":"yes","source":"microsoft/BuildingFootprints"},"geometry":{"type":"Polygon","coordinates":[[[-80.2750271,36.1295578],[-80.2749174,36.1294528],[-80.2748249,36.1295158],[-80.2749347,36.1296208],[-80.2750271,36.1295578]]]}},{"type":"Feature","id":1150547812,"properties":{"osmId":1150547812,"category":"academic","building":"yes","source":"microsoft/BuildingFootprints"},"geometry":{"type":"Polygon","coordinates":[[[-80.2745465,36.1294927],[-80.2744199,36.1293953],[-80.2742827,36.1295117],[-80.2744093,36.1296091],[-80.2745465,36.1294927]]]}},{"type":"Feature","id":1150547813,"properties":{"osmId":1150547813,"category":"academic","building":"yes","source":"microsoft/BuildingFootprints"},"geometry":{"type":"Polygon","coordinates":[[[-80.2739501,36.1293454],[-80.2739458,36.1295121],[-80.2740547,36.129514],[-80.2740571,36.1294208],[-80.2741332,36.1294221],[-80.2741351,36.1293485],[-80.2739501,36.1293454]]]}},{"type":"Feature","id":1150547814,"properties":{"osmId":1150547814,"category":"academic","building":"yes","source":"microsoft/BuildingFootprints"},"geometry":{"type":"Polygon","coordinates":[[[-80.2736972,36.1294702],[-80.2736113,36.1293848],[-80.2734733,36.1294753],[-80.2735592,36.1295607],[-80.2736972,36.1294702]]]}},{"type":"Feature","id":1150547815,"properties":{"osmId":1150547815,"category":"academic","building":"yes","source":"microsoft/BuildingFootprints"},"geometry":{"type":"Polygon","coordinates":[[[-80.2732343,36.1298495],[-80.2730734,36.1298475],[-80.2730718,36.1299298],[-80.2730852,36.1299299],[-80.2730839,36.1299981],[-80.2733253,36.1300011],[-80.273327,36.1299101],[-80.2732331,36.1299089],[-80.2732343,36.1298495]]]}},{"type":"Feature","id":1150547816,"properties":{"osmId":1150547816,"category":"academic","building":"yes","source":"microsoft/BuildingFootprints"},"geometry":{"type":"Polygon","coordinates":[[[-80.2762553,36.1299115],[-80.2761766,36.1299141],[-80.2761779,36.12994],[-80.276052,36.1299441],[-80.2760562,36.1300276],[-80.2761285,36.1300253],[-80.276134,36.1301364],[-80.2762223,36.1301336],[-80.2762169,36.1300232],[-80.2762608,36.1300218],[-80.2762553,36.1299115]]]}},{"type":"Feature","id":1150547817,"properties":{"osmId":1150547817,"category":"academic","building":"yes","source":"microsoft/BuildingFootprints"},"geometry":{"type":"Polygon","coordinates":[[[-80.2759249,36.12998],[-80.2757722,36.1299841],[-80.2757708,36.1299494],[-80.2757108,36.129951],[-80.2757162,36.130083],[-80.2758512,36.1300794],[-80.2758505,36.1300621],[-80.2759282,36.13006],[-80.2759249,36.12998]]]}},{"type":"Feature","id":1150547818,"properties":{"osmId":1150547818,"category":"academic","building":"yes","source":"microsoft/BuildingFootprints"},"geometry":{"type":"Polygon","coordinates":[[[-80.2755257,36.1300029],[-80.2753714,36.1299984],[-80.2753676,36.130085],[-80.2755219,36.1300894],[-80.2755257,36.1300029]]]}},{"type":"Feature","id":1150547819,"properties":{"osmId":1150547819,"category":"academic","building":"yes","source":"microsoft/BuildingFootprints"},"geometry":{"type":"Polygon","coordinates":[[[-80.2750575,36.1299988],[-80.2750623,36.1300983],[-80.2752712,36.1300918],[-80.2752664,36.1299923],[-80.2750575,36.1299988]]]}},{"type":"Feature","id":1150547820,"properties":{"osmId":1150547820,"category":"academic","building":"yes","source":"microsoft/BuildingFootprints"},"geometry":{"type":"Polygon","coordinates":[[[-80.277865,36.1299495],[-80.2778641,36.1299214],[-80.2777462,36.1299238],[-80.2777499,36.1300407],[-80.2777981,36.1300397],[-80.2777989,36.1300635],[-80.2779785,36.1300598],[-80.2779749,36.1299472],[-80.277865,36.1299495]]]}},{"type":"Feature","id":1150547821,"properties":{"osmId":1150547821,"category":"academic","building":"yes","source":"microsoft/BuildingFootprints"},"geometry":{"type":"Polygon","coordinates":[[[-80.2780898,36.1299413],[-80.2781193,36.1299406],[-80.2781234,36.1300553],[-80.278244,36.1300525],[-80.2782376,36.1298758],[-80.2780875,36.1298793],[-80.2780898,36.1299413]]]}},{"type":"Feature","id":1150547822,"properties":{"osmId":1150547822,"category":"academic","building":"yes","source":"microsoft/BuildingFootprints"},"geometry":{"type":"Polygon","coordinates":[[[-80.2785913,36.1300475],[-80.2785952,36.1299263],[-80.2785335,36.129925],[-80.2785323,36.1299639],[-80.278417,36.1299615],[-80.2784144,36.1300438],[-80.2785913,36.1300475]]]}},{"type":"Feature","id":1150547823,"properties":{"osmId":1150547823,"category":"academic","building":"yes","source":"microsoft/BuildingFootprints"},"geometry":{"type":"Polygon","coordinates":[[[-80.2787372,36.1300507],[-80.278949,36.1300463],[-80.2789452,36.1299251],[-80.2788513,36.129927],[-80.2788522,36.1299551],[-80.2787343,36.1299576],[-80.2787372,36.1300507]]]}},{"type":"Feature","id":1150547824,"properties":{"osmId":1150547824,"category":"academic","building":"yes","source":"microsoft/BuildingFootprints"},"geometry":{"type":"Polygon","coordinates":[[[-80.2792926,36.1300109],[-80.2793285,36.1300119],[-80.2793313,36.1299404],[-80.2790848,36.1299339],[-80.2790805,36.1300422],[-80.2792911,36.1300477],[-80.2792926,36.1300109]]]}},{"type":"Feature","id":1150547825,"properties":{"osmId":1150547825,"category":"academic","building":"yes","source":"microsoft/BuildingFootprints"},"geometry":{"type":"Polygon","coordinates":[[[-80.2790862,36.1294114],[-80.2790874,36.1294634],[-80.279141,36.1294626],[-80.2791428,36.1295427],[-80.2792581,36.129541],[-80.2792551,36.1294089],[-80.2790862,36.1294114]]]}},{"type":"Feature","id":1150547826,"properties":{"osmId":1150547826,"category":"academic","building":"yes","source":"microsoft/BuildingFootprints"},"geometry":{"type":"Polygon","coordinates":[[[-80.279105,36.1290333],[-80.2789772,36.1290354],[-80.2789801,36.1291515],[-80.2791544,36.1291486],[-80.279153,36.1290923],[-80.2791065,36.1290931],[-80.279105,36.1290333]]]}},{"type":"Feature","id":1150547827,"properties":{"osmId":1150547827,"category":"academic","building":"yes","source":"microsoft/BuildingFootprints"},"geometry":{"type":"Polygon","coordinates":[[[-80.2787155,36.1291481],[-80.2785656,36.129154],[-80.2785648,36.1291402],[-80.2785006,36.1291427],[-80.2785066,36.129243],[-80.2787207,36.1292346],[-80.2787155,36.1291481]]]}},{"type":"Feature","id":1150547828,"properties":{"osmId":1150547828,"category":"academic","building":"yes","source":"microsoft/BuildingFootprints"},"geometry":{"type":"Polygon","coordinates":[[[-80.278225,36.1293801],[-80.2783321,36.129383],[-80.2783383,36.1292358],[-80.2782311,36.1292329],[-80.278225,36.1293801]]]}},{"type":"Feature","id":1150547829,"properties":{"osmId":1150547829,"category":"academic","building":"yes","source":"microsoft/BuildingFootprints"},"geometry":{"type":"Polygon","coordinates":[[[-80.2780449,36.1294716],[-80.278026,36.1293084],[-80.2779462,36.1293144],[-80.2779514,36.1293595],[-80.2777759,36.1293727],[-80.2777856,36.1294565],[-80.2778451,36.129452],[-80.2778491,36.1294864],[-80.2780449,36.1294716]]]}},{"type":"Feature","id":1150547830,"properties":{"osmId":1150547830,"category":"academic","building":"yes","source":"microsoft/BuildingFootprints"},"geometry":{"type":"Polygon","coordinates":[[[-80.2773349,36.1295235],[-80.2775611,36.129534],[-80.2775672,36.1294489],[-80.2773409,36.1294385],[-80.2773349,36.1295235]]]}},{"type":"Feature","id":1150547831,"properties":{"osmId":1150547831,"category":"academic","building":"yes","source":"microsoft/BuildingFootprints"},"geometry":{"type":"Polygon","coordinates":[[[-80.2774197,36.1299648],[-80.2774188,36.1300709],[-80.2775556,36.1300716],[-80.2775564,36.1299655],[-80.2774197,36.1299648]]]}},{"type":"Feature","id":1150547832,"properties":{"osmId":1150547832,"category":"academic","building":"yes","source":"microsoft/BuildingFootprints"},"geometry":{"type":"Polygon","coordinates":[[[-80.27731,36.1288243],[-80.2770527,36.1288463],[-80.2770709,36.1289856],[-80.2771514,36.1289787],[-80.2771444,36.1289251],[-80.2772293,36.1289179],[-80.2772343,36.1289564],[-80.2773262,36.1289486],[-80.27731,36.1288243]]]}},{"type":"Feature","id":1150547833,"properties":{"osmId":1150547833,"category":"academic","building":"yes","source":"microsoft/BuildingFootprints"},"geometry":{"type":"Polygon","coordinates":[[[-80.2776887,36.1286508],[-80.2774289,36.128727],[-80.2774794,36.1288392],[-80.2775117,36.1288297],[-80.2775224,36.1288534],[-80.2776298,36.1288218],[-80.2776132,36.1287848],[-80.2776605,36.1287709],[-80.2776789,36.1288118],[-80.2777515,36.1287905],[-80.2776887,36.1286508]]]}},{"type":"Feature","id":1150547834,"properties":{"osmId":1150547834,"category":"academic","building":"yes","source":"microsoft/BuildingFootprints"},"geometry":{"type":"Polygon","coordinates":[[[-80.2781269,36.1286182],[-80.2780108,36.1286728],[-80.2780703,36.1287553],[-80.2781864,36.1287007],[-80.2781269,36.1286182]]]}},{"type":"Feature","id":1150547835,"properties":{"osmId":1150547835,"category":"academic","building":"yes","source":"microsoft/BuildingFootprints"},"geometry":{"type":"Polygon","coordinates":[[[-80.2780457,36.1281515],[-80.2779425,36.1280986],[-80.2777896,36.1282932],[-80.2778929,36.1283461],[-80.2780457,36.1281515]]]}},{"type":"Feature","id":1150547836,"properties":{"osmId":1150547836,"category":"academic","building":"yes","source":"microsoft/BuildingFootprints"},"geometry":{"type":"Polygon","coordinates":[[[-80.2772542,36.1283871],[-80.277268,36.1284125],[-80.2773571,36.128381],[-80.2773009,36.1282774],[-80.2772244,36.1283045],[-80.2772067,36.1282718],[-80.2770739,36.1283187],[-80.2771341,36.1284296],[-80.2772542,36.1283871]]]}},{"type":"Feature","id":1150547837,"properties":{"osmId":1150547837,"category":"academic","building":"yes","source":"microsoft/BuildingFootprints"},"geometry":{"type":"Polygon","coordinates":[[[-80.277342,36.1284909],[-80.277302,36.1284281],[-80.2772236,36.1284607],[-80.2772636,36.1285235],[-80.277342,36.1284909]]]}},{"type":"Feature","id":1150547838,"properties":{"osmId":1150547838,"category":"academic","building":"yes","source":"microsoft/BuildingFootprints"},"geometry":{"type":"Polygon","coordinates":[[[-80.2786318,36.1286486],[-80.2788403,36.1286386],[-80.2788362,36.1285825],[-80.278748,36.1285867],[-80.2787415,36.1284982],[-80.2786212,36.128504],[-80.2786318,36.1286486]]]}},{"type":"Feature","id":1150547839,"properties":{"osmId":1150547839,"category":"academic","building":"yes","source":"microsoft/BuildingFootprints"},"geometry":{"type":"Polygon","coordinates":[[[-80.2790273,36.1285633],[-80.2790289,36.1286586],[-80.2792649,36.128656],[-80.2792633,36.1285607],[-80.2790273,36.1285633]]]}},{"type":"Feature","id":1150547840,"properties":{"osmId":1150547840,"category":"academic","building":"yes","source":"microsoft/BuildingFootprints"},"geometry":{"type":"Polygon","coordinates":[[[-80.2791221,36.1280956],[-80.2791468,36.1279889],[-80.279082,36.1279791],[-80.279078,36.1279967],[-80.2789225,36.1279732],[-80.2789018,36.1280624],[-80.2791221,36.1280956]]]}},{"type":"Feature","id":1150547841,"properties":{"osmId":1150547841,"category":"academic","building":"yes","source":"microsoft/BuildingFootprints"},"geometry":{"type":"Polygon","coordinates":[[[-80.2785956,36.1279471],[-80.2785923,36.1278489],[-80.278394,36.1278531],[-80.2783972,36.1279514],[-80.2785956,36.1279471]]]}},{"type":"Feature","id":1150551584,"properties":{"osmId":1150551584,"category":"academic","building":"yes","source":"microsoft/BuildingFootprints"},"geometry":{"type":"Polygon","coordinates":[[[-80.2760891,36.1287793],[-80.2759203,36.1287752],[-80.2759146,36.1289267],[-80.2759441,36.1289274],[-80.2759452,36.1288993],[-80.2760845,36.1289027],[-80.2760891,36.1287793]]]}},{"type":"Feature","id":1150551585,"properties":{"osmId":1150551585,"category":"academic","building":"yes","source":"microsoft/BuildingFootprints"},"geometry":{"type":"Polygon","coordinates":[[[-80.2755548,36.1289475],[-80.2756835,36.12895],[-80.275687,36.1288309],[-80.27551,36.1288275],[-80.2755073,36.1289228],[-80.2755555,36.1289237],[-80.2755548,36.1289475]]]}},{"type":"Feature","id":1150551586,"properties":{"osmId":1150551586,"category":"academic","building":"yes","source":"microsoft/BuildingFootprints"},"geometry":{"type":"Polygon","coordinates":[[[-80.2765719,36.1288436],[-80.2763433,36.1288369],[-80.2763394,36.1289234],[-80.276568,36.1289301],[-80.2765719,36.1288436]]]}},{"type":"Feature","id":1150551587,"properties":{"osmId":1150551587,"category":"academic","building":"yes","source":"microsoft/BuildingFootprints"},"geometry":{"type":"Polygon","coordinates":[[[-80.2751221,36.1289581],[-80.2753425,36.1288361],[-80.27527,36.1287506],[-80.2752031,36.1287876],[-80.2751845,36.1287884],[-80.2749715,36.1289063],[-80.274977,36.1289991],[-80.2751242,36.1289935],[-80.2751221,36.1289581]]]}},{"type":"Feature","id":1150551588,"properties":{"osmId":1150551588,"category":"academic","building":"yes","source":"microsoft/BuildingFootprints"},"geometry":{"type":"Polygon","coordinates":[[[-80.2746685,36.1288205],[-80.274438,36.1288162],[-80.2744353,36.1289093],[-80.2745694,36.1289118],[-80.2745682,36.1289542],[-80.2746647,36.128956],[-80.2746685,36.1288205]]]}},{"type":"Feature","id":1150551589,"properties":{"osmId":1150551589,"category":"academic","building":"yes","source":"microsoft/BuildingFootprints"},"geometry":{"type":"Polygon","coordinates":[[[-80.2737618,36.130568],[-80.2737632,36.1304966],[-80.2735932,36.1304944],[-80.273591,36.1306049],[-80.2737198,36.1306065],[-80.2737205,36.1305675],[-80.2737618,36.130568]]]}},{"type":"Feature","id":1150551590,"properties":{"osmId":1150551590,"category":"academic","building":"yes","source":"microsoft/BuildingFootprints"},"geometry":{"type":"Polygon","coordinates":[[[-80.2733423,36.1305078],[-80.2731921,36.1305055],[-80.2731902,36.1305878],[-80.2733403,36.1305901],[-80.2733423,36.1305078]]]}},{"type":"Feature","id":1150551591,"properties":{"osmId":1150551591,"category":"academic","building":"yes","source":"microsoft/BuildingFootprints"},"geometry":{"type":"Polygon","coordinates":[[[-80.2727908,36.1306907],[-80.2727938,36.1307577],[-80.2728618,36.1307557],[-80.2728588,36.1306887],[-80.2727908,36.1306907]]]}},{"type":"Feature","id":1150551592,"properties":{"osmId":1150551592,"category":"academic","building":"yes","source":"microsoft/BuildingFootprints"},"geometry":{"type":"Polygon","coordinates":[[[-80.276439,36.1283773],[-80.2763575,36.1283057],[-80.2761829,36.1284352],[-80.2762703,36.128512],[-80.2763837,36.1284278],[-80.2763779,36.1284227],[-80.276439,36.1283773]]]}},{"type":"Feature","id":1170869265,"properties":{"osmId":1170869265,"category":"academic","building":"university","name":"Miller Center"},"geometry":{"type":"Polygon","coordinates":[[[-80.2746274,36.1341109],[-80.2740807,36.1344561],[-80.2738839,36.1342522],[-80.2742375,36.1340299],[-80.2744306,36.1339086],[-80.2746274,36.1341109]]]}},{"type":"Feature","id":1170869266,"properties":{"osmId":1170869266,"category":"academic","building":"university","name":"Shah Basketball Center"},"geometry":{"type":"Polygon","coordinates":[[[-80.2738839,36.1342522],[-80.2738501,36.1342731],[-80.273691,36.1341109],[-80.2740827,36.1338636],[-80.2742375,36.1340299],[-80.2738839,36.1342522]]]}},{"type":"Feature","id":1170869267,"properties":{"osmId":1170869267,"category":"academic","building":"university","name":"Sutton Sports Performance Center"},"geometry":{"type":"Polygon","coordinates":[[[-80.2736214,36.1341543],[-80.2735737,36.1341061],[-80.2735459,36.1341206],[-80.2733642,36.133928],[-80.2733419,36.1340479],[-80.2731925,36.134031],[-80.2732116,36.1339098],[-80.2732771,36.1339154],[-80.2733272,36.1338829],[-80.2738103,36.1335794],[-80.2740827,36.1338636],[-80.273691,36.1341109],[-80.2736214,36.1341543]]]}},{"type":"Feature","id":1170869268,"properties":{"osmId":1170869268,"category":"academic","building":"university","layer":"1","name":"McCreary Field House"},"geometry":{"type":"Polygon","coordinates":[[[-80.2732686,36.1339208],[-80.2723957,36.1330312],[-80.2729707,36.1326712],[-80.2738297,36.1335665],[-80.2732771,36.1339154],[-80.2732686,36.1339208]]]}},{"type":"Feature","id":1170874434,"properties":{"osmId":1170874434,"category":"academic","building":"yes","layer":"1"},"geometry":{"type":"Polygon","coordinates":[[[-80.2725576,36.1321407],[-80.272223,36.1322324],[-80.2721523,36.1320729],[-80.2724868,36.1319848],[-80.2725576,36.1321407]]]}},{"type":"Feature","id":1339947789,"properties":{"osmId":1339947789,"category":"academic","building":"yes","source":"microsoft/BuildingFootprints"},"geometry":{"type":"Polygon","coordinates":[[[-80.2834715,36.1336236],[-80.2834652,36.1337762],[-80.2836018,36.1337799],[-80.2836082,36.1336273],[-80.2834715,36.1336236]]]}},{"type":"Feature","id":1339947790,"properties":{"osmId":1339947790,"category":"academic","building":"yes","source":"microsoft/BuildingFootprints"},"geometry":{"type":"Polygon","coordinates":[[[-80.2834733,36.1338952],[-80.2834715,36.1340404],[-80.283501,36.1340406],[-80.2835003,36.1340958],[-80.2835807,36.1340965],[-80.2835833,36.1338962],[-80.2834733,36.1338952]]]}},{"type":"Feature","id":1384174376,"properties":{"osmId":1384174376,"category":"academic","building":"yes","source":"microsoft/BuildingFootprints"},"geometry":{"type":"Polygon","coordinates":[[[-80.2832129,36.1323595],[-80.2831085,36.1323637],[-80.2831062,36.1323269],[-80.2829832,36.1323319],[-80.2829918,36.1324713],[-80.2832192,36.1324621],[-80.2832129,36.1323595]]]}},{"type":"Feature","id":1384174378,"properties":{"osmId":1384174378,"category":"academic","building":"yes","source":"microsoft/BuildingFootprints"},"geometry":{"type":"Polygon","coordinates":[[[-80.2823616,36.1311299],[-80.282382,36.131273],[-80.282356,36.1312366],[-80.2821913,36.1312519],[-80.2822047,36.1313459],[-80.2821111,36.131215],[-80.2819895,36.1312717],[-80.2821399,36.1314821],[-80.2822666,36.131423],[-80.2822634,36.1314007],[-80.28232,36.1313743],[-80.2823548,36.131371],[-80.2823956,36.131352],[-80.2824087,36.1313704],[-80.2825496,36.1313573],[-80.2825407,36.1312953],[-80.2826742,36.1312828],[-80.2826604,36.1311859],[-80.2826255,36.1311371],[-80.282621,36.1311058],[-80.2823616,36.1311299]]]}},{"type":"Feature","id":1384174379,"properties":{"osmId":1384174379,"category":"academic","building":"yes","source":"microsoft/BuildingFootprints"},"geometry":{"type":"Polygon","coordinates":[[[-80.2836056,36.133284],[-80.283473,36.1332877],[-80.2834793,36.1334391],[-80.2836119,36.1334355],[-80.2836056,36.133284]]]}},{"type":"Feature","id":1384174380,"properties":{"osmId":1384174380,"category":"academic","building":"yes","source":"microsoft/BuildingFootprints"},"geometry":{"type":"Polygon","coordinates":[[[-80.2829551,36.1332914],[-80.2828935,36.1332898],[-80.2828877,36.1334402],[-80.2829949,36.1334429],[-80.2829998,36.1333141],[-80.2829543,36.133313],[-80.2829551,36.1332914]]]}},{"type":"Feature","id":1384174381,"properties":{"osmId":1384174381,"category":"academic","building":"yes","source":"microsoft/BuildingFootprints"},"geometry":{"type":"Polygon","coordinates":[[[-80.2829931,36.1335997],[-80.2829006,36.1335979],[-80.2828989,36.1336564],[-80.2828641,36.1336557],[-80.2828631,36.1336904],[-80.2828952,36.133691],[-80.2828934,36.1337527],[-80.2829886,36.1337545],[-80.2829931,36.1335997]]]}},{"type":"Feature","id":1384174382,"properties":{"osmId":1384174382,"category":"academic","building":"yes","source":"microsoft/BuildingFootprints"},"geometry":{"type":"Polygon","coordinates":[[[-80.282882,36.1341151],[-80.2829771,36.1341154],[-80.2829783,36.1338771],[-80.282867,36.1338767],[-80.2828665,36.1339894],[-80.2828383,36.1339893],[-80.282838,36.1340413],[-80.2828823,36.1340414],[-80.282882,36.1341151]]]}},{"type":"Feature","id":1384174383,"properties":{"osmId":1384174383,"category":"academic","building":"yes","source":"microsoft/BuildingFootprints"},"geometry":{"type":"Polygon","coordinates":[[[-80.281272,36.1337885],[-80.2814434,36.1337824],[-80.2814343,36.1336148],[-80.2812629,36.1336208],[-80.281272,36.1337885]]]}},{"type":"Feature","id":1384174384,"properties":{"osmId":1384174384,"category":"academic","building":"yes","source":"microsoft/BuildingFootprints"},"geometry":{"type":"Polygon","coordinates":[[[-80.2828959,36.1349711],[-80.2830395,36.1349696],[-80.2830367,36.134793],[-80.2828931,36.1347945],[-80.2828959,36.1349711]]]}},{"type":"Feature","id":1384174385,"properties":{"osmId":1384174385,"category":"academic","building":"yes","source":"microsoft/BuildingFootprints"},"geometry":{"type":"Polygon","coordinates":[[[-80.2808818,36.1357048],[-80.2807809,36.1358588],[-80.2809904,36.1359484],[-80.2810913,36.1357944],[-80.2808818,36.1357048]]]}},{"type":"Feature","id":1384174386,"properties":{"osmId":1384174386,"category":"academic","building":"yes","source":"microsoft/BuildingFootprints"},"geometry":{"type":"Polygon","coordinates":[[[-80.28304,36.1361734],[-80.2830178,36.1362776],[-80.2829293,36.1362653],[-80.2829167,36.1363242],[-80.2831252,36.1363531],[-80.2831598,36.13619],[-80.28304,36.1361734]]]}},{"type":"Feature","id":1384174387,"properties":{"osmId":1384174387,"category":"academic","building":"yes","source":"microsoft/BuildingFootprints"},"geometry":{"type":"Polygon","coordinates":[[[-80.2831194,36.136517],[-80.2831241,36.136437],[-80.2830288,36.1364334],[-80.2830242,36.1365134],[-80.2831194,36.136517]]]}},{"type":"Feature","id":1384174388,"properties":{"osmId":1384174388,"category":"academic","building":"yes","source":"microsoft/BuildingFootprints"},"geometry":{"type":"Polygon","coordinates":[[[-80.2831927,36.1359734],[-80.2831582,36.1360535],[-80.2832936,36.1360916],[-80.2833281,36.1360114],[-80.2831927,36.1359734]]]}},{"type":"Feature","id":1384174524,"properties":{"osmId":1384174524,"category":"academic","building":"yes","source":"microsoft/BuildingFootprints"},"geometry":{"type":"Polygon","coordinates":[[[-80.2788047,36.132577],[-80.2786528,36.1326409],[-80.2787639,36.132813],[-80.2789157,36.132749],[-80.2788047,36.132577]]]}},{"type":"Feature","id":1384174525,"properties":{"osmId":1384174525,"category":"academic","building":"yes","source":"microsoft/BuildingFootprints"},"geometry":{"type":"Polygon","coordinates":[[[-80.2794426,36.1333422],[-80.2793175,36.1332082],[-80.2792081,36.1332749],[-80.2793332,36.1334088],[-80.2794426,36.1333422]]]}}]}